zip,type,decommissioned,primary_city,acceptable_cities,unacceptable_cities,state,county,timezone,area_codes,world_region,country,latitude,longitude,estimated_population_2014,
20101,UNIQUE,0,Dulles,,Dulles P & D Center,VA,Loudoun County,America/New_York,571,NA,US,38.92,-77.35,87,
20102,UNIQUE,0,Dulles,,Dulles Air Mail Facility -  Dulles Air Transfer Office,VA,Loudoun County,America/New_York,571,NA,US,38.92,-77.35,0,
20103,UNIQUE,0,Dulles,,Stamp Distribution Network,VA,Loudoun County,America/New_York,571,NA,US,38.92,-77.35,0,
20104,UNIQUE,0,Dulles,,Inspection Service Forensic,VA,Loudoun County,America/New_York,571,NA,US,38.92,-77.35,0,
20105,STANDARD,0,Aldie,Stone Ridge,,VA,Loudoun County,America/New_York,"540,703,571",NA,US,38.97,-77.64,19220,
20106,STANDARD,0,Amissville,Viewtown,,VA,Rappahannock County,America/New_York,,NA,US,38.67,-77.99,4620,
20107,STANDARD,1,Arcola,,,VA,Loudoun County,America/New_York,,NA,US,38.96,-77.52,31,
20108,PO BOX,0,Manassas,,,VA,Manassas City,America/New_York,571,NA,US,38.74,-77.48,1684,
20109,STANDARD,0,Manassas,Sudley Spgs -  Sudley Springs,,VA,Prince William County,America/New_York,"571,703",NA,US,38.74,-77.48,37950,
20110,STANDARD,0,Manassas,,,VA,Manassas City,America/New_York,"571,703",NA,US,38.74,-77.48,45090,
20111,STANDARD,0,Manassas,Manassas Park,,VA,Manassas Park City,America/New_York,"571,703",NA,US,38.74,-77.48,33920,
20112,STANDARD,0,Manassas,,,VA,Prince William County,America/New_York,"571,703",NA,US,38.74,-77.48,27190,
20113,PO BOX,0,Manassas,,,VA,Manassas City,America/New_York,571,NA,US,38.74,-77.48,188,
20115,STANDARD,0,Marshall,,,VA,Fauquier County,America/New_York,540,NA,US,38.87,-77.85,5110,
20116,PO BOX,0,Marshall,,,VA,Fauquier County,America/New_York,,NA,US,38.87,-77.85,902,
20117,STANDARD,0,Middleburg,,,VA,Loudoun County,America/New_York,540,NA,US,38.97,-77.73,1420,
20118,PO BOX,0,Middleburg,,,VA,Loudoun County,America/New_York,540,NA,US,38.97,-77.73,2122,
20119,STANDARD,0,Catlett,,,VA,Fauquier County,America/New_York,540,NA,US,38.61,-77.64,3720,
20120,STANDARD,0,Centreville,Sully Station,,VA,Fairfax County,America/New_York,"571,703",NA,US,38.84,-77.44,40490,
20121,STANDARD,0,Centreville,,,VA,Fairfax County,America/New_York,"571,703",NA,US,38.84,-77.44,27220,
20122,PO BOX,0,Centreville,,,VA,Fairfax County,America/New_York,571,NA,US,38.84,-77.44,621,
20124,STANDARD,0,Clifton,,,VA,Fairfax County,America/New_York,571,NA,US,38.77,-77.38,14850,
20128,PO BOX,0,Orlean,,,VA,Fauquier County,America/New_York,,NA,US,38.74,-77.96,255,
20129,STANDARD,0,Paeonian Springs,Paeonian Spgs,,VA,Loudoun County,America/New_York,703,NA,US,39.16,-77.61,590,
20130,STANDARD,0,Paris,,,VA,Clarke County,America/New_York,,NA,US,39,-77.95,260,
20131,PO BOX,0,Philomont,,,VA,Loudoun County,America/New_York,,NA,US,39.05,-77.74,375,
20132,STANDARD,0,Purcellville,Hillsboro,,VA,Loudoun County,America/New_York,540,NA,US,39.13,-77.71,15170,
20134,PO BOX,0,Purcellville,Hillsboro,,VA,Loudoun County,America/New_York,540,NA,US,39.13,-77.71,959,
20135,STANDARD,0,Bluemont,Mount Weather,,VA,Clarke County,America/New_York,703,NA,US,39.11,-77.83,2480,
20136,STANDARD,0,Bristow,,,VA,Prince William County,America/New_York,571,NA,US,38.73,-77.55,29910,
20137,STANDARD,0,Broad Run,,,VA,Fauquier County,America/New_York,540,NA,US,38.81,-77.72,1850,
20138,PO BOX,0,Calverton,,,VA,Fauquier County,America/New_York,,NA,US,38.63,-77.67,289,
20139,PO BOX,0,Casanova,,,VA,Fauquier County,America/New_York,,NA,US,38.61,-77.64,326,
20140,PO BOX,0,Rectortown,,,VA,Fauquier County,America/New_York,,NA,US,38.81,-77.9,98,
20141,STANDARD,0,Round Hill,,,VA,Loudoun County,America/New_York,540,NA,US,39.13,-77.77,6360,
20142,PO BOX,0,Round Hill,,,VA,Loudoun County,America/New_York,540,NA,US,39.13,-77.77,667,
20143,STANDARD,0,Catharpin,,,VA,Prince William County,America/New_York,571,NA,US,38.84,-77.56,1080,
20144,STANDARD,0,Delaplane,,,VA,Fauquier County,America/New_York,540,NA,US,38.92,-77.92,910,
20146,PO BOX,0,Ashburn,,,VA,Loudoun County,America/New_York,,NA,US,39.04,-77.48,510,
20147,STANDARD,0,Ashburn,,,VA,Loudoun County,America/New_York,703,NA,US,39.04,-77.48,60740,
20148,STANDARD,0,Ashburn,Arcola -  Brambleton -  Broadlands,,VA,Loudoun County,America/New_York,"571,703",NA,US,39.04,-77.48,44850,
20149,UNIQUE,0,Ashburn,,Natl Assn Letter Carriers,VA,Loudoun County,America/New_York,571,NA,US,39.04,-77.48,0,
20151,STANDARD,0,Chantilly,Fairfax,,VA,Fairfax County,America/New_York,571,NA,US,38.87,-77.4,22330,
20152,STANDARD,0,Chantilly,Fairfax -  South Riding,,VA,Loudoun County,America/New_York,"571,703",NA,US,38.87,-77.4,31930,
20153,PO BOX,0,Chantilly,Fairfax,,VA,Fairfax County,America/New_York,571,NA,US,38.87,-77.4,632,
20155,STANDARD,0,Gainesville,,,VA,Prince William County,America/New_York,571,NA,US,38.79,-77.61,33650,
20156,PO BOX,0,Gainesville,,,VA,Prince William County,America/New_York,571,NA,US,38.79,-77.61,339,
20158,STANDARD,0,Hamilton,,,VA,Loudoun County,America/New_York,540,NA,US,39.13,-77.66,4070,
20159,PO BOX,0,Hamilton,,,VA,Loudoun County,America/New_York,540,NA,US,39.13,-77.66,419,
20160,PO BOX,0,Lincoln,Purcellville,,VA,Loudoun County,America/New_York,540,NA,US,39.11,-77.69,243,
20163,PO BOX,0,Sterling,,Dulles,VA,Loudoun County,America/New_York,,NA,US,39,-77.4,0,
20164,STANDARD,0,Sterling,,,VA,Loudoun County,America/New_York,703,NA,US,39,-77.4,39490,
20165,STANDARD,0,Sterling,Potomac Falls,,VA,Loudoun County,America/New_York,703,NA,US,39,-77.4,33360,
20166,STANDARD,0,Sterling,Dulles,,VA,Loudoun County,America/New_York,"571,703",NA,US,39,-77.4,11030,
20167,PO BOX,0,Sterling,,,VA,Loudoun County,America/New_York,571,NA,US,39,-77.4,542,
20168,PO BOX,0,Haymarket,,,VA,Prince William County,America/New_York,571,NA,US,38.81,-77.63,269,
20169,STANDARD,0,Haymarket,,,VA,Prince William County,America/New_York,"571,703",NA,US,38.81,-77.63,24150,
20170,STANDARD,0,Herndon,,,VA,Fairfax County,America/New_York,"571,703",NA,US,38.96,-77.38,41930,
20171,STANDARD,0,Herndon,Oak Hill,,VA,Fairfax County,America/New_York,"571,703",NA,US,38.96,-77.38,48810,
20172,PO BOX,0,Herndon,,,VA,Fairfax County,America/New_York,571,NA,US,38.96,-77.38,769,
20175,STANDARD,0,Leesburg,,,VA,Loudoun County,America/New_York,"571,703,540",NA,US,39.1,-77.55,29360,
20176,STANDARD,0,Leesburg,Lansdowne,Lucketts,VA,Loudoun County,America/New_York,"540,571,703",NA,US,39.1,-77.55,48780,
20177,PO BOX,0,Leesburg,,,VA,Loudoun County,America/New_York,571,NA,US,39.1,-77.55,711,
20178,PO BOX,0,Leesburg,,,VA,Loudoun County,America/New_York,571,NA,US,39.1,-77.55,239,
20180,STANDARD,0,Lovettsville,,,VA,Loudoun County,America/New_York,540,NA,US,39.27,-77.63,7300,
20181,STANDARD,0,Nokesville,,,VA,Prince William County,America/New_York,"571,703",NA,US,38.69,-77.58,8550,
20182,PO BOX,0,Nokesville,,,VA,Prince William County,America/New_York,571,NA,US,38.69,-77.58,437,
20184,STANDARD,0,Upperville,,,VA,Fauquier County,America/New_York,703,NA,US,38.99,-77.88,370,
20185,PO BOX,0,Upperville,,,VA,Fauquier County,America/New_York,540,NA,US,38.99,-77.88,384,
20186,STANDARD,0,Warrenton,,Airlie -  Opal,VA,Fauquier County,America/New_York,540,NA,US,38.71,-77.79,13630,
20187,STANDARD,0,Warrenton,New Baltimore -  Vint Hill Farms -  Vint Hill Frm,,VA,Fauquier County,America/New_York,540,NA,US,38.71,-77.79,16620,
20188,PO BOX,0,Warrenton,Vint Hill Farms -  Vint Hill Frm,,VA,Fauquier County,America/New_York,540,NA,US,38.71,-77.79,1067,
20189,STANDARD,0,Dulles,,,VA,Loudoun County,America/New_York,"571,703",NA,US,38.9,-77.04,9117,
20190,STANDARD,0,Reston,Herndon,,VA,Fairfax County,America/New_York,"571,703",NA,US,38.95,-77.34,16170,
20191,STANDARD,0,Reston,Herndon,,VA,Fairfax County,America/New_York,"571,703",NA,US,38.95,-77.34,27900,
20192,UNIQUE,0,Herndon,Reston,Hundon -  U S Geological Survey,VA,Fairfax County,America/New_York,571,NA,US,38.96,-77.38,0,
20193,UNIQUE,1,Reston,Herndon -  Hundon -  Sallie Mae,,VA,Fairfax County,America/New_York,571,NA,US,38.93,-77.34,0,
20194,STANDARD,0,Reston,Herndon,,VA,Fairfax County,America/New_York,"703,571",NA,US,38.95,-77.34,12700,
20195,PO BOX,0,Reston,Herndon,,VA,Fairfax County,America/New_York,571,NA,US,38.95,-77.34,525,
20196,UNIQUE,0,Reston,Herndon,Hundon -  Sprint,VA,Fairfax County,America/New_York,571,NA,US,38.95,-77.34,0,
20197,STANDARD,0,Waterford,,,VA,Loudoun County,America/New_York,"571,703",NA,US,39.18,-77.61,2000,
20198,STANDARD,0,The Plains,,,VA,Fauquier County,America/New_York,540,NA,US,38.86,-77.77,1820,
20199,UNIQUE,1,Dulles,Visa Lottery State Dept,,VA,Loudoun County,America/New_York,571,NA,US,39,-77.45,0,
20598,UNIQUE,0,Dhs,Alexandria -  Arlington -  Fairfax -  Falls Church -  Herndon -  Lorton -  Mc Lean -  Mclean -  Reston -  Springfield -  Sterling,Dept Hs,VA,Fairfax County,America/New_York,571,NA,US,38.86,-77.05,0,
22003,STANDARD,0,Annandale,,,VA,Fairfax County,America/New_York,703,NA,US,38.83,-77.21,54100,
22009,PO BOX,0,Burke,Springfield,,VA,Fairfax County,America/New_York,571,NA,US,38.78,-77.27,305,
22015,STANDARD,0,Burke,Springfield,,VA,Fairfax County,America/New_York,703,NA,US,38.78,-77.27,43230,
22025,STANDARD,0,Dumfries,Montclair,,VA,Prince William County,America/New_York,"571,703",NA,US,38.6,-77.34,17350,
22026,STANDARD,0,Dumfries,Southbridge,,VA,Prince William County,America/New_York,571,NA,US,38.56,-77.32,16180,
22027,STANDARD,0,Dunn Loring,Vienna,,VA,Fairfax County,America/New_York,"571,703",NA,US,38.89,-77.23,2120,
22030,STANDARD,0,Fairfax,,,VA,Fairfax County,America/New_York,571,NA,US,38.85,-77.29,48120,
22031,STANDARD,0,Fairfax,,,VA,Fairfax County,America/New_York,"571,703",NA,US,38.85,-77.29,29860,
22032,STANDARD,0,Fairfax,,,VA,Fairfax County,America/New_York,"571,703",NA,US,38.85,-77.29,29080,
22033,STANDARD,0,Fairfax,,,VA,Fairfax County,America/New_York,703,NA,US,38.85,-77.29,36980,
22034,STANDARD,0,Fairfax,,Journal Newspaper,VA,Fairfax City,America/New_York,571,NA,US,38.85,-77.29,0,
22035,STANDARD,0,Fairfax,,Fairfax County Government,VA,Fairfax City,America/New_York,571,NA,US,38.85,-77.29,0,
22036,STANDARD,0,Fairfax,,Journal Newspaper,VA,Fairfax City,America/New_York,"571,703",NA,US,38.85,-77.29,0,
22037,UNIQUE,0,Fairfax,,Mobil Oil Corp,VA,Fairfax City,America/New_York,571,NA,US,38.85,-77.29,67,
22038,PO BOX,0,Fairfax,,,VA,Fairfax City,America/New_York,571,NA,US,38.85,-77.29,415,
22039,STANDARD,0,Fairfax Station,Fairfax Sta -  Fx Station,Fairfax,VA,Fairfax County,America/New_York,571,NA,US,38.8,-77.32,18610,
22040,PO BOX,0,Falls Church,,,VA,Falls Church City,America/New_York,571,NA,US,38.88,-77.17,382,
22041,STANDARD,0,Falls Church,Baileys Crossroads -  Baileys Xrds,,VA,Fairfax County,America/New_York,703,NA,US,38.88,-77.17,24900,
22042,STANDARD,0,Falls Church,Mosby,,VA,Fairfax County,America/New_York,571,NA,US,38.88,-77.17,31460,
22043,STANDARD,0,Falls Church,Pimmit,,VA,Fairfax County,America/New_York,"571,703",NA,US,38.88,-77.17,23120,
22044,STANDARD,0,Falls Church,Seven Corners,7 Corners,VA,Fairfax County,America/New_York,571,NA,US,38.88,-77.17,11960,
22046,STANDARD,0,Falls Church,,,VA,Falls Church City,America/New_York,"571,703",NA,US,38.88,-77.17,16640,
22047,UNIQUE,1,Falls Church,,Aaa,VA,Falls Church City,America/New_York,571,NA,US,38.86,-77.22,0,
22060,STANDARD,0,Fort Belvoir,Ft Belvoir,,VA,Fairfax County,America/New_York,"571,703",NA,US,38.7,-77.14,9940,
22066,STANDARD,0,Great Falls,,,VA,Fairfax County,America/New_York,703,NA,US,39.01,-77.28,18130,
22067,STANDARD,0,Greenway,Mc Lean,,VA,Fairfax County,America/New_York,703,NA,US,38.93,-77.16,0,
22079,STANDARD,0,Lorton,Mason Neck,,VA,Fairfax County,America/New_York,"703,571",NA,US,38.7,-77.24,32750,
22081,STANDARD,0,Merrifield,,Northern Virginia -  Northern Virginia Facility,VA,Fairfax County,America/New_York,"571,703",NA,US,38.87,-77.24,0,
22082,UNIQUE,0,Merrifield,,Engineering Support Center,VA,Fairfax County,America/New_York,571,NA,US,38.87,-77.24,0,
22092,UNIQUE,1,Herndon,,U S Geological Survey,VA,Fairfax County,America/New_York,571,NA,US,38.96,-77.38,0,
22093,UNIQUE,1,Ashburn,Natl Assn Letter Carriers,,VA,Loudoun County,America/New_York,571,NA,US,39.04,-77.48,0,
22095,UNIQUE,0,Herndon,Reston,Business Reply Mail,VA,Fairfax County,America/New_York,571,NA,US,38.96,-77.38,0,
22096,UNIQUE,0,Reston,Herndon,Sprint,VA,Fairfax County,America/New_York,571,NA,US,38.95,-77.34,0,
22101,STANDARD,0,Mc Lean,Mclean,Maclean,VA,Fairfax County,America/New_York,"571,703",NA,US,38.94,-77.19,29110,
22102,STANDARD,0,Mc Lean,Mclean -  Tysons -  Tysons Corner -  West Mclean,Maclean,VA,Fairfax County,America/New_York,"703,571",NA,US,38.94,-77.19,21710,
22103,PO BOX,0,West Mclean,Mc Lean -  Mclean,Maclean,VA,Fairfax County,America/New_York,571,NA,US,38.93,-77.16,170,
22106,PO BOX,0,Mc Lean,Mclean,,VA,Fairfax County,America/New_York,571,NA,US,38.94,-77.19,265,
22107,UNIQUE,0,Mc Lean,,Gannett,VA,Fairfax County,America/New_York,571,NA,US,38.93,-77.18,0,
22108,UNIQUE,0,Mc Lean,,Usa Today,VA,Fairfax County,America/New_York,571,NA,US,38.93,-77.18,0,
22109,UNIQUE,0,Mc Lean,,Richmond -  Wachovia Bank,VA,Fairfax County,America/New_York,571,NA,US,38.94,-77.19,0,
22116,PO BOX,0,Merrifield,,,VA,Fairfax County,America/New_York,571,NA,US,38.87,-77.24,624,
22118,UNIQUE,0,Merrifield,,Bank Of America -  Richmond,VA,Fairfax County,America/New_York,571,NA,US,38.87,-77.24,0,
22119,UNIQUE,0,Merrifield,,Navy Federal Credit Union,VA,Fairfax County,America/New_York,571,NA,US,38.87,-77.24,0,
22120,UNIQUE,1,Merrifield,Continental Telephone,,VA,Fairfax County,America/New_York,571,NA,US,38.87,-77.22,0,
22121,PO BOX,0,Mount Vernon,,,VA,Fairfax County,America/New_York,571,NA,US,38.71,-77.1,74,
22122,PO BOX,0,Newington,,,VA,Fairfax County,America/New_York,571,NA,US,38.73,-77.2,112,
22124,STANDARD,0,Oakton,Vienna,,VA,Fairfax County,America/New_York,"571,703",NA,US,38.89,-77.3,17850,
22125,PO BOX,0,Occoquan,,,VA,Prince William County,America/New_York,571,NA,US,38.68,-77.26,654,
22134,STANDARD,0,Quantico,,Mcb Quantico -  Quantico Naval Hospital,VA,Prince William County,America/New_York,571,NA,US,38.52,-77.29,5190,
22135,UNIQUE,0,Quantico,Fbi Acad,Fbi Academy,VA,Prince William County,America/New_York,571,NA,US,38.52,-77.29,0,
22150,STANDARD,0,Springfield,,,VA,Fairfax County,America/New_York,703,NA,US,38.78,-77.17,27440,
22151,STANDARD,0,Springfield,N Springfield -  North Springfield,N Springfld,VA,Fairfax County,America/New_York,703,NA,US,38.78,-77.17,17640,
22152,STANDARD,0,Springfield,W Springfield -  West Springfield,,VA,Fairfax County,America/New_York,"571,703",NA,US,38.78,-77.17,28870,
22153,STANDARD,0,Springfield,,,VA,Fairfax County,America/New_York,"571,703",NA,US,38.78,-77.17,32460,
22156,UNIQUE,0,Springfield,,Firm Zip,VA,Fairfax County,America/New_York,571,NA,US,38.78,-77.17,0,
22158,UNIQUE,0,Springfield,,Army Times -  Brm-firm Zip,VA,Fairfax County,America/New_York,571,NA,US,38.78,-77.17,0,
22159,UNIQUE,0,Springfield,,Army Times -  Firm Zip,VA,Fairfax County,America/New_York,571,NA,US,38.78,-77.17,0,
22160,UNIQUE,0,Springfield,,National Right To Work Comm,VA,Fairfax County,America/New_York,571,NA,US,38.78,-77.17,0,
22161,UNIQUE,0,Springfield,,Dept Of Commerce,VA,Fairfax County,America/New_York,571,NA,US,38.78,-77.17,0,
22172,STANDARD,0,Triangle,,,VA,Prince William County,America/New_York,"571,703",NA,US,38.54,-77.31,9380,
22180,STANDARD,0,Vienna,,,VA,Fairfax County,America/New_York,"571,703",NA,US,38.9,-77.26,24130,
22181,STANDARD,0,Vienna,,,VA,Fairfax County,America/New_York,"571,703",NA,US,38.9,-77.26,14660,
22182,STANDARD,0,Vienna,Tysons -  Tysons Corner,,VA,Fairfax County,America/New_York,"571,703",NA,US,38.9,-77.26,25300,
22183,PO BOX,0,Vienna,,,VA,Fairfax County,America/New_York,571,NA,US,38.9,-77.26,258,
22184,UNIQUE,1,Vienna,,National Wildlife Assoc,VA,Fairfax County,America/New_York,571,NA,US,38.9,-77.26,0,
22185,UNIQUE,0,Vienna,Oakton,A T & T -  At&t,VA,Fairfax County,America/New_York,571,NA,US,38.9,-77.26,0,
22191,STANDARD,0,Woodbridge,,Wdbg,VA,Prince William County,America/New_York,"571,703",NA,US,38.63,-77.26,66950,
22192,STANDARD,0,Woodbridge,Lake Ridge -  Prince William -  Prince Wm,,VA,Prince William County,America/New_York,"571,703",NA,US,38.63,-77.26,56140,
22193,STANDARD,0,Woodbridge,Dale City,Dalecity,VA,Prince William County,America/New_York,"571,703",NA,US,38.63,-77.26,78420,
22194,PO BOX,0,Woodbridge,,,VA,Prince William County,America/New_York,571,NA,US,38.63,-77.26,666,
22195,PO BOX,0,Woodbridge,,,VA,Prince William County,America/New_York,571,NA,US,38.63,-77.26,1056,
22199,PO BOX,0,Lorton,,,VA,Fairfax County,America/New_York,571,NA,US,38.7,-77.24,474,
22201,STANDARD,0,Arlington,,,VA,Arlington County,America/New_York,"571,703",NA,US,38.87,-77.1,31030,
22202,STANDARD,0,Arlington,,Crystal City,VA,Arlington County,America/New_York,"571,703",NA,US,38.87,-77.1,18620,
22203,STANDARD,0,Arlington,,,VA,Arlington County,America/New_York,"571,703",NA,US,38.87,-77.1,19410,
22204,STANDARD,0,Arlington,,South,VA,Arlington County,America/New_York,"571,703",NA,US,38.87,-77.1,46620,
22205,STANDARD,0,Arlington,,,VA,Arlington County,America/New_York,"703,571",NA,US,38.87,-77.1,17380,
22206,STANDARD,0,Arlington,,,VA,Arlington County,America/New_York,703,NA,US,38.87,-77.1,19370,
22207,STANDARD,0,Arlington,,,VA,Arlington County,America/New_York,"703,571",NA,US,38.87,-77.1,31290,
22209,STANDARD,0,Arlington,Rosslyn,,VA,Arlington County,America/New_York,"571,703",NA,US,38.87,-77.1,10700,
22210,PO BOX,0,Arlington,,,VA,Arlington County,America/New_York,571,NA,US,38.87,-77.1,264,
22211,STANDARD,0,Fort Myer,Ft Myer,Arlington,VA,Arlington County,America/New_York,"571,703",NA,US,38.87,-77.07,670,
22212,UNIQUE,0,Arlington,,Navy Mutual Aid Assoc,VA,Arlington County,America/New_York,571,NA,US,38.87,-77.1,0,
22213,STANDARD,0,Arlington,,,VA,Arlington County,America/New_York,"571,703",NA,US,38.87,-77.1,3300,
22214,STANDARD,0,Arlington,,,VA,Arlington County,America/New_York,"571,703",NA,US,38.87,-77.1,133,
22215,PO BOX,0,Arlington,,,VA,Arlington County,America/New_York,571,NA,US,38.87,-77.1,201,
22216,PO BOX,0,Arlington,,,VA,Arlington County,America/New_York,571,NA,US,38.87,-77.1,181,
22217,UNIQUE,0,Arlington,,Office Of Naval Research,VA,Arlington County,America/New_York,571,NA,US,38.87,-77.1,0,
22218,UNIQUE,1,Arlington,Visa Lottery,,VA,Arlington County,America/New_York,571,NA,US,38.88,-77.09,0,
22219,PO BOX,0,Arlington,,,VA,Arlington County,America/New_York,571,NA,US,38.87,-77.1,257,
22222,UNIQUE,0,Arlington,,Marine Corps Institute,VA,Arlington County,America/New_York,571,NA,US,38.87,-77.1,0,
22223,UNIQUE,1,Arlington,,Marine Corps Institute -  Business Reply Mail,VA,Arlington County,America/New_York,571,NA,US,38.88,-77.09,0,
22225,UNIQUE,0,Arlington,,Dept Of The Navy,VA,Arlington County,America/New_York,571,NA,US,38.87,-77.1,0,
22226,UNIQUE,0,Arlington,,Fdic,VA,Arlington County,America/New_York,571,NA,US,38.87,-77.1,0,
22227,UNIQUE,0,Arlington,,U S Air,VA,Arlington County,America/New_York,571,NA,US,38.87,-77.1,0,
22229,UNIQUE,1,Arlington,Shared Firm Zip,,VA,Arlington County,America/New_York,571,NA,US,38.89,-77.07,0,
22230,UNIQUE,0,Arlington,,National Science Foundation,VA,Arlington County,America/New_York,571,NA,US,38.87,-77.1,0,
22234,UNIQUE,1,Arlington,Gannett,,VA,Arlington County,America/New_York,571,NA,US,38.89,-77.07,0,
22240,UNIQUE,0,Arlington,,Us Navy Accounting Office,VA,Arlington County,America/New_York,571,NA,US,38.87,-77.1,0,
22241,UNIQUE,0,Arlington,,Naval Supply System Command,VA,Arlington County,America/New_York,571,NA,US,38.87,-77.1,0,
22242,UNIQUE,0,Arlington,,Navy Sea Systems Command,VA,Arlington County,America/New_York,571,NA,US,38.87,-77.1,0,
22243,UNIQUE,0,Arlington,,Naval Air System Command,VA,Arlington County,America/New_York,571,NA,US,38.87,-77.1,0,
22244,UNIQUE,0,Arlington,,Assistant Secretary Of Navy,VA,Arlington County,America/New_York,571,NA,US,38.87,-77.1,0,
22245,UNIQUE,0,Arlington,,Space & Naval Warfare System,VA,Arlington County,America/New_York,571,NA,US,38.87,-77.1,0,
22246,UNIQUE,0,Arlington,,Us Unmanned Aerial Vehicles,VA,Arlington County,America/New_York,571,NA,US,38.87,-77.1,0,
22301,STANDARD,0,Alexandria,Potomac,,VA,Alexandria City,America/New_York,"571,703",NA,US,38.82,-77.08,11820,
22302,STANDARD,0,Alexandria,,,VA,Alexandria City,America/New_York,"571,703",NA,US,38.82,-77.08,16180,
22303,STANDARD,0,Alexandria,Jefferson Manor -  Jefferson Mnr,,VA,Fairfax County,America/New_York,703,NA,US,38.82,-77.08,13950,
22304,STANDARD,0,Alexandria,,Cameron Station -  Theological Seminary -  Trade Center,VA,Alexandria City,America/New_York,"571,703",NA,US,38.82,-77.08,42300,
22305,STANDARD,0,Alexandria,,George Washington,VA,Alexandria City,America/New_York,"571,703",NA,US,38.82,-77.08,14810,
22306,STANDARD,0,Alexandria,Community,,VA,Fairfax County,America/New_York,"571,703",NA,US,38.82,-77.08,32030,
22307,STANDARD,0,Alexandria,Belleview,,VA,Fairfax County,America/New_York,703,NA,US,38.82,-77.08,9910,
22308,STANDARD,0,Alexandria,,,VA,Fairfax County,America/New_York,"571,703",NA,US,38.82,-77.08,13550,
22309,STANDARD,0,Alexandria,Engleside,,VA,Fairfax County,America/New_York,"571,703",NA,US,38.82,-77.08,32090,
22310,STANDARD,0,Alexandria,Franconia,,VA,Fairfax County,America/New_York,703,NA,US,38.82,-77.08,28350,
22311,STANDARD,0,Alexandria,,,VA,Alexandria City,America/New_York,"571,703",NA,US,38.82,-77.08,17130,
22312,STANDARD,0,Alexandria,,,VA,Fairfax County,America/New_York,703,NA,US,38.82,-77.08,29050,
22313,PO BOX,0,Alexandria,,,VA,Alexandria City,America/New_York,571,NA,US,38.82,-77.08,457,
22314,STANDARD,0,Alexandria,,,VA,Alexandria City,America/New_York,"571,703",NA,US,38.82,-77.08,29100,
22315,STANDARD,0,Alexandria,Kingstowne,Franconia,VA,Fairfax County,America/New_York,703,NA,US,38.82,-77.08,27200,
22320,PO BOX,0,Alexandria,,George Mason,VA,Alexandria City,America/New_York,571,NA,US,38.82,-77.08,184,
22321,UNIQUE,1,Alexandria,Firm Zip,,VA,Alexandria City,America/New_York,571,NA,US,38.8,-77.05,0,
22331,STANDARD,0,Alexandria,,,VA,Alexandria City,America/New_York,703,NA,US,38.82,-77.08,0,
22332,STANDARD,0,Alexandria,,,VA,Alexandria City,America/New_York,571,NA,US,38.82,-77.08,0,
22333,UNIQUE,0,Alexandria,,Us Army Mat Com,VA,Alexandria City,America/New_York,571,NA,US,38.82,-77.08,0,
22334,UNIQUE,0,Alexandria,,Sun Trust Bank,VA,Alexandria City,America/New_York,571,NA,US,38.82,-77.08,0,
22336,UNIQUE,1,Alexandria,,Woodward & Lothrop,VA,Alexandria City,America/New_York,571,NA,US,38.8,-77.04,0,
22350,UNIQUE,0,Alexandria,,Dept Of Defense -  Dod,VA,,,571,NA,US,48.31,-2.12,0,
22401,STANDARD,0,Fredericksburg,Fredericksbrg,Enon -  Fred,VA,Fredericksburg City,America/New_York,540,NA,US,38.29,-77.48,21330,
22402,PO BOX,0,Fredericksburg,Fredericksbrg,Fred,VA,Fredericksburg City,America/New_York,540,NA,US,38.29,-77.48,552,
22403,PO BOX,0,Fredericksburg,Falmouth -  Fredericksbrg,Fred,VA,Fredericksburg City,America/New_York,540,NA,US,38.29,-77.48,620,
22404,PO BOX,0,Fredericksburg,Fredericksbrg,Fred,VA,Fredericksburg City,America/New_York,540,NA,US,38.29,-77.48,1119,
22405,STANDARD,0,Fredericksburg,Falmouth -  Fredericksbrg,Fred -  Fredericksbg,VA,Stafford County,America/New_York,540,NA,US,38.29,-77.48,29510,
22406,STANDARD,0,Fredericksburg,Falmouth -  Fredericksbrg,Fred -  Fredbg -  Frederickbg -  Frederickbur -  Fredericksbg -  Fredericksbur,VA,Stafford County,America/New_York,540,NA,US,38.29,-77.48,22550,
22407,STANDARD,0,Fredericksburg,Fredericksbrg,Fred -  Fredbg -  Frederickbg -  Frederickbur -  Fredericksbg -  Fredericksbur,VA,Spotsylvania County,America/New_York,540,NA,US,38.29,-77.48,55360,
22408,STANDARD,0,Fredericksburg,Fredericksbrg,Fred -  Fredbg -  Frederickbg -  Frederickbur -  Fredericksbg -  Fredericksbur,VA,Spotsylvania County,America/New_York,540,NA,US,38.29,-77.48,27510,
22412,UNIQUE,0,Fredericksburg,Falmouth -  Fredericksbrg,Geico Insurance,VA,Fredericksburg City,America/New_York,540,NA,US,38.29,-77.48,0,
22427,STANDARD,0,Bowling Green,Fort A P Hill,Bowling Grn -  Ft Ap Hill,VA,Caroline County,America/New_York,804,NA,US,38.04,-77.35,2910,
22428,UNIQUE,0,Bowling Green,,Boy Scouts Of America,VA,Caroline County,America/New_York,804,NA,US,38.04,-77.35,0,
22430,PO BOX,0,Brooke,,,VA,Stafford County,America/New_York,540,NA,US,38.37,-77.34,71,
22432,STANDARD,0,Burgess,,,VA,Northumberland County,America/New_York,804,NA,US,37.88,-76.34,780,
22433,STANDARD,0,Burr Hill,,,VA,Orange County,America/New_York,,NA,US,38.34,-77.86,250,
22435,STANDARD,0,Callao,,Walmsley,VA,Northumberland County,America/New_York,804,NA,US,37.96,-76.55,2300,
22436,STANDARD,0,Caret,Supply,,VA,Essex County,America/New_York,804,NA,US,37.98,-76.96,710,
22437,STANDARD,0,Center Cross,,,VA,Essex County,America/New_York,804,NA,US,37.8,-76.77,510,
22438,STANDARD,0,Champlain,Chance,Elevon,VA,Essex County,America/New_York,804,NA,US,38.01,-76.99,460,
22442,PO BOX,0,Coles Point,,Ragged Point Beach,VA,Westmoreland County,America/New_York,804,NA,US,38.14,-76.63,76,
22443,STANDARD,0,Colonial Beach,Colonial Bch -  Oak Grove -  Washgtns Brhp -  Washingtons Birthplace,,VA,Westmoreland County,America/New_York,804,NA,US,38.25,-76.97,7060,
22446,PO BOX,0,Corbin,,,VA,Caroline County,America/New_York,804,NA,US,38.19,-77.38,231,
22448,STANDARD,0,Dahlgren,,Naval Surface Weapons Center,VA,King George County,America/New_York,540,NA,US,38.33,-77.05,1450,
22451,PO BOX,0,Dogue,,,VA,King George County,America/New_York,540,NA,US,38.23,-77.21,139,
22454,STANDARD,0,Dunnsville,Howertons,,VA,Essex County,America/New_York,804,NA,US,37.85,-76.82,1600,
22456,PO BOX,0,Edwardsville,,,VA,Northumberland County,America/New_York,804,NA,US,37.9,-76.36,30,
22460,STANDARD,0,Farnham,,,VA,Richmond County,America/New_York,804,NA,US,37.88,-76.62,1390,
22463,PO BOX,0,Garrisonville,,,VA,Stafford County,America/New_York,540,NA,US,38.48,-77.42,348,
22469,STANDARD,0,Hague,,,VA,Westmoreland County,America/New_York,804,NA,US,38.07,-76.65,1680,
22471,PO BOX,0,Hartwood,,,VA,Stafford County,America/New_York,540,NA,US,38.39,-77.61,307,
22472,PO BOX,0,Haynesville,,,VA,Richmond County,America/New_York,804,NA,US,37.95,-76.66,363,
22473,STANDARD,0,Heathsville,,,VA,Northumberland County,America/New_York,804,NA,US,37.91,-76.47,3800,
22476,STANDARD,0,Hustle,,,VA,Essex County,America/New_York,804,NA,US,38.04,-77.06,280,
22480,STANDARD,0,Irvington,,,VA,Lancaster County,America/New_York,804,NA,US,37.66,-76.42,1050,
22481,PO BOX,0,Jersey,,,VA,King George County,America/New_York,540,NA,US,38.21,-77.13,185,
22482,STANDARD,0,Kilmarnock,,,VA,Northumberland County,America/New_York,804,NA,US,37.71,-76.38,2880,
22485,STANDARD,0,King George,Shiloh,Owens,VA,King George County,America/New_York,540,NA,US,38.26,-77.18,21740,
22488,STANDARD,0,Kinsale,,,VA,Westmoreland County,America/New_York,804,NA,US,38.02,-76.57,1670,
22501,PO BOX,0,Ladysmith,,,VA,Caroline County,America/New_York,804,NA,US,38.01,-77.51,505,
22503,STANDARD,0,Lancaster,Alfonso -  Regina,Millenbeck,VA,Lancaster County,America/New_York,804,NA,US,37.76,-76.46,2940,
22504,STANDARD,0,Laneview,,Butylo,VA,Essex County,America/New_York,,NA,US,37.77,-76.73,250,
22507,PO BOX,0,Lively,,,VA,Lancaster County,America/New_York,804,NA,US,37.77,-76.51,334,
22508,STANDARD,0,Locust Grove,Lake Of The Woods -  Lake Of Woods -  Mine Run,,VA,Orange County,America/New_York,540,NA,US,38.33,-77.79,12630,
22509,STANDARD,0,Loretto,,,VA,Essex County,America/New_York,804,NA,US,38.07,-77.05,31,
22511,STANDARD,0,Lottsburg,Lewisetta,,VA,Northumberland County,America/New_York,804,NA,US,37.96,-76.51,1350,
22513,PO BOX,0,Merry Point,,,VA,Lancaster County,America/New_York,804,NA,US,37.71,-76.5,121,
22514,STANDARD,0,Milford,,Gether,VA,Caroline County,America/New_York,804,NA,US,38.02,-77.36,2140,
22517,PO BOX,0,Mollusk,,,VA,Lancaster County,America/New_York,804,NA,US,37.72,-76.53,308,
22520,STANDARD,0,Montross,,,VA,Westmoreland County,America/New_York,804,NA,US,38.09,-76.82,4780,
22523,PO BOX,0,Morattico,,,VA,Lancaster County,America/New_York,804,NA,US,37.8,-76.61,55,
22524,PO BOX,0,Mount Holly,,,VA,Westmoreland County,America/New_York,804,NA,US,38.09,-76.71,332,
22526,PO BOX,0,Ninde,,,VA,King George County,America/New_York,540,NA,US,38.27,-77.05,107,
22528,PO BOX,0,Nuttsville,,,VA,Lancaster County,America/New_York,804,NA,US,37.79,-76.55,77,
22529,PO BOX,0,Oldhams,,,VA,Westmoreland County,America/New_York,804,NA,US,38,-76.66,254,
22530,PO BOX,0,Ophelia,,,VA,Northumberland County,America/New_York,804,NA,US,37.9,-76.28,171,
22534,STANDARD,0,Partlow,,,VA,Spotsylvania County,America/New_York,"804,540",NA,US,38.03,-77.63,2710,
22535,STANDARD,0,Port Royal,,,VA,Caroline County,America/New_York,804,NA,US,38.16,-77.19,600,
22538,STANDARD,0,Rappahannock Academy,Raphanck Acad,Rappnhanck,VA,Caroline County,America/New_York,804,NA,US,38.15,-77.3,260,
22539,STANDARD,0,Reedville,,,VA,Northumberland County,America/New_York,804,NA,US,37.86,-76.29,1850,
22542,STANDARD,0,Rhoadesville,,,VA,Orange County,America/New_York,,NA,US,38.28,-77.9,1850,
22544,PO BOX,0,Rollins Fork,,,VA,King George County,America/New_York,540,NA,US,38.18,-77.06,0,
22545,PO BOX,0,Ruby,,,VA,Stafford County,America/New_York,540,NA,US,38.5,-77.51,71,
22546,STANDARD,0,Ruther Glen,,Rutherglen,VA,Caroline County,America/New_York,804,NA,US,38,-77.54,15270,
22547,PO BOX,0,Sealston,,,VA,King George County,America/New_York,540,NA,US,38.27,-77.32,94,
22548,PO BOX,0,Sharps,,,VA,Richmond County,America/New_York,804,NA,US,37.84,-76.7,82,
22551,STANDARD,0,Spotsylvania,,,VA,Spotsylvania County,America/New_York,540,NA,US,38.17,-77.7,17920,
22552,PO BOX,0,Sparta,,,VA,Caroline County,America/New_York,804,NA,US,37.99,-77.22,64,
22553,STANDARD,0,Spotsylvania,Snell,,VA,Spotsylvania County,America/New_York,540,NA,US,38.19,-77.68,14990,
22554,STANDARD,0,Stafford,,,VA,Stafford County,America/New_York,540,NA,US,38.42,-77.4,53220,
22555,PO BOX,0,Stafford,,,VA,Stafford County,America/New_York,540,NA,US,38.42,-77.4,1083,
22556,STANDARD,0,Stafford,,,VA,Stafford County,America/New_York,540,NA,US,38.42,-77.4,27200,
22558,PO BOX,0,Stratford,,,VA,Westmoreland County,America/New_York,804,NA,US,38.12,-76.81,0,
22560,STANDARD,0,Tappahannock,,,VA,Essex County,America/New_York,804,NA,US,37.92,-76.86,6070,
22565,PO BOX,0,Thornburg,,,VA,Spotsylvania County,America/New_York,540,NA,US,38.13,-77.52,556,
22567,STANDARD,0,Unionville,,Lahore,VA,Orange County,America/New_York,540,NA,US,38.25,-77.96,2720,
22570,PO BOX,0,Village,,,VA,Richmond County,America/New_York,,NA,US,37.94,-76.6,29,
22572,STANDARD,0,Warsaw,Foneswood,Nomini Grove,VA,Richmond County,America/New_York,804,NA,US,37.96,-76.76,5030,
22576,STANDARD,0,Weems,,,VA,Lancaster County,America/New_York,804,NA,US,37.65,-76.44,1250,
22577,PO BOX,0,Sandy Point,,,VA,Westmoreland County,America/New_York,804,NA,US,38.06,-76.55,187,
22578,STANDARD,0,White Stone,,Whitestone,VA,Lancaster County,America/New_York,804,NA,US,37.64,-76.39,2100,
22579,PO BOX,0,Wicomico Church,Wicomico Chur,,VA,Northumberland County,America/New_York,804,NA,US,37.81,-76.37,503,
22580,STANDARD,0,Woodford,,,VA,Caroline County,America/New_York,"804,540",NA,US,38.11,-77.4,4320,
22581,PO BOX,0,Zacata,,,VA,Westmoreland County,America/New_York,804,NA,US,38.11,-76.8,0,
22601,STANDARD,0,Winchester,Hayfield,,VA,Winchester City,America/New_York,540,NA,US,39.17,-78.17,24670,
22602,STANDARD,0,Winchester,,,VA,Frederick County,America/New_York,540,NA,US,39.17,-78.17,27400,
22603,STANDARD,0,Winchester,,,VA,Frederick County,America/New_York,540,NA,US,39.17,-78.17,13410,
22604,PO BOX,0,Winchester,,,VA,Winchester City,America/New_York,540,NA,US,39.17,-78.17,1823,
22610,STANDARD,0,Bentonville,Browntown,Overall,VA,Warren County,America/New_York,540,NA,US,38.83,-78.31,1750,
22611,STANDARD,0,Berryville,Mount Weather,,VA,Clarke County,America/New_York,540,NA,US,39.14,-77.98,8200,
22620,STANDARD,0,Boyce,,,VA,Clarke County,America/New_York,540,NA,US,39.09,-78.05,2040,
22622,PO BOX,0,Brucetown,,,VA,Frederick County,America/New_York,540,NA,US,39.25,-78.05,0,
22623,PO BOX,0,Chester Gap,,Front Royal,VA,Rappahannock County,America/New_York,540,NA,US,38.85,-78.13,510,
22624,STANDARD,0,Clear Brook,,,VA,Frederick County,America/New_York,540,NA,US,39.26,-78.1,2430,
22625,STANDARD,0,Cross Junction,Cross Jnct -  Whitacre,,VA,Frederick County,America/New_York,540,NA,US,39.32,-78.29,3440,
22626,PO BOX,0,Fishers Hill,,,VA,Shenandoah County,America/New_York,540,NA,US,38.97,-78.4,103,
22627,STANDARD,0,Flint Hill,Huntly,,VA,Rappahannock County,America/New_York,540,NA,US,38.76,-78.1,810,
22630,STANDARD,0,Front Royal,Lake Frederick -  Lk Frederick -  Riverton,,VA,Warren County,America/New_York,540,NA,US,38.92,-78.18,27940,
22637,STANDARD,0,Gore,,,VA,Frederick County,America/New_York,540,NA,US,39.26,-78.33,1950,
22639,STANDARD,0,Hume,,,VA,Fauquier County,America/New_York,,NA,US,38.83,-77.99,590,
22640,STANDARD,0,Huntly,,Flint Hill,VA,Rappahannock County,America/New_York,540,NA,US,38.8,-78.14,310,
22641,STANDARD,0,Strasburg,Lebanon Ch -  Lebanon Church,,VA,Shenandoah County,America/New_York,540,NA,US,38.98,-78.35,240,
22642,STANDARD,0,Linden,,,VA,Warren County,America/New_York,540,NA,US,38.9,-78.07,4260,
22643,STANDARD,0,Markham,,,VA,Fauquier County,America/New_York,540,NA,US,38.9,-78,350,
22644,STANDARD,0,Maurertown,,,VA,Shenandoah County,America/New_York,540,NA,US,38.98,-78.51,2060,
22645,STANDARD,0,Middletown,,,VA,Frederick County,America/New_York,,NA,US,39.02,-78.27,3670,
22646,PO BOX,0,Millwood,,,VA,Clarke County,America/New_York,540,NA,US,39.06,-78.03,408,
22649,STANDARD,0,Middletown,Reliance,,VA,Frederick County,America/New_York,540,NA,US,39.02,-78.27,0,
22650,STANDARD,0,Rileyville,,,VA,Page County,America/New_York,540,NA,US,38.76,-78.38,850,
22652,STANDARD,0,Fort Valley,Saint Davids Church -  Seven Fountains -  Seven Fountns -  St Davids Ch,,VA,Shenandoah County,America/New_York,540,NA,US,38.84,-78.42,1250,
22654,STANDARD,0,Star Tannery,,,VA,Frederick County,America/New_York,,NA,US,39.08,-78.45,690,
22655,STANDARD,0,Stephens City,,,VA,Frederick County,America/New_York,540,NA,US,39.09,-78.22,19490,
22656,STANDARD,0,Stephenson,,,VA,Frederick County,America/New_York,540,NA,US,39.2,-78.09,3290,
22657,STANDARD,0,Strasburg,,Lebanon Church,VA,Shenandoah County,America/New_York,540,NA,US,38.98,-78.35,10350,
22660,STANDARD,0,Toms Brook,,,VA,Shenandoah County,America/New_York,540,NA,US,38.94,-78.43,1620,
22663,STANDARD,0,White Post,,,VA,Clarke County,America/New_York,540,NA,US,39.05,-78.1,1540,
22664,STANDARD,0,Woodstock,,,VA,Shenandoah County,America/New_York,540,NA,US,38.87,-78.51,8170,
22701,STANDARD,0,Culpeper,Raccoon Ford -  Winston,Catalpa -  Haywood -  Reva,VA,Culpeper County,America/New_York,540,NA,US,38.47,-78,32080,
22709,STANDARD,0,Aroda,,Madison,VA,Madison County,America/New_York,540,NA,US,38.32,-78.24,820,
22711,STANDARD,0,Banco,,,VA,Madison County,America/New_York,540,NA,US,38.4,-78.33,119,
22712,STANDARD,0,Bealeton,Morrisville,,VA,Fauquier County,America/New_York,540,NA,US,38.57,-77.76,9140,
22713,STANDARD,0,Boston,,,VA,Culpeper County,America/New_York,540,NA,US,38.54,-78.14,1200,
22714,STANDARD,0,Brandy Station,Brandy Sta,Brandy,VA,Culpeper County,America/New_York,540,NA,US,38.52,-77.89,980,
22715,STANDARD,0,Brightwood,,,VA,Madison County,America/New_York,540,NA,US,38.41,-78.16,1090,
22716,STANDARD,0,Castleton,,,VA,Rappahannock County,America/New_York,540,NA,US,38.6,-78.1,720,
22718,STANDARD,0,Elkwood,,,VA,Culpeper County,America/New_York,540,NA,US,38.51,-77.85,610,
22719,STANDARD,0,Etlan,Madison,,VA,Madison County,America/New_York,540,NA,US,38.52,-78.26,300,
22720,STANDARD,0,Goldvein,,,VA,Fauquier County,America/New_York,540,NA,US,38.44,-77.65,810,
22721,STANDARD,1,Graves Mill,,,VA,Madison County,America/New_York,540,NA,US,38.39,-78.28,0,
22722,STANDARD,0,Haywood,,,VA,Madison County,America/New_York,540,NA,US,38.46,-78.17,176,
22723,STANDARD,0,Hood,,,VA,Madison County,America/New_York,540,NA,US,38.35,-78.38,196,
22724,STANDARD,0,Jeffersonton,,,VA,Culpeper County,America/New_York,540,NA,US,38.63,-77.91,2320,
22725,STANDARD,0,Leon,,,VA,Madison County,America/New_York,540,NA,US,38.45,-78.15,70,
22726,STANDARD,0,Lignum,,,VA,Culpeper County,America/New_York,540,NA,US,38.41,-77.82,740,
22727,STANDARD,0,Madison,Banco -  Etlan -  Graves Mill,Aylor -  Criglersville -  Shelby -  Twymans Mill,VA,Madison County,America/New_York,"434,540",NA,US,38.37,-78.25,4820,
22728,STANDARD,0,Midland,,,VA,Fauquier County,America/New_York,540,NA,US,38.59,-77.72,3040,
22729,STANDARD,0,Mitchells,,,VA,Culpeper County,America/New_York,540,NA,US,38.37,-78,172,
22730,STANDARD,0,Oakpark,,,VA,Madison County,America/New_York,540,NA,US,38.36,-78.16,151,
22731,STANDARD,0,Pratts,,,VA,Madison County,America/New_York,540,NA,US,38.35,-78.27,220,
22732,STANDARD,0,Radiant,,,VA,Madison County,America/New_York,540,NA,US,38.31,-78.17,300,
22733,STANDARD,0,Rapidan,,,VA,Culpeper County,America/New_York,540,NA,US,38.31,-78.06,1180,
22734,STANDARD,0,Remington,,,VA,Fauquier County,America/New_York,540,NA,US,38.53,-77.8,3020,
22735,STANDARD,0,Reva,,Culpeper,VA,Culpeper County,America/New_York,540,NA,US,38.49,-78.13,1850,
22736,STANDARD,0,Richardsville,,,VA,Culpeper County,America/New_York,540,NA,US,38.4,-77.72,480,
22737,STANDARD,0,Rixeyville,,,VA,Culpeper County,America/New_York,540,NA,US,38.58,-77.97,3030,
22738,STANDARD,0,Rochelle,Uno,,VA,Madison County,America/New_York,540,NA,US,38.29,-78.27,940,
22739,PO BOX,0,Somerville,,,VA,Fauquier County,America/New_York,,NA,US,38.52,-77.6,63,
22740,STANDARD,0,Sperryville,,,VA,Rappahannock County,America/New_York,540,NA,US,38.67,-78.25,1210,
22741,STANDARD,0,Stevensburg,,,VA,Culpeper County,America/New_York,540,NA,US,38.44,-77.9,230,
22742,STANDARD,0,Sumerduck,,,VA,Fauquier County,America/New_York,,NA,US,38.46,-77.72,1640,
22743,STANDARD,0,Syria,,,VA,Madison County,America/New_York,540,NA,US,38.48,-78.32,205,
22746,STANDARD,0,Viewtown,,Amissville,VA,Rappahannock County,America/New_York,540,NA,US,38.63,-78.03,269,
22747,STANDARD,0,Washington,,Wash,VA,Rappahannock County,America/New_York,540,NA,US,38.71,-78.15,1080,
22748,PO BOX,0,Wolftown,,,VA,Madison County,America/New_York,540,NA,US,38.35,-78.34,164,
22749,STANDARD,0,Woodville,,,VA,Rappahannock County,America/New_York,540,NA,US,38.6,-78.17,290,
22801,STANDARD,0,Harrisonburg,,Harrisburg,VA,Harrisonburg City,America/New_York,540,NA,US,38.43,-78.87,26870,
22802,STANDARD,0,Harrisonburg,,,VA,Rockingham County,America/New_York,540,NA,US,38.43,-78.87,23520,
22803,STANDARD,0,Harrisonburg,,,VA,Harrisonburg City,America/New_York,540,NA,US,38.51,-78.94,987,
22807,UNIQUE,0,Harrisonburg,,Hburg -  James Madison University,VA,Harrisonburg City,America/New_York,540,NA,US,38.43,-78.87,49,
22810,STANDARD,0,Basye,,,VA,Shenandoah County,America/New_York,540,NA,US,38.8,-78.78,850,
22811,STANDARD,0,Bergton,,,VA,Rockingham County,America/New_York,540,NA,US,38.79,-78.96,440,
22812,STANDARD,0,Bridgewater,,,VA,Rockingham County,America/New_York,540,NA,US,38.38,-78.96,7310,
22815,STANDARD,0,Broadway,,,VA,Rockingham County,America/New_York,540,NA,US,38.6,-78.79,7980,
22820,STANDARD,0,Criders,,,VA,Rockingham County,America/New_York,540,NA,US,38.75,-79,203,
22821,STANDARD,0,Dayton,Montezuma,,VA,Rockingham County,America/New_York,540,NA,US,38.47,-79.08,5380,
22824,STANDARD,0,Edinburg,,,VA,Shenandoah County,America/New_York,540,NA,US,38.82,-78.56,5590,
22827,STANDARD,0,Elkton,,,VA,Rockingham County,America/New_York,540,NA,US,38.41,-78.61,9390,
22830,STANDARD,0,Fulks Run,,,VA,Rockingham County,America/New_York,540,NA,US,38.63,-78.98,1530,
22831,STANDARD,0,Hinton,,Rawley Springs -  Rawley Sprngs,VA,Rockingham County,America/New_York,540,NA,US,38.48,-79,720,
22832,STANDARD,0,Keezletown,,,VA,Rockingham County,America/New_York,540,NA,US,38.45,-78.76,1040,
22833,PO BOX,0,Lacey Spring,,,VA,Rockingham County,America/New_York,540,NA,US,38.54,-78.73,127,
22834,STANDARD,0,Linville,,,VA,Rockingham County,America/New_York,540,NA,US,38.52,-78.83,1230,
22835,STANDARD,0,Luray,,Shenandoah National Park -  Shndoh Nat Pk,VA,Page County,America/New_York,540,NA,US,38.66,-78.45,9720,
22840,STANDARD,0,Mc Gaheysville,Massanutten -  Mcgaheysville,Mc Gaheysvlle,VA,Rockingham County,America/New_York,540,NA,US,38.36,-78.74,4190,
22841,STANDARD,0,Mount Crawford,Mt Crawford,Crosskeys,VA,Rockingham County,America/New_York,,NA,US,38.35,-78.94,2640,
22842,STANDARD,0,Mount Jackson,,South Jackson,VA,Shenandoah County,America/New_York,540,NA,US,38.74,-78.63,4530,
22843,STANDARD,0,Mount Solon,,,VA,Augusta County,America/New_York,540,NA,US,38.36,-79.16,2230,
22844,STANDARD,0,New Market,,Alpine,VA,Shenandoah County,America/New_York,540,NA,US,38.64,-78.67,3760,
22845,STANDARD,0,Orkney Springs,Orkney Sprngs,Orkney Spgs,VA,Shenandoah County,America/New_York,540,NA,US,38.79,-78.82,55,
22846,STANDARD,0,Penn Laird,,,VA,Rockingham County,America/New_York,540,NA,US,38.36,-78.79,2020,
22847,STANDARD,0,Quicksburg,Shenandoah Caverns -  Shendoah Cvrn,,VA,Shenandoah County,America/New_York,540,NA,US,38.72,-78.71,880,
22848,PO BOX,0,Pleasant Valley,Pleasant Vly,,VA,Rockingham County,America/New_York,540,NA,US,38.36,-78.87,30,
22849,STANDARD,0,Shenandoah,,,VA,Page County,America/New_York,540,NA,US,38.48,-78.62,4250,
22850,STANDARD,0,Singers Glen,,,VA,Rockingham County,America/New_York,540,NA,US,38.56,-78.9,880,
22851,STANDARD,0,Stanley,,,VA,Page County,America/New_York,540,NA,US,38.57,-78.5,4980,
22853,STANDARD,0,Timberville,,,VA,Rockingham County,America/New_York,540,NA,US,38.63,-78.77,4100,
22901,STANDARD,0,Charlottesville,Charlottesvle,Chville,VA,Albemarle County,America/New_York,434,NA,US,38.03,-78.48,33220,
22902,STANDARD,0,Charlottesville,Charlottesvle -  Monticello,,VA,Albemarle County,America/New_York,434,NA,US,38.03,-78.48,19700,
22903,STANDARD,0,Charlottesville,Charlottesvle -  University,,VA,Albemarle County,America/New_York,434,NA,US,38.03,-78.48,25820,
22904,STANDARD,0,Charlottesville,Charlottesvle -  Newcomb Hall,,VA,Charlottesville City,America/New_York,434,NA,US,38.03,-78.48,179,
22905,PO BOX,0,Charlottesville,Charlottesvle,,VA,Charlottesville City,America/New_York,434,NA,US,38.03,-78.48,487,
22906,PO BOX,0,Charlottesville,Charlottesvle,,VA,Charlottesville City,America/New_York,434,NA,US,38.03,-78.48,994,
22907,UNIQUE,0,Charlottesville,Charlottesvle,Business Reply Firms,VA,Charlottesville City,America/New_York,434,NA,US,38.03,-78.48,0,
22908,UNIQUE,0,Charlottesville,Charlottesvle,Un Va Med Ctr -  Univ Of Va Med Ctr,VA,Charlottesville City,America/New_York,434,NA,US,38.03,-78.48,19,
22909,UNIQUE,0,Charlottesville,Charlottesvle,State Farm Insurance,VA,Charlottesville City,America/New_York,434,NA,US,38.03,-78.48,0,
22910,UNIQUE,0,Charlottesville,Charlottesvle,Embarq,VA,Charlottesville City,America/New_York,434,NA,US,38.03,-78.48,0,
22911,STANDARD,0,Charlottesville,Charlottesvle,,VA,Albemarle County,America/New_York,434,NA,US,38.03,-78.48,16480,
22920,STANDARD,0,Afton,,,VA,Nelson County,America/New_York,,NA,US,38.03,-78.83,3640,
22922,STANDARD,0,Arrington,Tye River,,VA,Nelson County,America/New_York,434,NA,US,37.68,-78.9,1700,
22923,STANDARD,0,Barboursville,Burnleys -  Eheart,,VA,Orange County,America/New_York,,NA,US,38.17,-78.28,5130,
22924,PO BOX,0,Batesville,,,VA,Albemarle County,America/New_York,,NA,US,38.01,-78.63,349,
22931,STANDARD,0,Covesville,,,VA,Albemarle County,America/New_York,,NA,US,37.89,-78.7,390,
22932,STANDARD,0,Crozet,Yancey Mills,,VA,Albemarle County,America/New_York,434,NA,US,38.06,-78.69,7930,
22935,STANDARD,0,Dyke,Boonesville -  Nortonsville -  St George,,VA,Greene County,America/New_York,,NA,US,38.26,-78.57,900,
22936,STANDARD,0,Earlysville,,,VA,Albemarle County,America/New_York,,NA,US,38.15,-78.48,5230,
22937,STANDARD,0,Esmont,,,VA,Albemarle County,America/New_York,,NA,US,37.83,-78.6,1200,
22938,STANDARD,0,Faber,,,VA,Nelson County,America/New_York,434,NA,US,37.85,-78.75,1190,
22939,STANDARD,0,Fishersville,,,VA,Augusta County,America/New_York,540,NA,US,38.09,-78.96,5060,
22940,STANDARD,0,Free Union,Mission Home,,VA,Albemarle County,America/New_York,,NA,US,38.15,-78.56,1160,
22942,STANDARD,0,Gordonsville,Zion Crossrds -  Zion Crossroads,Boswells Tavern -  Zion,VA,Louisa County,America/New_York,540,NA,US,38.13,-78.18,7500,
22943,STANDARD,0,Greenwood,,,VA,Albemarle County,America/New_York,540,NA,US,38.05,-78.77,540,
22945,PO BOX,0,Ivy,,,VA,Albemarle County,America/New_York,,NA,US,38.05,-78.59,444,
22946,STANDARD,0,Keene,,,VA,Albemarle County,America/New_York,,NA,US,37.86,-78.55,260,
22947,STANDARD,0,Keswick,Boyd Tavern -  Campbell -  Cismont -  Cobham -  Shadwell,,VA,Albemarle County,America/New_York,,NA,US,38.02,-78.35,4710,
22948,STANDARD,0,Locust Dale,,,VA,Madison County,America/New_York,540,NA,US,38.33,-78.11,200,
22949,STANDARD,0,Lovingston,,,VA,Nelson County,America/New_York,434,NA,US,37.77,-78.88,1280,
22952,STANDARD,0,Lyndhurst,Sherando,,VA,Augusta County,America/New_York,540,NA,US,37.96,-78.96,1900,
22957,PO BOX,0,Montpelier Station,Mntpelier Sta,,VA,Orange County,America/New_York,,NA,US,38.19,-78.11,117,
22958,STANDARD,0,Nellysford,,Wintergreen,VA,Nelson County,America/New_York,434,NA,US,37.85,-78.88,1750,
22959,STANDARD,0,North Garden,,South Garden,VA,Albemarle County,America/New_York,,NA,US,37.94,-78.63,1520,
22960,STANDARD,0,Orange,Madison Mills -  Montford -  Nasons -  Thornhill,,VA,Orange County,America/New_York,540,NA,US,38.24,-78.11,9260,
22963,STANDARD,0,Palmyra,Bybee -  Cunningham -  Wildwood -  Wilmington,Lake Montcelo -  Lake Monticello,VA,Fluvanna County,America/New_York,434,NA,US,37.86,-78.26,14720,
22964,STANDARD,0,Piney River,,,VA,Nelson County,America/New_York,434,NA,US,37.71,-79.02,320,
22965,PO BOX,0,Quinque,,,VA,Greene County,America/New_York,434,NA,US,38.25,-78.38,268,
22967,STANDARD,0,Roseland,Lowesville -  Massies Mill -  Wintergreen Resort -  Wintergrn Rst,Massies Ml,VA,Nelson County,America/New_York,,NA,US,37.74,-78.97,2030,
22968,STANDARD,0,Ruckersville,Advance Mills,,VA,Greene County,America/New_York,434,NA,US,38.23,-78.37,9660,
22969,STANDARD,0,Schuyler,,,VA,Nelson County,America/New_York,434,NA,US,37.79,-78.69,1110,
22971,STANDARD,0,Shipman,Rockfish,,VA,Nelson County,America/New_York,434,NA,US,37.72,-78.83,1390,
22972,STANDARD,0,Somerset,,Old Somerset,VA,Orange County,America/New_York,540,NA,US,38.2,-78.23,410,
22973,STANDARD,0,Stanardsville,,,VA,Greene County,America/New_York,434,NA,US,38.3,-78.43,5460,
22974,STANDARD,0,Troy,,,VA,Fluvanna County,America/New_York,,NA,US,37.94,-78.24,4020,
22976,STANDARD,0,Tyro,Roseland,,VA,Nelson County,America/New_York,,NA,US,37.82,-79,270,
22980,STANDARD,0,Waynesboro,,Park,VA,Waynesboro City,America/New_York,540,NA,US,38.06,-78.9,29130,
22987,PO BOX,0,White Hall,,,VA,Albemarle County,America/New_York,,NA,US,38.11,-78.66,45,
22989,PO BOX,0,Woodberry Forest,Woodberry For,Wdberry Forst,VA,,America/New_York,,NA,US,38.21,-78.05,195,
23001,PO BOX,0,Achilles,,,VA,Gloucester County,America/New_York,804,NA,US,37.28,-76.44,326,
23002,STANDARD,0,Amelia Court House,Amelia Ct Hse,Amelia -  Amelia Ch,VA,Amelia County,America/New_York,804,NA,US,37.34,-77.96,9650,
23003,PO BOX,0,Ark,,Akk,VA,Gloucester County,America/New_York,804,NA,US,37.43,-76.57,810,
23004,STANDARD,0,Arvonia,,Akunia,VA,Buckingham County,America/New_York,"804,434",NA,US,37.66,-78.41,800,
23005,STANDARD,0,Ashland,,Ashaiiu,VA,Hanover County,America/New_York,804,NA,US,37.76,-77.47,14390,
23009,STANDARD,0,Aylett,,,VA,King William County,America/New_York,804,NA,US,37.77,-77.12,6470,
23011,STANDARD,0,Barhamsville,,,VA,New Kent County,America/New_York,804,NA,US,37.45,-76.84,940,
23014,STANDARD,0,Beaumont,,,VA,Powhatan County,America/New_York,804,NA,US,37.76,-78.02,0,
23015,STANDARD,0,Beaverdam,,,VA,Hanover County,America/New_York,804,NA,US,37.94,-77.65,4210,
23018,PO BOX,0,Bena,,,VA,Gloucester County,America/New_York,804,NA,US,37.27,-76.45,480,
23021,STANDARD,0,Bohannon,,,VA,Mathews County,America/New_York,804,NA,US,37.39,-76.35,190,
23022,STANDARD,0,Bremo Bluff,,,VA,Fluvanna County,America/New_York,434,NA,US,37.71,-78.29,650,
23023,STANDARD,0,Bruington,,,VA,King and Queen County,America/New_York,804,NA,US,37.77,-76.93,330,
23024,STANDARD,0,Bumpass,,,VA,Louisa County,America/New_York,,NA,US,37.96,-77.73,7250,
23025,STANDARD,0,Cardinal,Miles,,VA,Mathews County,America/New_York,804,NA,US,37.42,-76.37,250,
23027,STANDARD,0,Cartersville,Tamworth,,VA,Cumberland County,America/New_York,804,NA,US,37.66,-78.1,1260,
23030,STANDARD,0,Charles City,,,VA,Charles City County,America/New_York,"804,757",NA,US,37.34,-77.07,4320,
23031,PO BOX,0,Christchurch,,,VA,Middlesex County,America/New_York,804,NA,US,37.57,-76.6,93,
23032,STANDARD,0,Church View,,,VA,Middlesex County,America/New_York,804,NA,US,37.67,-76.68,250,
23035,STANDARD,0,Cobbs Creek,Blakes,,VA,Mathews County,America/New_York,804,NA,US,37.5,-76.39,1230,
23038,STANDARD,0,Columbia,,,VA,Cumberland County,America/New_York,804,NA,US,37.75,-78.16,1530,
23039,STANDARD,0,Crozier,,,VA,Goochland County,America/New_York,,NA,US,37.63,-77.79,1020,
23040,STANDARD,0,Cumberland,,,VA,Cumberland County,America/New_York,804,NA,US,37.49,-78.24,4010,
23043,STANDARD,0,Deltaville,,,VA,Middlesex County,America/New_York,804,NA,US,37.55,-76.32,1430,
23045,STANDARD,0,Diggs,,,VA,Mathews County,America/New_York,804,NA,US,37.43,-76.28,87,
23047,STANDARD,0,Doswell,,,VA,Hanover County,America/New_York,804,NA,US,37.86,-77.46,1970,
23050,STANDARD,0,Dutton,,,VA,Mathews County,America/New_York,804,NA,US,37.49,-76.46,690,
23055,STANDARD,0,Fork Union,,,VA,Fluvanna County,America/New_York,434,NA,US,37.76,-78.26,1040,
23056,STANDARD,0,Foster,Mobjack,,VA,Mathews County,America/New_York,804,NA,US,37.45,-76.38,340,
23058,PO BOX,0,Glen Allen,,Glenallen -  Gln Alln,VA,Henrico County,America/New_York,804,NA,US,37.66,-77.48,699,
23059,STANDARD,0,Glen Allen,,Glenallen -  Gln Alln,VA,Hanover County,America/New_York,804,NA,US,37.66,-77.48,33680,
23060,STANDARD,0,Glen Allen,,Glen Allenw -  Glenallen -  Gln Alln,VA,Henrico County,America/New_York,804,NA,US,37.66,-77.48,35730,
23061,STANDARD,0,Gloucester,Bellamy -  Naxera -  Pinero -  Zanoni,,VA,Gloucester County,America/New_York,804,NA,US,37.43,-76.54,18450,
23062,STANDARD,0,Gloucester Point,Glou Point -  Gloucester Pt,Glouster Point,VA,Gloucester County,America/New_York,804,NA,US,37.26,-76.49,2370,
23063,STANDARD,0,Goochland,Fife,,VA,Goochland County,America/New_York,804,NA,US,37.68,-77.88,4400,
23064,PO BOX,0,Grimstead,,,VA,Mathews County,America/New_York,804,NA,US,37.5,-76.3,180,
23065,STANDARD,0,Gum Spring,,Gumspring,VA,Goochland County,America/New_York,,NA,US,37.77,-77.89,1430,
23066,PO BOX,0,Gwynn,,Gwyme,VA,Mathews County,America/New_York,804,NA,US,37.5,-76.28,361,
23067,PO BOX,0,Hadensville,,,VA,Goochland County,America/New_York,,NA,US,37.82,-77.99,135,
23068,STANDARD,0,Hallieford,,,VA,Mathews County,America/New_York,804,NA,US,37.49,-76.37,240,
23069,STANDARD,0,Hanover,Mangohick,,VA,Hanover County,America/New_York,804,NA,US,37.76,-77.37,2750,
23070,STANDARD,0,Hardyville,,,VA,Middlesex County,America/New_York,804,NA,US,37.55,-76.38,390,
23071,STANDARD,0,Hartfield,,,VA,Middlesex County,America/New_York,804,NA,US,37.55,-76.44,1350,
23072,STANDARD,0,Hayes,,Glass,VA,Gloucester County,America/New_York,804,NA,US,37.37,-76.5,9750,
23075,STANDARD,0,Henrico,Highland Spgs -  Highland Springs,,VA,Henrico County,America/New_York,804,NA,US,37.55,-77.32,8970,
23076,STANDARD,0,Hudgins,Redart,,VA,Mathews County,America/New_York,804,NA,US,37.47,-76.32,620,
23079,STANDARD,0,Jamaica,,,VA,Middlesex County,America/New_York,804,NA,US,37.71,-76.69,240,
23081,PO BOX,0,Jamestown,Williamsburg,,VA,James City County,America/New_York,757,NA,US,37.22,-76.76,0,
23083,STANDARD,0,Jetersville,,,VA,Amelia County,America/New_York,804,NA,US,37.29,-78.09,1850,
23084,STANDARD,0,Kents Store,,,VA,Fluvanna County,America/New_York,540,NA,US,37.87,-78.12,1620,
23085,STANDARD,0,King And Queen Court House,King Queen Ch,King And Qn C H -  Kingqueen Court House,VA,King and Queen County,America/New_York,804,NA,US,37.72,-76.84,370,
23086,STANDARD,0,King William,,,VA,King William County,America/New_York,804,NA,US,37.68,-77.01,2910,
23089,STANDARD,0,Lanexa,,,VA,New Kent County,America/New_York,804,NA,US,37.42,-76.9,4500,
23090,PO BOX,0,Lightfoot,,,VA,James City,America/New_York,757,NA,US,37.34,-76.75,501,
23091,STANDARD,0,Little Plymouth,Little Plymth,,VA,King and Queen County,America/New_York,804,NA,US,37.62,-76.79,250,
23092,STANDARD,0,Locust Hill,,,VA,Middlesex County,America/New_York,804,NA,US,37.59,-76.5,500,
23093,STANDARD,0,Louisa,,,VA,Louisa County,America/New_York,540,NA,US,38.01,-77.99,11530,
23101,PO BOX,1,Macon,,,VA,Powhatan County,America/New_York,804,NA,US,37.52,-77.96,22,
23102,STANDARD,0,Maidens,Dabneys,,VA,Goochland County,America/New_York,804,NA,US,37.66,-77.88,2510,
23103,STANDARD,0,Manakin Sabot,,Manakin -  Sabot,VA,Goochland County,America/New_York,804,NA,US,37.64,-77.7,5450,
23105,PO BOX,0,Mannboro,,,VA,Amelia County,America/New_York,804,NA,US,37.25,-77.82,0,
23106,STANDARD,0,Manquin,,,VA,King William County,America/New_York,804,NA,US,37.7,-77.15,930,
23107,PO BOX,0,Maryus,,,VA,Gloucester County,America/New_York,804,NA,US,37.27,-76.4,0,
23108,STANDARD,0,Mascot,,,VA,King and Queen County,America/New_York,804,NA,US,37.62,-76.7,131,
23109,STANDARD,0,Mathews,Beaverlett,,VA,Mathews County,America/New_York,804,NA,US,37.43,-76.32,1910,
23110,STANDARD,0,Mattaponi,,,VA,King and Queen County,America/New_York,804,NA,US,37.53,-76.77,600,
23111,STANDARD,0,Mechanicsville,Mechanicsvlle,,VA,Hanover County,America/New_York,804,NA,US,37.62,-77.35,35230,
23112,STANDARD,0,Midlothian,,,VA,Chesterfield County,America/New_York,804,NA,US,37.5,-77.63,47840,
23113,STANDARD,0,Midlothian,,Sycamore Square,VA,Chesterfield County,America/New_York,804,NA,US,37.5,-77.63,25070,
23114,STANDARD,0,Midlothian,,,VA,Chesterfield County,America/New_York,804,NA,US,37.48,-77.65,19210,
23115,PO BOX,0,Millers Tavern,Millers Tavrn,,VA,Essex County,America/New_York,804,NA,US,37.83,-76.93,483,
23116,STANDARD,0,Mechanicsville,Mechanicsvlle,,VA,Hanover County,America/New_York,804,NA,US,37.62,-77.35,29310,
23117,STANDARD,0,Mineral,,,VA,Louisa County,America/New_York,540,NA,US,38,-77.9,8410,
23119,STANDARD,0,Moon,,,VA,Mathews County,America/New_York,804,NA,US,37.44,-76.3,250,
23120,STANDARD,0,Moseley,,,VA,Chesterfield County,America/New_York,804,NA,US,37.41,-77.77,9350,
23123,STANDARD,0,New Canton,,,VA,Buckingham County,America/New_York,434,NA,US,37.7,-78.3,1480,
23124,STANDARD,0,New Kent,,,VA,New Kent County,America/New_York,804,NA,US,37.51,-76.97,3640,
23125,STANDARD,0,New Point,,,VA,Mathews County,America/New_York,804,NA,US,37.34,-76.28,117,
23126,STANDARD,0,Newtown,,,VA,King and Queen County,America/New_York,804,NA,US,37.91,-77.12,420,
23127,PO BOX,0,Norge,,,VA,James City County,America/New_York,757,NA,US,37.36,-76.77,326,
23128,STANDARD,0,North,James Store,,VA,Mathews County,America/New_York,804,NA,US,37.46,-76.38,1110,
23129,STANDARD,0,Oilville,,,VA,Goochland County,America/New_York,,NA,US,37.7,-77.78,370,
23130,STANDARD,0,Onemo,,,VA,Mathews County,America/New_York,804,NA,US,37.39,-76.27,136,
23131,PO BOX,0,Ordinary,,,VA,Gloucester County,America/New_York,804,NA,US,37.31,-76.51,235,
23138,STANDARD,0,Port Haywood,Bavon -  Peary,,VA,Mathews County,America/New_York,804,NA,US,37.38,-76.31,810,
23139,STANDARD,0,Powhatan,Macon,Powhatand -  Powhatano,VA,Powhatan County,America/New_York,804,NA,US,37.54,-77.92,23620,
23140,STANDARD,0,Providence Forge,Provdence Frg,,VA,New Kent County,America/New_York,804,NA,US,37.44,-77.04,5260,
23141,STANDARD,0,Quinton,,,VA,New Kent County,America/New_York,804,NA,US,37.53,-77.11,7010,
23146,STANDARD,0,Rockville,,,VA,Hanover County,America/New_York,804,NA,US,37.72,-77.67,2980,
23147,PO BOX,0,Ruthville,,,VA,Charles City,America/New_York,804,NA,US,37.36,-77.04,209,
23148,STANDARD,0,Saint Stephens Church,Cauthornville -  Indian Neck -  St Stephens Church -  St Stephns Ch,,VA,King and Queen County,America/New_York,804,NA,US,37.8,-77.05,1450,
23149,STANDARD,0,Saluda,,Glenns,VA,Gloucester County,America/New_York,804,NA,US,37.6,-76.59,2440,
23150,STANDARD,0,Sandston,,,VA,Henrico County,America/New_York,804,NA,US,37.51,-77.27,11730,
23153,STANDARD,0,Sandy Hook,,,VA,Goochland County,America/New_York,804,NA,US,37.75,-77.91,1410,
23154,PO BOX,0,Schley,,,VA,Gloucester County,America/New_York,804,NA,US,37.39,-76.44,44,
23155,PO BOX,0,Severn,,Hayes,VA,Gloucester County,America/New_York,804,NA,US,37.29,-76.41,0,
23156,STANDARD,0,Shacklefords,Plain View,Plainview,VA,King and Queen County,America/New_York,804,NA,US,37.54,-76.73,1490,
23160,STANDARD,0,State Farm,,,VA,Goochland County,America/New_York,804,NA,US,37.64,-77.82,19,
23161,STANDARD,0,Stevensville,,,VA,King and Queen County,America/New_York,804,NA,US,37.72,-76.92,126,
23162,PO BOX,0,Studley,,,VA,Hanover County,America/New_York,804,NA,US,37.67,-77.29,215,
23163,STANDARD,0,Susan,Shadow,,VA,Mathews County,America/New_York,804,NA,US,37.36,-76.31,200,
23168,STANDARD,0,Toano,,,VA,James City County,America/New_York,757,NA,US,37.37,-76.8,7520,
23169,STANDARD,0,Topping,Syringa,,VA,Middlesex County,America/New_York,804,NA,US,37.59,-76.46,1030,
23170,PO BOX,0,Trevilians,,,VA,Louisa County,America/New_York,,NA,US,38.05,-78.07,42,
23173,UNIQUE,0,University Of Richmond,Richmond -  Univ Of Rich,University Of Richmo,VA,Richmond City,America/New_York,804,NA,US,37.57,-77.53,108,
23175,STANDARD,0,Urbanna,Warner,,VA,Middlesex County,America/New_York,804,NA,US,37.63,-76.57,1830,
23176,STANDARD,0,Wake,,,VA,Middlesex County,America/New_York,804,NA,US,37.56,-76.42,540,
23177,STANDARD,0,Walkerton,,,VA,King and Queen County,America/New_York,804,NA,US,37.72,-77.02,580,
23178,PO BOX,0,Ware Neck,,,VA,Gloucester County,America/New_York,804,NA,US,37.4,-76.45,168,
23180,STANDARD,0,Water View,,,VA,Middlesex County,America/New_York,804,NA,US,37.72,-76.61,310,
23181,STANDARD,0,West Point,Cologne,Eltham,VA,King William County,America/New_York,804,NA,US,37.55,-76.8,5690,
23183,PO BOX,0,White Marsh,,,VA,Gloucester County,America/New_York,804,NA,US,37.34,-76.52,823,
23184,PO BOX,0,Wicomico,,,VA,Gloucester County,America/New_York,804,NA,US,37.29,-76.51,840,
23185,STANDARD,0,Williamsburg,,Wlmg -  Wmsbg,VA,Williamsburg City,America/New_York,757,NA,US,37.27,-76.7,40760,
23186,UNIQUE,0,Williamsburg,,College Of William & Mary -  Wlmg,VA,Williamsburg City,America/New_York,757,NA,US,37.27,-76.7,48,
23187,PO BOX,0,Williamsburg,,Wlmg,VA,Williamsburg City,America/New_York,757,NA,US,37.27,-76.7,1002,
23188,STANDARD,0,Williamsburg,,Wlmg,VA,James City County,America/New_York,757,NA,US,37.27,-76.7,39800,
23190,PO BOX,0,Woods Cross Roads,Woods Crs Rds,Woods Cr Rds -  Woods Cross Rds,VA,Gloucester County,America/New_York,804,NA,US,37.43,-76.54,26,
23192,STANDARD,0,Montpelier,,,VA,Hanover County,America/New_York,804,NA,US,37.81,-77.67,6420,
23218,PO BOX,0,Richmond,,Capitol,VA,Richmond City,America/New_York,804,NA,US,37.55,-77.46,413,
23219,STANDARD,0,Richmond,,Capitol,VA,Richmond City,America/New_York,804,NA,US,37.55,-77.46,2560,
23220,STANDARD,0,Richmond,,Saunders,VA,Richmond City,America/New_York,804,NA,US,37.55,-77.46,18500,
23221,STANDARD,0,Richmond,,Stewart,VA,Richmond City,America/New_York,804,NA,US,37.55,-77.46,12340,
23222,STANDARD,0,Richmond,,,VA,Richmond City,America/New_York,804,NA,US,37.55,-77.46,20450,
23223,STANDARD,0,Richmond,,,VA,Henrico County,America/New_York,804,NA,US,37.55,-77.46,41450,
23224,STANDARD,0,Richmond,N Chesterfld -  North Chesterfield,,VA,Richmond City,America/New_York,804,NA,US,37.55,-77.46,32360,
23225,STANDARD,0,Richmond,N Chesterfld -  North Chesterfield,Forest Hill,VA,Richmond City,America/New_York,804,NA,US,37.55,-77.46,34810,
23226,STANDARD,0,Richmond,,,VA,Richmond City,America/New_York,804,NA,US,37.55,-77.46,15230,
23227,STANDARD,0,Richmond,,,VA,Henrico County,America/New_York,804,NA,US,37.55,-77.46,21690,
23228,STANDARD,0,Henrico,Richmond,Staples Mill,VA,Henrico County,America/New_York,804,NA,US,37.55,-77.46,31610,
23229,STANDARD,0,Henrico,Regency -  Richmond,Tuckahoe -  Westbury,VA,Henrico County,America/New_York,804,NA,US,37.55,-77.46,32260,
23230,STANDARD,0,Richmond,,,VA,Henrico County,America/New_York,804,NA,US,37.55,-77.46,5790,
23231,STANDARD,0,Henrico,Richmond,Millers -  Montrose -  Montrose Heights -  Varina,VA,Henrico County,America/New_York,804,NA,US,37.55,-77.46,32580,
23232,STANDARD,0,Richmond,,Richmond Main,VA,Richmond City,America/New_York,804,NA,US,37.55,-77.46,21,
23233,STANDARD,0,Henrico,Richmond -  Ridge,,VA,Henrico County,America/New_York,804,NA,US,37.55,-77.46,29060,
23234,STANDARD,0,Richmond,Ampthill -  N Chesterfld -  North Chesterfield,,VA,Chesterfield County,America/New_York,804,NA,US,37.55,-77.46,41370,
23235,STANDARD,0,Richmond,Bon Air -  N Chesterfld -  North Chesterfield,,VA,Chesterfield County,America/New_York,804,NA,US,37.55,-77.46,30040,
23236,STANDARD,0,Richmond,N Chesterfld -  North Chesterfield,,VA,Chesterfield County,America/New_York,804,NA,US,37.55,-77.46,26360,
23237,STANDARD,0,Richmond,N Chesterfld -  North Chesterfield,,VA,Chesterfield County,America/New_York,804,NA,US,37.55,-77.46,21200,
23238,STANDARD,0,Henrico,Richmond,,VA,Henrico County,America/New_York,804,NA,US,37.55,-77.46,23880,
23240,STANDARD,1,Richmond,,,VA,Richmond City,America/New_York,804,NA,US,37.55,-77.46,0,
23241,PO BOX,0,Richmond,,Central Sta -  Rich -  Richmnd,VA,Richmond City,America/New_York,804,NA,US,37.55,-77.46,114,
23242,PO BOX,0,Henrico,Richmond,Rich -  Richmnd,VA,Henrico County,America/New_York,804,NA,US,37.55,-77.46,244,
23249,UNIQUE,0,Richmond,,Mcguire Veterans Hospital,VA,Richmond City,America/New_York,804,NA,US,37.55,-77.46,0,
23250,STANDARD,0,Richmond,Henrico -  Rich Int Ap -  Richmond Int Airport,Air Mail Facility -  Rich -  Richmnd,VA,Henrico County,America/New_York,804,NA,US,37.55,-77.46,66,
23255,PO BOX,0,Henrico,Richmond,,VA,Henrico County,America/New_York,804,NA,US,37.55,-77.46,414,
23260,PO BOX,0,Richmond,,Main Office,VA,Richmond City,America/New_York,804,NA,US,37.55,-77.46,369,
23261,PO BOX,0,Richmond,,Main Office,VA,Richmond City,America/New_York,804,NA,US,37.55,-77.46,713,
23269,UNIQUE,0,Richmond,,Div Motor Veh -  Rich,VA,Richmond City,America/New_York,804,NA,US,37.55,-77.46,0,
23273,UNIQUE,0,Henrico,Richmond,County Of Henrico,VA,Henrico County,America/New_York,804,NA,US,37.55,-77.46,19,
23274,UNIQUE,0,Richmond,,Dept Public Utilities,VA,Richmond City,America/New_York,804,NA,US,37.55,-77.46,0,
23276,UNIQUE,0,Richmond,,Capital One,VA,Richmond City,America/New_York,804,NA,US,37.55,-77.46,0,
23278,UNIQUE,0,Richmond,,Wachovia Bank,VA,Richmond City,America/New_York,804,NA,US,37.55,-77.46,0,
23279,UNIQUE,0,Richmond,,Anthem/blue Cross Blue Shiel -  Rich,VA,Richmond City,America/New_York,804,NA,US,37.55,-77.46,0,
23282,UNIQUE,0,Richmond,,V A State Dept Tax,VA,Richmond City,America/New_York,804,NA,US,37.55,-77.46,0,
23284,PO BOX,0,Richmond,,Vcu/west,VA,Richmond City,America/New_York,804,NA,US,37.55,-77.46,0,
23285,PO BOX,0,Richmond,,Rich -  Richmnd,VA,Richmond City,America/New_York,804,NA,US,37.55,-77.46,66,
23286,UNIQUE,0,Richmond,,Business Reply -  Rich,VA,Richmond City,America/New_York,804,NA,US,37.55,-77.46,0,
23288,UNIQUE,0,Henrico,Richmond,Koger Executive Ctr -  Rich,VA,Henrico County,America/New_York,804,NA,US,37.55,-77.46,31,
23289,UNIQUE,0,Richmond,,Internal Revenue Service -  Rich,VA,Richmond City,America/New_York,804,NA,US,37.55,-77.46,0,
23290,UNIQUE,0,Richmond,,Dominion Virginia Power,VA,Richmond City,America/New_York,804,NA,US,37.55,-77.46,0,
23291,UNIQUE,0,Richmond,,Suntrust Bank,VA,Richmond City,America/New_York,804,NA,US,37.55,-77.46,0,
23292,UNIQUE,0,Richmond,,Bank Of America -  Nationsbank Mortgage,VA,Richmond City,America/New_York,804,NA,US,37.55,-77.46,0,
23293,UNIQUE,0,Richmond,,Richmond Newspapers,VA,Richmond City,America/New_York,804,NA,US,37.55,-77.46,0,
23294,STANDARD,0,Henrico,Richmond,,VA,Henrico County,America/New_York,804,NA,US,37.55,-77.46,16520,
23295,UNIQUE,0,Richmond,,Capital One,VA,Richmond City,America/New_York,804,NA,US,37.55,-77.45,0,
23297,UNIQUE,0,Richmond,,Defense General Supply Ct -  Rich,VA,Richmond City,America/New_York,804,NA,US,37.55,-77.46,0,
23298,STANDARD,0,Richmond,,Vcu/mcv East,VA,Richmond City,America/New_York,804,NA,US,37.55,-77.46,31,
23301,STANDARD,0,Accomac,,,VA,Accomack County,America/New_York,757,NA,US,37.71,-75.66,1630,
23302,STANDARD,0,Assawoman,,,VA,Accomack County,America/New_York,757,NA,US,37.87,-75.52,153,
23303,STANDARD,0,Atlantic,,,VA,Accomack County,America/New_York,757,NA,US,37.9,-75.5,830,
23304,PO BOX,0,Battery Park,,,VA,Isle of Wight County,America/New_York,757,NA,US,36.96,-76.6,196,
23306,STANDARD,0,Belle Haven,,,VA,Accomack County,America/New_York,757,NA,US,37.55,-75.81,1050,
23307,STANDARD,0,Birdsnest,,,VA,Northampton County,America/New_York,757,NA,US,37.43,-75.88,470,
23308,STANDARD,0,Bloxom,,,VA,Accomack County,America/New_York,757,NA,US,37.83,-75.62,1370,
23310,STANDARD,0,Cape Charles,,,VA,Northampton County,America/New_York,757,NA,US,37.27,-76.01,2620,
23313,PO BOX,0,Capeville,,,VA,Northampton County,America/New_York,757,NA,US,37.2,-75.95,196,
23314,STANDARD,0,Carrollton,,,VA,Isle of Wight County,America/New_York,757,NA,US,36.94,-76.56,8330,
23315,STANDARD,0,Carrsville,Walters,,VA,Isle of Wight County,America/New_York,757,NA,US,36.71,-76.82,1340,
23316,PO BOX,0,Cheriton,,,VA,Northampton County,America/New_York,757,NA,US,37.28,-75.96,1567,
23320,STANDARD,0,Chesapeake,,,VA,Chesapeake City,America/New_York,757,NA,US,36.67,-76.3,53160,
23321,STANDARD,0,Chesapeake,,,VA,Chesapeake City,America/New_York,757,NA,US,36.67,-76.3,34050,
23322,STANDARD,0,Chesapeake,,Fentress,VA,Chesapeake City,America/New_York,757,NA,US,36.67,-76.3,59040,
23323,STANDARD,0,Chesapeake,,,VA,Chesapeake City,America/New_York,757,NA,US,36.67,-76.3,37200,
23324,STANDARD,0,Chesapeake,South Norfolk,,VA,Chesapeake City,America/New_York,757,NA,US,36.67,-76.3,21410,
23325,STANDARD,0,Chesapeake,,,VA,Chesapeake City,America/New_York,757,NA,US,36.67,-76.3,16070,
23326,UNIQUE,0,Chesapeake,,Coast Guard Finance Center,VA,Chesapeake City,America/New_York,757,NA,US,36.67,-76.3,0,
23327,PO BOX,0,Chesapeake,,,VA,Chesapeake City,America/New_York,757,NA,US,36.67,-76.3,577,
23328,PO BOX,0,Chesapeake,,,VA,Chesapeake City,America/New_York,757,NA,US,36.67,-76.3,478,
23336,STANDARD,0,Chincoteague Island,Chincoteague,,VA,Accomack County,America/New_York,757,NA,US,37.92,-75.32,2880,
23337,STANDARD,0,Wallops Island,Chincoteague -  Chincoteague Island -  Wallops Is,,VA,Accomack County,America/New_York,757,NA,US,37.84,-75.47,410,
23341,PO BOX,0,Craddockville,,,VA,Accomack County,America/New_York,757,NA,US,37.6,-75.86,218,
23345,STANDARD,0,Davis Wharf,,Craddockville,VA,Accomack County,America/New_York,757,NA,US,37.56,-75.88,0,
23347,PO BOX,0,Eastville,,,VA,Northampton County,America/New_York,757,NA,US,37.35,-75.94,1224,
23350,STANDARD,0,Exmore,,,VA,Northampton County,America/New_York,757,NA,US,37.53,-75.82,2660,
23354,STANDARD,0,Franktown,,Bayford,VA,Northampton County,America/New_York,757,NA,US,37.47,-75.87,410,
23356,STANDARD,0,Greenbackville,Greenbackvile,,VA,Accomack County,America/New_York,757,NA,US,38,-75.41,1220,
23357,STANDARD,0,Greenbush,,,VA,Accomack County,America/New_York,757,NA,US,37.76,-75.67,850,
23358,STANDARD,0,Hacksneck,Hacks Neck,Painter,VA,Accomack County,America/New_York,757,NA,US,37.63,-75.84,41,
23359,STANDARD,0,Hallwood,,,VA,Accomack County,America/New_York,757,NA,US,37.87,-75.58,410,
23389,PO BOX,0,Harborton,,,VA,Accomack County,America/New_York,757,NA,US,37.66,-75.84,124,
23395,STANDARD,0,Horntown,,,VA,Accomack County,America/New_York,757,NA,US,37.97,-75.46,540,
23396,STANDARD,0,Oak Hall,,,VA,Accomack County,America/New_York,757,NA,US,37.93,-75.54,0,
23397,PO BOX,0,Isle Of Wight,,,VA,Isle of Wight County,America/New_York,757,NA,US,36.9,-76.7,0,
23398,PO BOX,0,Jamesville,,,VA,Northampton County,America/New_York,757,NA,US,37.51,-75.93,281,
23399,STANDARD,0,Jenkins Bridge,Jenkins Brg,Temperanceville,VA,Accomack County,America/New_York,757,NA,US,37.91,-75.63,0,
23401,PO BOX,0,Keller,,,VA,Accomack County,America/New_York,757,NA,US,37.62,-75.76,372,
23404,STANDARD,0,Locustville,,,VA,Accomack County,America/New_York,757,NA,US,37.65,-75.67,116,
23405,STANDARD,0,Machipongo,,,VA,Northampton County,America/New_York,757,NA,US,37.4,-75.9,760,
23407,PO BOX,0,Mappsville,,,VA,Accomack County,America/New_York,757,NA,US,37.84,-75.56,551,
23408,PO BOX,0,Marionville,,,VA,Northampton County,America/New_York,757,NA,US,37.44,-75.85,115,
23409,STANDARD,0,Mears,,Bloxom,VA,Accomack County,America/New_York,757,NA,US,37.87,-75.64,67,
23410,STANDARD,0,Melfa,,,VA,Accomack County,America/New_York,757,NA,US,37.64,-75.74,1870,
23412,PO BOX,0,Modest Town,,Nelsonia,VA,Accomack County,America/New_York,757,NA,US,37.81,-75.57,68,
23413,PO BOX,0,Nassawadox,Weirwood,,VA,Northampton County,America/New_York,757,NA,US,37.47,-75.86,1040,
23414,PO BOX,0,Nelsonia,,,VA,Accomack County,America/New_York,757,NA,US,37.81,-75.58,407,
23415,STANDARD,0,New Church,,,VA,Accomack County,America/New_York,757,NA,US,37.97,-75.53,1380,
23416,STANDARD,0,Oak Hall,,,VA,Accomack County,America/New_York,757,NA,US,37.93,-75.54,510,
23417,STANDARD,0,Onancock,,,VA,Accomack County,America/New_York,757,NA,US,37.7,-75.74,3120,
23418,STANDARD,0,Onley,,,VA,Accomack County,America/New_York,757,NA,US,37.69,-75.71,1410,
23419,PO BOX,0,Oyster,,Cape Charles,VA,Northampton County,America/New_York,757,NA,US,37.28,-75.92,0,
23420,STANDARD,0,Painter,,,VA,Accomack County,America/New_York,757,NA,US,37.58,-75.78,1720,
23421,STANDARD,0,Parksley,Lee Mont,,VA,Accomack County,America/New_York,757,NA,US,37.78,-75.65,3730,
23422,PO BOX,0,Pungoteague,,,VA,Accomack County,America/New_York,757,NA,US,37.62,-75.81,522,
23423,PO BOX,0,Quinby,,,VA,Accomack County,America/New_York,757,NA,US,37.55,-75.73,269,
23424,PO BOX,0,Rescue,,,VA,Isle of Wight County,America/New_York,757,NA,US,36.99,-76.55,222,
23426,STANDARD,0,Sanford,,,VA,Accomack County,America/New_York,757,NA,US,37.92,-75.66,166,
23427,PO BOX,0,Saxis,,,VA,Accomack County,America/New_York,757,NA,US,37.92,-75.72,237,
23429,PO BOX,0,Seaview,,Cape Charles,VA,Northampton County,America/New_York,757,NA,US,37.27,-75.95,0,
23430,STANDARD,0,Smithfield,,,VA,Isle of Wight County,America/New_York,757,NA,US,36.98,-76.61,16360,
23431,PO BOX,0,Smithfield,,,VA,Isle of Wight County,America/New_York,757,NA,US,36.98,-76.61,465,
23432,STANDARD,0,Suffolk,,Chuckatuck,VA,Suffolk City,America/New_York,757,NA,US,36.7,-76.63,1370,
23433,STANDARD,0,Suffolk,,Crittenden,VA,Suffolk City,America/New_York,757,NA,US,36.7,-76.63,1220,
23434,STANDARD,0,Suffolk,,,VA,Suffolk City,America/New_York,757,NA,US,36.7,-76.63,43640,
23435,STANDARD,0,Suffolk,,Driver,VA,Suffolk City,America/New_York,757,NA,US,36.7,-76.63,28000,
23436,STANDARD,0,Suffolk,,,VA,Suffolk City,America/New_York,757,NA,US,36.7,-76.63,850,
23437,STANDARD,0,Suffolk,,Holland,VA,Suffolk City,America/New_York,757,NA,US,36.7,-76.63,3810,
23438,STANDARD,0,Suffolk,,Whaleyville,VA,Suffolk City,America/New_York,757,NA,US,36.7,-76.63,1630,
23439,PO BOX,0,Suffolk,,,VA,Suffolk City,America/New_York,757,NA,US,36.7,-76.63,1016,
23440,PO BOX,0,Tangier,,,VA,Accomack County,America/New_York,757,NA,US,37.82,-75.99,512,
23441,PO BOX,0,Tasley,,,VA,Accomack County,America/New_York,757,NA,US,37.7,-75.7,555,
23442,STANDARD,0,Temperanceville,Temperancevle,,VA,Accomack County,America/New_York,757,NA,US,37.89,-75.54,990,
23443,PO BOX,0,Townsend,,,VA,Northampton County,America/New_York,757,NA,US,37.18,-75.95,194,
23450,PO BOX,0,Virginia Beach,Virginia Bch,,VA,Virginia Beach City,America/New_York,757,NA,US,36.73,-76.04,851,
23451,STANDARD,0,Virginia Beach,Virginia Bch,,VA,Virginia Beach City,America/New_York,757,NA,US,36.73,-76.04,38740,
23452,STANDARD,0,Virginia Beach,Virginia Bch,,VA,Virginia Beach City,America/New_York,757,NA,US,36.73,-76.04,55190,
23453,STANDARD,0,Virginia Beach,Virginia Bch,,VA,Virginia Beach City,America/New_York,757,NA,US,36.78,-76.08,34800,
23454,STANDARD,0,Virginia Beach,Virginia Bch,,VA,Virginia Beach City,America/New_York,757,NA,US,36.73,-76.04,55290,
23455,STANDARD,0,Virginia Beach,Virginia Bch,,VA,Virginia Beach City,America/New_York,757,NA,US,36.73,-76.04,44660,
23456,STANDARD,0,Virginia Beach,Virginia Bch,,VA,Virginia Beach City,America/New_York,757,NA,US,36.73,-76.04,53900,
23457,STANDARD,0,Virginia Beach,Virginia Bch,,VA,Virginia Beach City,America/New_York,757,NA,US,36.73,-76.04,4330,
23458,PO BOX,0,Virginia Beach,Virginia Bch,,VA,Virginia Beach City,America/New_York,757,NA,US,36.73,-76.04,155,
23459,STANDARD,0,Virginia Beach,Fort Story -  Virginia Bch,Little Creek Naval Amphibiou -  Nav Amph Base -  Naval Amphib Base -  Naval Amphibious Base,VA,Virginia Beach City,America/New_York,757,NA,US,36.73,-76.04,589,
23460,STANDARD,0,Virginia Beach,Virginia Bch,,VA,Virginia Beach City,America/New_York,757,NA,US,36.73,-76.04,865,
23461,STANDARD,0,Virginia Beach,Virginia Bch,,VA,Virginia Beach City,America/New_York,757,NA,US,36.73,-76.04,282,
23462,STANDARD,0,Virginia Beach,Virginia Bch,,VA,Virginia Beach City,America/New_York,757,NA,US,36.73,-76.04,58220,
23463,UNIQUE,0,Virginia Beach,Virginia Bch,Christian Brdcst Network,VA,Virginia Beach City,America/New_York,757,NA,US,36.73,-76.04,57,
23464,STANDARD,0,Virginia Beach,Virginia Bch,Vab,VA,Virginia Beach City,America/New_York,757,NA,US,36.73,-76.04,70350,
23465,UNIQUE,0,Virginia Beach,Virginia Bch,Cbn Brm -  Christian Brdcst Network,VA,Virginia Beach City,America/New_York,757,NA,US,36.73,-76.04,74,
23466,PO BOX,0,Virginia Beach,Virginia Bch,,VA,Virginia Beach City,America/New_York,757,NA,US,36.73,-76.04,604,
23467,PO BOX,0,Virginia Beach,Virginia Bch,,VA,Virginia Beach City,America/New_York,757,NA,US,36.73,-76.04,508,
23471,PO BOX,0,Virginia Beach,Virginia Bch,,VA,Virginia Beach City,America/New_York,757,NA,US,36.73,-76.04,824,
23479,UNIQUE,0,Virginia Beach,Virginia Bch,Lillian Vernon,VA,Virginia Beach City,America/New_York,757,NA,US,36.73,-76.04,0,
23480,PO BOX,0,Wachapreague,,,VA,Accomack County,America/New_York,757,NA,US,37.6,-75.68,372,
23482,PO BOX,0,Wardtown,,Exmore,VA,Northampton County,America/New_York,757,NA,US,37.5,-75.87,0,
23483,PO BOX,0,Wattsville,,Atlantic,VA,Accomack County,America/New_York,757,NA,US,37.9,-75.5,80,
23486,PO BOX,0,Willis Wharf,,,VA,Northampton County,America/New_York,757,NA,US,37.51,-75.81,227,
23487,STANDARD,0,Windsor,,,VA,Isle of Wight County,America/New_York,757,NA,US,36.8,-76.73,5690,
23488,STANDARD,0,Withams,,,VA,Accomack County,America/New_York,757,NA,US,37.96,-75.56,200,
23501,PO BOX,0,Norfolk,,,VA,Norfolk City,America/New_York,757,NA,US,36.84,-76.28,893,
23502,STANDARD,0,Norfolk,,,VA,Norfolk City,America/New_York,757,NA,US,36.84,-76.28,18220,
23503,STANDARD,0,Norfolk,,,VA,Norfolk City,America/New_York,757,NA,US,36.84,-76.28,27020,
23504,STANDARD,0,Norfolk,,,VA,Norfolk City,America/New_York,757,NA,US,36.84,-76.28,17390,
23505,STANDARD,0,Norfolk,,,VA,Norfolk City,America/New_York,757,NA,US,36.84,-76.28,23580,
23506,PO BOX,0,Norfolk,,,VA,Norfolk City,America/New_York,757,NA,US,36.84,-76.28,0,
23507,STANDARD,0,Norfolk,,,VA,Norfolk City,America/New_York,757,NA,US,36.84,-76.28,4930,
23508,STANDARD,0,Norfolk,,,VA,Norfolk City,America/New_York,757,NA,US,36.84,-76.28,12320,
23509,STANDARD,0,Norfolk,,,VA,Norfolk City,America/New_York,757,NA,US,36.84,-76.28,11890,
23510,STANDARD,0,Norfolk,,,VA,Norfolk City,America/New_York,757,NA,US,36.84,-76.28,5330,
23511,STANDARD,0,Norfolk,Fleet -  Naval Base,Joint Forces Staff College -  Naval Communications Area Ma -  Norfolk Naval Air Station -  Norfolk Naval Public Works C -  Norfolk Naval Station,VA,Norfolk City,America/New_York,757,NA,US,36.84,-76.28,2290,
23512,UNIQUE,0,Norfolk,,Naval Defense Distrib Ctr,VA,Norfolk City,America/New_York,757,NA,US,36.84,-76.28,33,
23513,STANDARD,0,Norfolk,,,VA,Norfolk City,America/New_York,757,NA,US,36.84,-76.28,27400,
23514,PO BOX,0,Norfolk,,,VA,Norfolk City,America/New_York,757,NA,US,36.84,-76.28,242,
23515,UNIQUE,0,Norfolk,,Fleet Marine Force Atlantic,VA,Norfolk City,America/New_York,757,NA,US,36.84,-76.28,59,
23517,STANDARD,0,Norfolk,,,VA,Norfolk City,America/New_York,757,NA,US,36.84,-76.28,3920,
23518,STANDARD,0,Norfolk,,,VA,Norfolk City,America/New_York,757,NA,US,36.84,-76.28,27390,
23519,STANDARD,0,Norfolk,,,VA,Norfolk City,America/New_York,757,NA,US,36.84,-76.28,0,
23520,STANDARD,0,Norfolk,,,VA,Norfolk City,America/New_York,757,NA,US,36.84,-76.28,0,
23521,STANDARD,0,Norfolk,,,VA,Virginia Beach City,America/New_York,757,NA,US,36.84,-76.28,1005,
23523,STANDARD,0,Norfolk,,,VA,Norfolk City,America/New_York,757,NA,US,36.84,-76.28,6460,
23529,UNIQUE,0,Norfolk,,Old Dominion University,VA,Norfolk City,America/New_York,757,NA,US,36.84,-76.28,14,
23541,PO BOX,0,Norfolk,,,VA,Norfolk City,America/New_York,757,NA,US,36.84,-76.28,408,
23551,UNIQUE,0,Norfolk,,Cinclantflt,VA,Norfolk City,America/New_York,757,NA,US,36.84,-76.28,151,
23601,STANDARD,0,Newport News,,N N,VA,Newport News City,America/New_York,757,NA,US,37.07,-76.51,23130,
23602,STANDARD,0,Newport News,,,VA,Newport News City,America/New_York,757,NA,US,37.07,-76.51,37900,
23603,STANDARD,0,Newport News,,Lee Hall,VA,Newport News City,America/New_York,757,NA,US,37.07,-76.51,3390,
23604,STANDARD,0,Fort Eustis,Newport News,,VA,Newport News City,America/New_York,757,NA,US,37.12,-76.59,3420,
23605,STANDARD,0,Newport News,Hampton,,VA,Newport News City,America/New_York,757,NA,US,37.07,-76.51,12490,
23606,STANDARD,0,Newport News,,,VA,Newport News City,America/New_York,757,NA,US,37.07,-76.51,24450,
23607,STANDARD,0,Newport News,,,VA,Newport News City,America/New_York,757,NA,US,37.07,-76.51,17560,
23608,STANDARD,0,Newport News,,,VA,Newport News City,America/New_York,757,NA,US,37.07,-76.51,40880,
23609,PO BOX,0,Newport News,,,VA,Newport News City,America/New_York,757,NA,US,37.07,-76.51,526,
23612,PO BOX,0,Newport News,,,VA,Newport News City,America/New_York,757,NA,US,37.07,-76.51,163,
23628,UNIQUE,0,Newport News,,U S Army Trng Support Ctr,VA,Newport News City,America/New_York,757,NA,US,37.07,-76.51,0,
23630,UNIQUE,0,Hampton,,Family Fashions By Avon -  Newport News,VA,Hampton City,America/New_York,757,NA,US,37.04,-76.29,0,
23651,STANDARD,0,Fort Monroe,Hampton,,VA,Hampton City,America/New_York,757,NA,US,37,-76.3,480,
23661,STANDARD,0,Hampton,,,VA,Hampton City,America/New_York,757,NA,US,37.04,-76.29,12140,
23662,STANDARD,0,Poquoson,Hampton,,VA,Poquoson City,America/New_York,757,NA,US,37.12,-76.34,11780,
23663,STANDARD,0,Hampton,,,VA,Hampton City,America/New_York,757,NA,US,37.04,-76.29,11430,
23664,STANDARD,0,Hampton,,,VA,Hampton City,America/New_York,757,NA,US,37.04,-76.29,9270,
23665,STANDARD,0,Hampton,Langley Afb,Langley -  Langley Air Force Base,VA,Hampton City,America/New_York,757,NA,US,37.04,-76.29,5780,
23666,STANDARD,0,Hampton,,,VA,Hampton City,America/New_York,757,NA,US,37.04,-76.29,47010,
23667,UNIQUE,0,Hampton,,Kecoughtan Veterans Hospital,VA,Hampton City,America/New_York,757,NA,US,37.04,-76.29,48,
23668,UNIQUE,0,Hampton,,Hampton University,VA,Hampton City,America/New_York,757,NA,US,37.04,-76.29,55,
23669,STANDARD,0,Hampton,,,VA,Hampton City,America/New_York,757,NA,US,37.04,-76.29,35180,
23670,PO BOX,0,Hampton,,,VA,Hampton City,America/New_York,757,NA,US,37.04,-76.29,338,
23681,UNIQUE,0,Hampton,,Nasa,VA,Hampton City,America/New_York,757,NA,US,37.04,-76.29,0,
23690,STANDARD,0,Yorktown,,Coast Guard Finance Unit,VA,York County,America/New_York,757,NA,US,37.23,-76.5,3070,
23691,STANDARD,0,Yorktown,Nav Wpns Sta -  Naval Weapons Station,Naval Weapons Sta -  Yorktown Naval Weapons Stati,VA,York County,America/New_York,757,NA,US,37.23,-76.5,250,
23692,STANDARD,0,Yorktown,Grafton,,VA,York County,America/New_York,757,NA,US,37.23,-76.5,18410,
23693,STANDARD,0,Yorktown,Tabb,,VA,York County,America/New_York,757,NA,US,37.23,-76.5,22980,
23694,PO BOX,0,Lackey,,,VA,York County,America/New_York,757,NA,US,37.23,-76.54,183,
23696,STANDARD,0,Seaford,,,VA,York County,America/New_York,757,NA,US,37.19,-76.43,3610,
23701,STANDARD,0,Portsmouth,,,VA,Portsmouth City,America/New_York,757,NA,US,36.83,-76.29,21410,
23702,STANDARD,0,Portsmouth,,,VA,Portsmouth City,America/New_York,757,NA,US,36.83,-76.29,10350,
23703,STANDARD,0,Portsmouth,,,VA,Portsmouth City,America/New_York,757,NA,US,36.83,-76.29,24570,
23704,STANDARD,0,Portsmouth,,,VA,Portsmouth City,America/New_York,757,NA,US,36.83,-76.29,15270,
23705,PO BOX,0,Portsmouth,,,VA,Portsmouth City,America/New_York,757,NA,US,36.83,-76.29,327,
23707,STANDARD,0,Portsmouth,,,VA,Portsmouth City,America/New_York,757,NA,US,36.83,-76.29,13020,
23708,STANDARD,0,Portsmouth,,,VA,Portsmouth City,America/New_York,757,NA,US,36.83,-76.29,278,
23709,STANDARD,0,Portsmouth,,,VA,Portsmouth City,America/New_York,757,NA,US,36.83,-76.29,57,
23801,STANDARD,0,Fort Lee,Petersburg,,VA,Prince George County,America/New_York,804,NA,US,37.23,-77.33,5720,
23803,STANDARD,0,Petersburg,S Chesterfld -  South Chesterfield,Matoaca,VA,Petersburg City,America/New_York,804,NA,US,37.2,-77.39,33540,
23804,PO BOX,0,Petersburg,,,VA,Petersburg City,America/New_York,804,NA,US,37.2,-77.39,594,
23805,STANDARD,0,Petersburg,,Walnut Hill,VA,Prince George County,America/New_York,804,NA,US,37.2,-77.39,17470,
23806,UNIQUE,0,Virginia State University,Petersburg -  Va State Univ,Virginia State Univ,VA,Petersburg City,America/New_York,804,NA,US,37.2,-77.39,60,
23821,STANDARD,0,Alberta,,,VA,Brunswick County,America/New_York,434,NA,US,36.86,-77.88,1300,
23822,PO BOX,0,Ammon,,,VA,Amelia County,America/New_York,804,NA,US,37.21,-77.76,0,
23824,STANDARD,0,Blackstone,,,VA,Nottoway County,America/New_York,434,NA,US,37.07,-78,6180,
23825,PO BOX,1,Blackstone,,,VA,Nottoway County,America/New_York,434,NA,US,37.08,-77.99,0,
23827,STANDARD,0,Boykins,,,VA,Southampton County,America/New_York,757,NA,US,36.57,-77.19,1140,
23828,STANDARD,0,Branchville,,,VA,Southampton County,America/New_York,,NA,US,36.56,-77.24,370,
23829,STANDARD,0,Capron,,,VA,Southampton County,America/New_York,434,NA,US,36.71,-77.2,1090,
23830,STANDARD,0,Carson,,,VA,Prince George County,America/New_York,,NA,US,37.03,-77.4,1510,
23831,STANDARD,0,Chester,,,VA,Chesterfield County,America/New_York,804,NA,US,37.35,-77.43,34180,
23832,STANDARD,0,Chesterfield,,Beach -  Chesterfld,VA,Chesterfield County,America/New_York,804,NA,US,37.37,-77.5,34790,
23833,STANDARD,0,Church Road,,,VA,Dinwiddie County,America/New_York,804,NA,US,37.15,-77.63,1880,
23834,STANDARD,0,Colonial Heights,Colonial Hgts -  S Chesterfld -  South Chesterfield,,VA,Colonial Heights City,America/New_York,,NA,US,37.26,-77.39,23800,
23836,STANDARD,0,Chester,,,VA,Chesterfield County,America/New_York,804,NA,US,37.35,-77.43,12820,
23837,STANDARD,0,Courtland,,,VA,Southampton County,America/New_York,757,NA,US,36.71,-77.06,3660,
23838,STANDARD,0,Chesterfield,,,VA,Chesterfield County,America/New_York,804,NA,US,37.37,-77.5,15620,
23839,STANDARD,0,Dendron,,,VA,Surry County,America/New_York,757,NA,US,37.03,-76.92,790,
23840,STANDARD,0,Dewitt,,,VA,Dinwiddie County,America/New_York,804,NA,US,37.03,-77.64,1550,
23841,STANDARD,0,Dinwiddie,,,VA,Dinwiddie County,America/New_York,804,NA,US,37.07,-77.58,3290,
23842,STANDARD,0,Disputanta,,,VA,Prince George County,America/New_York,804,NA,US,37.12,-77.22,6450,
23843,STANDARD,0,Dolphin,,,VA,Brunswick County,America/New_York,434,NA,US,36.83,-77.79,470,
23844,STANDARD,0,Drewryville,,,VA,Southampton County,America/New_York,,NA,US,36.71,-77.3,500,
23845,STANDARD,0,Ebony,,,VA,Brunswick County,America/New_York,434,NA,US,36.57,-77.99,350,
23846,STANDARD,0,Elberon,,,VA,Surry County,America/New_York,757,NA,US,37.07,-76.88,740,
23847,STANDARD,0,Emporia,,,VA,Emporia City,America/New_York,434,NA,US,36.69,-77.53,11110,
23850,STANDARD,0,Ford,,,VA,Dinwiddie County,America/New_York,804,NA,US,37.14,-77.73,950,
23851,STANDARD,0,Franklin,,,VA,Franklin City,America/New_York,757,NA,US,36.68,-76.93,11910,
23856,STANDARD,0,Freeman,,,VA,Brunswick County,America/New_York,434,NA,US,36.8,-77.7,990,
23857,STANDARD,0,Gasburg,,,VA,Brunswick County,America/New_York,434,NA,US,36.56,-77.89,600,
23860,STANDARD,0,Hopewell,,,VA,Hopewell City,America/New_York,804,NA,US,37.29,-77.29,24310,
23866,STANDARD,0,Ivor,,,VA,Southampton County,America/New_York,757,NA,US,36.9,-76.89,1970,
23867,STANDARD,0,Jarratt,,,VA,Greensville County,America/New_York,434,NA,US,36.81,-77.47,1960,
23868,STANDARD,0,Lawrenceville,Triplet,,VA,Brunswick County,America/New_York,434,NA,US,36.75,-77.85,4100,
23870,UNIQUE,0,Jarratt,,Greenville Correctional Ctr,VA,Sussex County,America/New_York,434,NA,US,36.81,-77.47,17,
23872,STANDARD,0,Mc Kenney,,Mckenney,VA,Dinwiddie County,America/New_York,804,NA,US,36.99,-77.74,1970,
23873,PO BOX,0,Meredithville,,,VA,Brunswick County,America/New_York,434,NA,US,36.79,-77.95,0,
23874,STANDARD,0,Newsoms,,Neusons,VA,Southampton County,America/New_York,,NA,US,36.62,-77.12,950,
23875,STANDARD,0,Prince George,,,VA,Prince George County,America/New_York,804,NA,US,37.22,-77.28,10810,
23876,STANDARD,0,Rawlings,,,VA,Brunswick County,America/New_York,434,NA,US,36.94,-77.77,320,
23878,STANDARD,0,Sedley,,,VA,Southampton County,America/New_York,,NA,US,36.77,-76.98,1110,
23879,STANDARD,0,Skippers,,,VA,Greensville County,America/New_York,434,NA,US,36.58,-77.54,650,
23881,STANDARD,0,Spring Grove,,,VA,Surry County,America/New_York,757,NA,US,37.16,-76.97,1550,
23882,STANDARD,0,Stony Creek,,,VA,Sussex County,America/New_York,434,NA,US,36.94,-77.4,2000,
23883,STANDARD,0,Surry,,,VA,Surry County,America/New_York,757,NA,US,37.13,-76.83,2210,
23884,PO BOX,0,Sussex,,,VA,Sussex County,America/New_York,,NA,US,36.91,-77.27,22,
23885,STANDARD,0,Sutherland,,,VA,Dinwiddie County,America/New_York,804,NA,US,37.19,-77.56,2560,
23887,STANDARD,0,Valentines,,,VA,Brunswick County,America/New_York,434,NA,US,36.58,-77.83,400,
23888,STANDARD,0,Wakefield,,,VA,Sussex County,America/New_York,757,NA,US,36.96,-76.98,2010,
23889,STANDARD,0,Warfield,,,VA,Brunswick County,America/New_York,804,NA,US,36.89,-77.74,500,
23890,STANDARD,0,Waverly,,,VA,Sussex County,America/New_York,804,NA,US,37.03,-77.09,3570,
23891,UNIQUE,0,Waverly,,Sussex Correctional Facility,VA,Sussex County,America/New_York,804,NA,US,37.03,-77.09,17,
23893,STANDARD,0,White Plains,,,VA,Brunswick County,America/New_York,434,NA,US,36.63,-77.91,410,
23894,STANDARD,0,Wilsons,,,VA,Dinwiddie County,America/New_York,804,NA,US,37.14,-77.85,570,
23897,STANDARD,0,Yale,,,VA,Sussex County,America/New_York,,NA,US,36.84,-77.28,460,
23898,STANDARD,0,Zuni,,,VA,Isle of Wight County,America/New_York,,NA,US,36.86,-76.82,2030,
23899,PO BOX,0,Claremont,,,VA,Surry County,America/New_York,757,NA,US,37.22,-76.96,366,
23901,STANDARD,0,Farmville,,,VA,Prince Edward County,America/New_York,434,NA,US,37.29,-78.39,10480,
23909,UNIQUE,0,Farmville,,Longwood University,VA,Prince Edward County,America/New_York,434,NA,US,37.29,-78.39,13,
23915,STANDARD,0,Baskerville,,,VA,Mecklenburg County,America/New_York,434,NA,US,36.68,-78.27,650,
23917,STANDARD,0,Boydton,,Palmer Springs -  Palmersprings,VA,Mecklenburg County,America/New_York,434,NA,US,36.66,-78.38,2240,
23919,STANDARD,0,Bracey,,,VA,Mecklenburg County,America/New_York,434,NA,US,36.59,-78.14,1960,
23920,STANDARD,0,Brodnax,,,VA,Brunswick County,America/New_York,434,NA,US,36.7,-78.03,2640,
23921,STANDARD,0,Buckingham,,,VA,Buckingham County,America/New_York,434,NA,US,37.55,-78.55,1590,
23922,STANDARD,0,Burkeville,,,VA,Nottoway County,America/New_York,434,NA,US,37.18,-78.2,1750,
23923,STANDARD,0,Charlotte Court House,Charlotte C H,Charlotte Ch,VA,Charlotte County,America/New_York,434,NA,US,37.05,-78.63,1910,
23924,STANDARD,0,Chase City,,,VA,Mecklenburg County,America/New_York,434,NA,US,36.79,-78.46,4700,
23927,STANDARD,0,Clarksville,,,VA,Mecklenburg County,America/New_York,434,NA,US,36.62,-78.56,3520,
23930,STANDARD,0,Crewe,,,VA,Nottoway County,America/New_York,434,NA,US,37.18,-78.13,4910,
23934,STANDARD,0,Cullen,,,VA,Charlotte County,America/New_York,434,NA,US,37.11,-78.65,560,
23936,STANDARD,0,Dillwyn,Sprouses Corn -  Sprouses Corner,Andersonville,VA,Buckingham County,America/New_York,"804,434",NA,US,37.54,-78.46,4910,
23937,STANDARD,0,Drakes Branch,,,VA,Charlotte County,America/New_York,434,NA,US,36.99,-78.6,1400,
23938,STANDARD,0,Dundas,,,VA,Brunswick County,America/New_York,,NA,US,36.91,-78.02,440,
23939,PO BOX,0,Evergreen,,,VA,Appomattox County,America/New_York,434,NA,US,37.3,-78.78,191,
23941,PO BOX,0,Fort Mitchell,,,VA,Lunenburg County,America/New_York,434,NA,US,36.91,-78.48,0,
23942,STANDARD,0,Green Bay,,Greenbay,VA,Prince Edward County,America/New_York,434,NA,US,37.13,-78.3,940,
23943,PO BOX,0,Hampden Sydney,Farmville -  Hmpden Sydney,,VA,Prince Edward County,America/New_York,434,NA,US,37.24,-78.45,215,
23944,STANDARD,0,Kenbridge,,,VA,Lunenburg County,America/New_York,434,NA,US,36.96,-78.13,3740,
23947,STANDARD,0,Keysville,,,VA,Charlotte County,America/New_York,434,NA,US,37.03,-78.48,3750,
23950,STANDARD,0,La Crosse,Blackridge -  Forksville,Black Ridge,VA,Mecklenburg County,America/New_York,434,NA,US,36.69,-78.09,3020,
23952,STANDARD,0,Lunenburg,,,VA,Lunenburg County,America/New_York,434,NA,US,36.96,-78.26,200,
23954,STANDARD,0,Meherrin,,,VA,Prince Edward County,America/New_York,,NA,US,37.09,-78.36,1740,
23955,PO BOX,0,Nottoway,,,VA,Nottoway County,America/New_York,434,NA,US,37.13,-78.07,70,
23958,STANDARD,0,Pamplin,Darlingtn Hts -  Darlington Heights,,VA,Appomattox County,America/New_York,434,NA,US,37.26,-78.68,2620,
23959,STANDARD,0,Phenix,,,VA,Charlotte County,America/New_York,434,NA,US,37.08,-78.74,950,
23960,STANDARD,0,Prospect,,,VA,Prince Edward County,America/New_York,434,NA,US,37.3,-78.55,1610,
23962,STANDARD,0,Randolph,,,VA,Charlotte County,America/New_York,434,NA,US,36.97,-78.7,540,
23963,STANDARD,0,Red House,,,VA,Charlotte County,America/New_York,434,NA,US,37.18,-78.8,450,
23964,STANDARD,0,Red Oak,,,VA,Charlotte County,America/New_York,434,NA,US,36.76,-78.63,900,
23966,STANDARD,0,Rice,,,VA,Prince Edward County,America/New_York,434,NA,US,37.27,-78.29,1930,
23967,STANDARD,0,Saxe,,,VA,Charlotte County,America/New_York,434,NA,US,36.93,-78.66,880,
23968,STANDARD,0,Skipwith,,,VA,Mecklenburg County,America/New_York,434,NA,US,36.69,-78.49,820,
23970,STANDARD,0,South Hill,,Southill -  Union Level,VA,Mecklenburg County,America/New_York,434,NA,US,36.72,-78.12,7030,
23974,STANDARD,0,Victoria,,,VA,Lunenburg County,America/New_York,434,NA,US,36.99,-78.22,3120,
23976,STANDARD,0,Wylliesburg,,,VA,Charlotte County,America/New_York,434,NA,US,36.85,-78.58,240,
24001,PO BOX,0,Roanoke,,,VA,Roanoke City,America/New_York,540,NA,US,37.27,-79.95,43,
24002,PO BOX,0,Roanoke,,,VA,Roanoke City,America/New_York,540,NA,US,37.27,-79.95,22,
24003,PO BOX,0,Roanoke,,,VA,Roanoke City,America/New_York,540,NA,US,37.27,-79.95,0,
24004,PO BOX,0,Roanoke,,,VA,Roanoke City,America/New_York,540,NA,US,37.27,-79.95,0,
24005,PO BOX,0,Roanoke,,,VA,Roanoke City,America/New_York,540,NA,US,37.27,-79.95,0,
24006,PO BOX,0,Roanoke,,,VA,Roanoke City,America/New_York,540,NA,US,37.27,-79.95,0,
24007,PO BOX,0,Roanoke,,,VA,Roanoke City,America/New_York,540,NA,US,37.27,-79.95,23,
24008,PO BOX,0,Roanoke,,,VA,Roanoke City,America/New_York,540,NA,US,37.27,-79.95,66,
24009,PO BOX,0,Roanoke,,,VA,Roanoke City,America/New_York,540,NA,US,37.27,-79.95,47,
24010,PO BOX,0,Roanoke,,,VA,Roanoke City,America/New_York,540,NA,US,37.27,-79.95,62,
24011,STANDARD,0,Roanoke,,,VA,Roanoke City,America/New_York,540,NA,US,37.27,-79.95,490,
24012,STANDARD,0,Roanoke,,Bonsack,VA,Roanoke City,America/New_York,540,NA,US,37.27,-79.95,26240,
24013,STANDARD,0,Roanoke,,,VA,Roanoke City,America/New_York,540,NA,US,37.27,-79.95,6170,
24014,STANDARD,0,Roanoke,,Garden City -  South Roanoke,VA,Roanoke City,America/New_York,540,NA,US,37.27,-79.95,14780,
24015,STANDARD,0,Roanoke,,Grandin Road,VA,Roanoke City,America/New_York,540,NA,US,37.27,-79.95,13940,
24016,STANDARD,0,Roanoke,,,VA,Roanoke City,America/New_York,540,NA,US,37.27,-79.95,6470,
24017,STANDARD,0,Roanoke,,Melrose,VA,Roanoke City,America/New_York,540,NA,US,37.27,-79.95,19600,
24018,STANDARD,0,Roanoke,Cave Spring,Poages Mill,VA,Roanoke County,America/New_York,540,NA,US,37.27,-79.95,36060,
24019,STANDARD,0,Roanoke,Hollins -  Hollins Clg,,VA,Roanoke County,America/New_York,540,NA,US,37.27,-79.95,25580,
24020,PO BOX,0,Roanoke,Hollins Clg -  Hollins College,,VA,Roanoke City,America/New_York,540,NA,US,37.27,-79.95,87,
24022,PO BOX,0,Roanoke,,,VA,Roanoke City,America/New_York,540,NA,US,37.27,-79.95,178,
24023,PO BOX,0,Roanoke,,,VA,Roanoke City,America/New_York,540,NA,US,37.27,-79.95,21,
24024,PO BOX,0,Roanoke,,,VA,Roanoke City,America/New_York,540,NA,US,37.27,-79.95,21,
24025,PO BOX,0,Roanoke,,,VA,Roanoke City,America/New_York,540,NA,US,37.27,-79.95,26,
24026,PO BOX,0,Roanoke,,,VA,Roanoke City,America/New_York,540,NA,US,37.27,-79.95,0,
24027,PO BOX,0,Roanoke,,,VA,Roanoke City,America/New_York,540,NA,US,37.27,-79.95,19,
24028,PO BOX,0,Roanoke,,,VA,Roanoke City,America/New_York,540,NA,US,37.27,-79.95,25,
24029,PO BOX,0,Roanoke,,,VA,Roanoke City,America/New_York,540,NA,US,37.27,-79.95,10,
24030,PO BOX,0,Roanoke,,,VA,Roanoke City,America/New_York,540,NA,US,37.27,-79.95,22,
24031,PO BOX,0,Roanoke,,,VA,Roanoke City,America/New_York,540,NA,US,37.27,-79.95,23,
24032,PO BOX,0,Roanoke,,,VA,Roanoke City,America/New_York,540,NA,US,37.27,-79.95,19,
24033,PO BOX,0,Roanoke,,,VA,Roanoke City,America/New_York,540,NA,US,37.27,-79.95,20,
24034,PO BOX,0,Roanoke,,,VA,Roanoke City,America/New_York,540,NA,US,37.27,-79.95,0,
24035,PO BOX,0,Roanoke,,,VA,Roanoke City,America/New_York,540,NA,US,37.27,-79.95,18,
24036,PO BOX,0,Roanoke,,,VA,Roanoke City,America/New_York,540,NA,US,37.27,-79.95,21,
24037,PO BOX,0,Roanoke,,,VA,Roanoke City,America/New_York,540,NA,US,37.27,-79.95,20,
24038,PO BOX,0,Roanoke,,,VA,Roanoke City,America/New_York,540,NA,US,37.27,-79.95,113,
24040,UNIQUE,0,Roanoke,,Wachovia,VA,Roanoke City,America/New_York,540,NA,US,37.27,-79.95,0,
24042,UNIQUE,0,Roanoke,,Norfolk Southern,VA,Roanoke City,America/New_York,540,NA,US,37.27,-79.95,0,
24043,UNIQUE,0,Roanoke,,Norfolk Southern Rwy,VA,Roanoke City,America/New_York,540,NA,US,37.27,-79.95,0,
24044,UNIQUE,1,Roanoke,,Appalachian Pwr,VA,Roanoke City,America/New_York,540,NA,US,37.27,-79.94,0,
24045,UNIQUE,1,Roanoke,,Blue Cross Blue Shield,VA,Roanoke City,America/New_York,540,NA,US,37.27,-79.94,0,
24048,UNIQUE,1,Roanoke,,Allstate Ins Co,VA,Roanoke City,America/New_York,540,NA,US,37.27,-79.94,0,
24050,UNIQUE,0,Roanoke,,Hanover Direct,VA,Roanoke City,America/New_York,540,NA,US,37.27,-79.95,0,
24053,STANDARD,0,Ararat,,,VA,Patrick County,America/New_York,276,NA,US,36.6,-80.51,1870,
24054,STANDARD,0,Axton,,,VA,Henry County,America/New_York,276,NA,US,36.66,-79.71,5600,
24055,STANDARD,0,Bassett,,Bassett Forks -  Oaklevel -  Philpott -  Sanville,VA,Henry County,America/New_York,276,NA,US,36.76,-79.98,9800,
24058,PO BOX,0,Belspring,,,VA,Pulaski County,America/New_York,540,NA,US,37.19,-80.61,303,
24059,STANDARD,0,Bent Mountain,,,VA,Roanoke County,America/New_York,540,NA,US,37.15,-80.11,880,
24060,STANDARD,0,Blacksburg,,,VA,Montgomery County,America/New_York,540,NA,US,37.23,-80.42,25800,
24061,UNIQUE,0,Blacksburg,,Virginia Tech,VA,Montgomery County,America/New_York,540,NA,US,37.23,-80.42,108,
24062,PO BOX,0,Blacksburg,,,VA,Montgomery County,America/New_York,540,NA,US,37.23,-80.42,499,
24063,PO BOX,0,Blacksburg,,,VA,Montgomery County,America/New_York,540,NA,US,37.23,-80.42,313,
24064,STANDARD,0,Blue Ridge,,,VA,Botetourt County,America/New_York,,NA,US,37.38,-79.82,4700,
24065,STANDARD,0,Boones Mill,,,VA,Franklin County,America/New_York,540,NA,US,37.11,-79.95,5490,
24066,STANDARD,0,Buchanan,Lithia,,VA,Botetourt County,America/New_York,540,NA,US,37.52,-79.68,4280,
24067,STANDARD,0,Callaway,,,VA,Franklin County,America/New_York,540,NA,US,37.01,-80.05,2030,
24068,PO BOX,0,Christiansburg,Christiansbrg,,VA,Montgomery County,America/New_York,540,NA,US,37.14,-80.4,980,
24069,STANDARD,0,Cascade,,Leakesville Junction,VA,Pittsylvania County,America/New_York,434,NA,US,36.56,-79.66,1700,
24070,STANDARD,0,Catawba,,,VA,Roanoke County,America/New_York,540,NA,US,37.38,-80.11,1320,
24072,STANDARD,0,Check,Simpsons,,VA,Floyd County,America/New_York,540,NA,US,37.05,-80.18,1130,
24073,STANDARD,0,Christiansburg,Christiansbrg,Cambria -  Christnsbrg -  Prices Fork,VA,Montgomery County,America/New_York,540,NA,US,37.14,-80.4,26270,
24076,STANDARD,0,Claudville,,,VA,Patrick County,America/New_York,276,NA,US,36.59,-80.42,850,
24077,STANDARD,0,Cloverdale,,,VA,Botetourt County,America/New_York,540,NA,US,37.35,-79.9,1060,
24078,STANDARD,0,Collinsville,,,VA,Henry County,America/New_York,276,NA,US,36.72,-79.91,6090,
24079,STANDARD,0,Copper Hill,,Kings Store,VA,Floyd County,America/New_York,540,NA,US,37.08,-80.13,1450,
24082,STANDARD,0,Critz,,,VA,Patrick County,America/New_York,276,NA,US,36.63,-80.15,400,
24083,STANDARD,0,Daleville,,,VA,Botetourt County,America/New_York,540,NA,US,37.41,-79.92,3520,
24084,STANDARD,0,Dublin,,,VA,Pulaski County,America/New_York,540,NA,US,37.1,-80.68,8810,
24085,STANDARD,0,Eagle Rock,,,VA,Botetourt County,America/New_York,540,NA,US,37.63,-79.8,1770,
24086,STANDARD,0,Eggleston,,,VA,Giles County,America/New_York,540,NA,US,37.28,-80.63,200,
24087,STANDARD,0,Elliston,Ironto -  Lafayette,,VA,Montgomery County,America/New_York,540,NA,US,37.21,-80.23,3270,
24088,STANDARD,0,Ferrum,Charity,Endicott,VA,Franklin County,America/New_York,540,NA,US,36.92,-80.02,3200,
24089,STANDARD,0,Fieldale,,,VA,Henry County,America/New_York,276,NA,US,36.7,-79.94,2130,
24090,STANDARD,0,Fincastle,,,VA,Botetourt County,America/New_York,540,NA,US,37.49,-79.87,4060,
24091,STANDARD,0,Floyd,Alum Ridge,,VA,Floyd County,America/New_York,540,NA,US,36.91,-80.31,6500,
24092,STANDARD,0,Glade Hill,,,VA,Franklin County,America/New_York,540,NA,US,37,-79.77,2580,
24093,STANDARD,0,Glen Lyn,,,VA,Giles County,America/New_York,540,NA,US,37.37,-80.85,184,
24095,STANDARD,0,Goodview,,,VA,Bedford County,America/New_York,540,NA,US,37.21,-79.71,3820,
24101,STANDARD,0,Hardy,,,VA,Franklin County,America/New_York,540,NA,US,37.18,-79.8,5600,
24102,STANDARD,0,Henry,,,VA,Franklin County,America/New_York,540,NA,US,36.83,-80,1200,
24104,STANDARD,0,Huddleston,,,VA,Bedford County,America/New_York,540,NA,US,37.16,-79.48,2930,
24105,STANDARD,0,Indian Valley,,,VA,Floyd County,America/New_York,540,NA,US,36.91,-80.55,430,
24111,PO BOX,0,Mc Coy,,,VA,Pulaski County,America/New_York,540,NA,US,37.23,-80.61,179,
24112,STANDARD,0,Martinsville,,,VA,Martinsville City,America/New_York,276,NA,US,36.68,-79.86,24600,
24113,PO BOX,0,Martinsville,,,VA,Martinsville City,America/New_York,276,NA,US,36.68,-79.86,143,
24114,PO BOX,0,Martinsville,,,VA,Martinsville City,America/New_York,276,NA,US,36.68,-79.86,473,
24115,PO BOX,0,Martinsville,,,VA,Martinsville City,America/New_York,276,NA,US,36.68,-79.86,1135,
24120,STANDARD,0,Meadows Of Dan,Meadows Dan,,VA,Patrick County,America/New_York,"276,540",NA,US,36.73,-80.41,1480,
24121,STANDARD,0,Moneta,,Scruggs,VA,Bedford County,America/New_York,540,NA,US,37.18,-79.63,9280,
24122,STANDARD,0,Montvale,,,VA,Bedford County,America/New_York,,NA,US,37.38,-79.73,1520,
24124,STANDARD,0,Narrows,,,VA,Giles County,America/New_York,540,NA,US,37.33,-80.8,3610,
24126,PO BOX,0,Newbern,,,VA,Pulaski County,America/New_York,540,NA,US,37.04,-80.68,373,
24127,STANDARD,0,New Castle,,,VA,Craig County,America/New_York,540,NA,US,37.5,-80.11,3540,
24128,STANDARD,0,Newport,,,VA,Giles County,America/New_York,540,NA,US,37.29,-80.49,1660,
24129,PO BOX,0,New River,,,VA,Pulaski County,America/New_York,540,NA,US,37.12,-80.57,151,
24130,STANDARD,0,Oriskany,,,VA,Botetourt County,America/New_York,540,NA,US,37.61,-79.98,0,
24131,STANDARD,0,Paint Bank,,,VA,Craig County,America/New_York,540,NA,US,37.56,-80.28,86,
24132,PO BOX,0,Parrott,,,VA,Pulaski County,America/New_York,540,NA,US,37.21,-80.63,399,
24133,STANDARD,0,Patrick Springs,Patrick Spgs,,VA,Patrick County,America/New_York,276,NA,US,36.67,-80.13,2150,
24134,STANDARD,0,Pearisburg,,,VA,Giles County,America/New_York,540,NA,US,37.32,-80.72,4920,
24136,STANDARD,0,Pembroke,,,VA,Giles County,America/New_York,540,NA,US,37.32,-80.63,2860,
24137,STANDARD,0,Penhook,,,VA,Franklin County,America/New_York,540,NA,US,36.98,-79.63,2180,
24138,STANDARD,0,Pilot,,,VA,Montgomery County,America/New_York,540,NA,US,37.05,-80.36,1340,
24139,STANDARD,0,Pittsville,,,VA,Pittsylvania County,America/New_York,,NA,US,36.98,-79.46,500,
24141,STANDARD,0,Radford,Fairlawn,,VA,Radford City,America/New_York,540,NA,US,37.12,-80.55,13690,
24142,PO BOX,0,Radford,,,VA,Radford City,America/New_York,540,NA,US,37.12,-80.55,53,
24143,PO BOX,0,Radford,,,VA,Radford City,America/New_York,540,NA,US,37.12,-80.55,769,
24146,PO BOX,0,Redwood,,,VA,Franklin County,America/New_York,540,NA,US,37.01,-79.79,60,
24147,STANDARD,0,Rich Creek,,,VA,Giles County,America/New_York,540,NA,US,37.38,-80.82,780,
24148,STANDARD,0,Ridgeway,,,VA,Henry County,America/New_York,276,NA,US,36.57,-79.85,6570,
24149,STANDARD,0,Riner,,Fairview,VA,Montgomery County,America/New_York,540,NA,US,37.02,-80.43,3290,
24150,STANDARD,0,Ripplemead,Goldbond,Kimballton,VA,Giles County,America/New_York,540,NA,US,37.38,-80.63,560,
24151,STANDARD,0,Rocky Mount,,Franklin Heights,VA,Franklin County,America/New_York,540,NA,US,36.99,-79.89,16350,
24153,STANDARD,0,Salem,,Bennett Springs -  Fort Lewis -  Glenvar -  Hanging Rock -  Kesslers Mill -  Mason Cove,VA,Salem City,America/New_York,540,NA,US,37.28,-80.05,32760,
24155,UNIQUE,0,Roanoke,,Home Shopping Network,VA,Roanoke City,America/New_York,540,NA,US,37.29,-80.06,0,
24157,UNIQUE,0,Roanoke,,Home Shopping Network -  Salem,VA,Roanoke City,America/New_York,540,NA,US,37.28,-80.05,0,
24161,STANDARD,0,Sandy Level,,,VA,Pittsylvania County,America/New_York,434,NA,US,37,-79.55,280,
24162,STANDARD,0,Shawsville,,Allegany Spring,VA,Montgomery County,America/New_York,540,NA,US,37.16,-80.24,2000,
24165,STANDARD,0,Spencer,,,VA,Henry County,America/New_York,276,NA,US,36.61,-80.01,1520,
24167,STANDARD,0,Staffordsville,Staffordsvlle,,VA,Giles County,America/New_York,540,NA,US,37.24,-80.76,290,
24168,STANDARD,0,Stanleytown,,,VA,Henry County,America/New_York,276,NA,US,36.75,-79.95,740,
24171,STANDARD,0,Stuart,,,VA,Patrick County,America/New_York,276,NA,US,36.64,-80.27,6310,
24174,STANDARD,0,Thaxton,,,VA,Bedford County,America/New_York,540,NA,US,37.35,-79.63,2000,
24175,STANDARD,0,Troutville,,Haymakertown,VA,Botetourt County,America/New_York,540,NA,US,37.41,-79.87,7580,
24176,STANDARD,0,Union Hall,,,VA,Franklin County,America/New_York,540,NA,US,37,-79.68,1200,
24177,PO BOX,0,Vesta,,,VA,Patrick County,America/New_York,276,NA,US,36.72,-80.39,92,
24178,PO BOX,0,Villamont,,,VA,Bedford County,America/New_York,,NA,US,37.39,-79.74,0,
24179,STANDARD,0,Vinton,,,VA,Roanoke County,America/New_York,540,NA,US,37.27,-79.88,16770,
24184,STANDARD,0,Wirtz,Burnt Chimney,,VA,Franklin County,America/New_York,540,NA,US,37.08,-79.9,4020,
24185,STANDARD,0,Woolwine,,,VA,Patrick County,America/New_York,"540,276",NA,US,36.78,-80.28,750,
24201,STANDARD,0,Bristol,,,VA,Bristol City,America/New_York,276,NA,US,36.61,-82.16,12050,
24202,STANDARD,0,Bristol,,,VA,Washington County,America/New_York,276,NA,US,36.61,-82.16,10630,
24203,PO BOX,0,Bristol,,,VA,Bristol City,America/New_York,276,NA,US,36.61,-82.16,257,
24205,UNIQUE,0,Bristol,,Bristol Merchandise Return,VA,Bristol City,America/New_York,276,NA,US,36.59,-82.18,0,
24209,PO BOX,0,Bristol,,,VA,Bristol City,America/New_York,276,NA,US,36.61,-82.16,492,
24210,STANDARD,0,Abingdon,,Osceola,VA,Washington County,America/New_York,276,NA,US,36.7,-81.96,12360,
24211,STANDARD,0,Abingdon,,,VA,Washington County,America/New_York,276,NA,US,36.7,-81.96,8010,
24212,PO BOX,0,Abingdon,,,VA,Washington County,America/New_York,276,NA,US,36.7,-81.96,1732,
24215,PO BOX,0,Andover,,,VA,Wise County,America/New_York,276,NA,US,36.94,-82.78,111,
24216,STANDARD,0,Appalachia,Exeter -  Stonega,,VA,Wise County,America/New_York,276,NA,US,36.9,-82.78,1790,
24217,STANDARD,0,Bee,,,VA,Dickenson County,America/New_York,,NA,US,37.08,-82.19,254,
24218,PO BOX,0,Ben Hur,,,VA,Lee County,America/New_York,276,NA,US,36.73,-83.08,296,
24219,STANDARD,0,Big Stone Gap,,,VA,Wise County,America/New_York,276,NA,US,36.86,-82.77,7440,
24220,STANDARD,0,Birchleaf,,,VA,Dickenson County,America/New_York,276,NA,US,37.15,-82.23,520,
24221,STANDARD,0,Blackwater,,,VA,Lee County,America/New_York,,NA,US,36.62,-83.05,570,
24224,STANDARD,0,Castlewood,,Dickensonville,VA,Russell County,America/New_York,276,NA,US,36.87,-82.28,4060,
24225,STANDARD,0,Cleveland,,,VA,Russell County,America/New_York,276,NA,US,36.94,-82.15,1140,
24226,STANDARD,0,Clinchco,,,VA,Dickenson County,America/New_York,276,NA,US,37.12,-82.33,1070,
24228,STANDARD,0,Clintwood,,Honeycamp,VA,Dickenson County,America/New_York,276,NA,US,37.15,-82.45,4990,
24230,STANDARD,0,Coeburn,,,VA,Wise County,America/New_York,276,NA,US,36.94,-82.46,6220,
24236,STANDARD,0,Damascus,,,VA,Washington County,America/New_York,276,NA,US,36.63,-81.78,2290,
24237,STANDARD,0,Dante,Trammel,,VA,Dickenson County,America/New_York,276,NA,US,36.98,-82.29,760,
24239,STANDARD,0,Davenport,,,VA,Buchanan County,America/New_York,276,NA,US,37.1,-82.13,320,
24243,STANDARD,0,Dryden,,,VA,Lee County,America/New_York,276,NA,US,36.77,-82.94,1680,
24244,STANDARD,0,Duffield,Clinchport,,VA,Scott County,America/New_York,276,NA,US,36.71,-82.79,3720,
24245,STANDARD,0,Dungannon,,,VA,Scott County,America/New_York,276,NA,US,36.82,-82.46,740,
24246,PO BOX,0,East Stone Gap,E Stone Gap,,VA,Wise County,America/New_York,276,NA,US,36.86,-82.72,588,
24248,STANDARD,0,Ewing,,Willow Tree,VA,Lee County,America/New_York,276,NA,US,36.63,-83.43,1770,
24250,STANDARD,0,Fort Blackmore,Ft Blackmore,,VA,Scott County,America/New_York,276,NA,US,36.77,-82.58,830,
24251,STANDARD,0,Gate City,,Snowflake,VA,Scott County,America/New_York,276,NA,US,36.63,-82.58,7010,
24256,STANDARD,0,Haysi,,,VA,Dickenson County,America/New_York,276,NA,US,37.2,-82.29,2240,
24258,STANDARD,0,Hiltons,,,VA,Scott County,America/New_York,276,NA,US,36.65,-82.46,1090,
24260,STANDARD,0,Honaker,Council -  Elk Garden -  Venia,Putnam,VA,Russell County,America/New_York,276,NA,US,37.01,-81.97,4000,
24263,STANDARD,0,Jonesville,,,VA,Lee County,America/New_York,276,NA,US,36.68,-83.11,4540,
24265,STANDARD,0,Keokee,,,VA,Lee County,America/New_York,276,NA,US,36.86,-82.9,500,
24266,STANDARD,0,Lebanon,,Barnett -  Bolton -  Carterton -  Hansonville,VA,Russell County,America/New_York,276,NA,US,36.89,-82.07,7670,
24269,STANDARD,0,Mc Clure,,Mcclure,VA,Dickenson County,America/New_York,276,NA,US,37.08,-82.38,141,
24270,STANDARD,0,Mendota,,,VA,Washington County,America/New_York,,NA,US,36.72,-82.25,420,
24271,STANDARD,0,Nickelsville,,,VA,Scott County,America/New_York,276,NA,US,36.75,-82.41,1940,
24272,STANDARD,0,Nora,,,VA,Dickenson County,America/New_York,276,NA,US,37.02,-82.34,350,
24273,STANDARD,0,Norton,,Esserville,VA,Norton City,America/New_York,276,NA,US,36.93,-82.62,4500,
24277,STANDARD,0,Pennington Gap,Penningtn Gap,Pennington,VA,Lee County,America/New_York,276,NA,US,36.75,-83.02,3620,
24279,STANDARD,0,Pound,,,VA,Wise County,America/New_York,276,NA,US,37.12,-82.6,3350,
24280,STANDARD,0,Rosedale,,,VA,Russell County,America/New_York,276,NA,US,36.95,-81.93,910,
24281,STANDARD,0,Rose Hill,,,VA,Lee County,America/New_York,276,NA,US,36.67,-83.36,1660,
24282,STANDARD,0,Saint Charles,,,VA,Lee County,America/New_York,276,NA,US,36.8,-83.05,460,
24283,STANDARD,0,Saint Paul,,,VA,Wise County,America/New_York,276,NA,US,36.9,-82.31,1960,
24290,STANDARD,0,Weber City,,,VA,Scott County,America/New_York,276,NA,US,36.62,-82.56,1180,
24292,STANDARD,0,Whitetop,,,VA,Grayson County,America/New_York,276,NA,US,36.6,-81.61,320,
24293,STANDARD,0,Wise,,,VA,Wise County,America/New_York,276,NA,US,36.97,-82.58,8020,
24301,STANDARD,0,Pulaski,,Snowville,VA,Pulaski County,America/New_York,540,NA,US,37.05,-80.76,10790,
24311,STANDARD,0,Atkins,,,VA,Smyth County,America/New_York,276,NA,US,36.86,-81.39,1570,
24312,STANDARD,0,Austinville,,,VA,Carroll County,America/New_York,276,NA,US,36.82,-80.86,1760,
24313,STANDARD,0,Barren Springs,Barren Spgs,,VA,Wythe County,America/New_York,276,NA,US,36.91,-80.8,810,
24314,STANDARD,0,Bastian,,Clearfork -  Cove Creek -  Grapefield -  Hicksville,VA,Bland County,America/New_York,,NA,US,37.15,-81.15,1150,
24315,STANDARD,0,Bland,,Bland Correct -  Bland Correctional Farm,VA,Bland County,America/New_York,276,NA,US,37.1,-81.11,2500,
24316,STANDARD,0,Broadford,,,VA,Tazewell County,America/New_York,276,NA,US,36.91,-81.66,75,
24317,STANDARD,0,Cana,,,VA,Carroll County,America/New_York,276,NA,US,36.58,-80.66,2720,
24318,STANDARD,0,Ceres,,Nebo,VA,Bland County,America/New_York,276,NA,US,37.01,-81.35,500,
24319,STANDARD,0,Chilhowie,,,VA,Smyth County,America/New_York,276,NA,US,36.8,-81.68,6010,
24322,STANDARD,0,Cripple Creek,,,VA,Wythe County,America/New_York,276,NA,US,36.81,-81.1,166,
24323,STANDARD,0,Crockett,,,VA,Wythe County,America/New_York,276,NA,US,36.88,-81.18,590,
24324,STANDARD,0,Draper,,,VA,Pulaski County,America/New_York,,NA,US,37,-80.76,1760,
24325,STANDARD,0,Dugspur,,,VA,Carroll County,America/New_York,276,NA,US,36.81,-80.61,720,
24326,STANDARD,0,Elk Creek,,Comers Rock,VA,Grayson County,America/New_York,276,NA,US,36.71,-81.18,870,
24327,PO BOX,0,Emory,,,VA,Washington County,America/New_York,276,NA,US,36.75,-81.83,448,
24328,STANDARD,0,Fancy Gap,,,VA,Carroll County,America/New_York,276,NA,US,36.66,-80.7,1430,
24330,STANDARD,0,Fries,,Stevens Creek,VA,Grayson County,America/New_York,276,NA,US,36.71,-80.97,2450,
24333,STANDARD,0,Galax,,Dalhart -  Meadowcreek,VA,Galax City,America/New_York,276,NA,US,36.66,-80.91,14820,
24340,STANDARD,0,Glade Spring,,,VA,Washington County,America/New_York,276,NA,US,36.79,-81.77,4480,
24343,STANDARD,0,Hillsville,,Littlevine -  Richardson,VA,Carroll County,America/New_York,276,NA,US,36.76,-80.73,7320,
24347,STANDARD,0,Hiwassee,Allisonia,,VA,Pulaski County,America/New_York,540,NA,US,36.97,-80.64,1410,
24348,STANDARD,0,Independence,,,VA,Grayson County,America/New_York,276,NA,US,36.61,-81.15,3090,
24350,STANDARD,0,Ivanhoe,,,VA,Wythe County,America/New_York,,NA,US,36.83,-80.95,990,
24351,STANDARD,0,Lambsburg,,,VA,Carroll County,America/New_York,276,NA,US,36.58,-80.76,430,
24352,STANDARD,0,Laurel Fork,,,VA,Carroll County,America/New_York,"540,276",NA,US,36.71,-80.51,770,
24354,STANDARD,0,Marion,Seven Mile Fd -  Seven Mile Ford,Stony Battery -  The Cedars -  Thomas Bridge,VA,Smyth County,America/New_York,276,NA,US,36.83,-81.51,11450,
24360,STANDARD,0,Max Meadows,Fort Chiswell -  Foster Falls,,VA,Wythe County,America/New_York,276,NA,US,36.96,-80.93,4950,
24361,STANDARD,0,Meadowview,Clinchburg,,VA,Washington County,America/New_York,276,NA,US,36.76,-81.85,3870,
24363,STANDARD,0,Mouth Of Wilson,Mouth Wilson -  Volney,,VA,Grayson County,America/New_York,276,NA,US,36.58,-81.33,1040,
24366,STANDARD,0,Rocky Gap,,,VA,Bland County,America/New_York,276,NA,US,37.23,-81.1,830,
24368,STANDARD,0,Rural Retreat,,Grosclose,VA,Wythe County,America/New_York,276,NA,US,36.89,-81.27,4310,
24370,STANDARD,0,Saltville,,,VA,Smyth County,America/New_York,276,NA,US,36.87,-81.76,4660,
24374,STANDARD,0,Speedwell,,,VA,Wythe County,America/New_York,276,NA,US,36.81,-81.16,540,
24375,STANDARD,0,Sugar Grove,,,VA,Smyth County,America/New_York,276,NA,US,36.76,-81.4,1250,
24377,STANDARD,0,Tannersville,,,VA,Tazewell County,America/New_York,276,NA,US,36.97,-81.64,210,
24378,STANDARD,0,Troutdale,,Trout Dale,VA,Grayson County,America/New_York,276,NA,US,36.7,-81.43,820,
24380,STANDARD,0,Willis,,,VA,Floyd County,America/New_York,540,NA,US,36.85,-80.48,2250,
24381,STANDARD,0,Woodlawn,,,VA,Carroll County,America/New_York,276,NA,US,36.71,-80.81,3230,
24382,STANDARD,0,Wytheville,,Stones Mill,VA,Wythe County,America/New_York,276,NA,US,36.95,-81.08,11830,
24401,STANDARD,0,Staunton,,Staunton Park -  Western State Hospital,VA,Staunton City,America/New_York,540,NA,US,38.15,-79.06,30670,
24402,PO BOX,0,Staunton,,,VA,Staunton City,America/New_York,540,NA,US,38.15,-79.06,1013,
24411,PO BOX,0,Augusta Springs,Augusta Sprgs,Augusta Spgs,VA,Augusta County,America/New_York,540,NA,US,38.1,-79.33,145,
24412,PO BOX,0,Bacova,,,VA,Bath County,America/New_York,540,NA,US,38.01,-79.9,87,
24413,STANDARD,0,Blue Grass,,,VA,Highland County,America/New_York,540,NA,US,38.53,-79.6,220,
24415,PO BOX,0,Brownsburg,,,VA,Rockbridge County,America/New_York,540,NA,US,37.93,-79.31,92,
24416,STANDARD,0,Buena Vista,,,VA,Buena Vista City,America/New_York,"434,540",NA,US,37.73,-79.35,7080,
24421,STANDARD,0,Churchville,,,VA,Augusta County,America/New_York,540,NA,US,38.22,-79.16,3330,
24422,STANDARD,0,Clifton Forge,,,VA,Alleghany County,America/New_York,540,NA,US,37.82,-79.82,4910,
24426,STANDARD,0,Covington,Alleghany -  Jordan Mines,Camp Appalachia -  Cmp Appalchia,VA,Alleghany County,America/New_York,540,NA,US,37.77,-79.99,12100,
24430,STANDARD,0,Craigsville,,,VA,Augusta County,America/New_York,540,NA,US,38.08,-79.38,1300,
24431,STANDARD,0,Crimora,,,VA,Augusta County,America/New_York,540,NA,US,38.16,-78.83,2410,
24432,STANDARD,0,Deerfield,,,VA,Augusta County,America/New_York,540,NA,US,38.19,-79.4,310,
24433,STANDARD,0,Doe Hill,,,VA,Highland County,America/New_York,540,NA,US,38.43,-79.44,141,
24435,STANDARD,0,Fairfield,,,VA,Rockbridge County,America/New_York,540,NA,US,37.88,-79.3,1660,
24437,STANDARD,0,Fort Defiance,,,VA,Augusta County,America/New_York,540,NA,US,38.21,-78.94,850,
24438,PO BOX,0,Glen Wilton,,,VA,Botetourt County,America/New_York,540,NA,US,37.75,-79.81,73,
24439,STANDARD,0,Goshen,,,VA,Rockbridge County,America/New_York,,NA,US,37.99,-79.5,900,
24440,STANDARD,0,Greenville,,,VA,Augusta County,America/New_York,540,NA,US,38,-79.15,2310,
24441,STANDARD,0,Grottoes,,,VA,Rockingham County,America/New_York,540,NA,US,38.26,-78.82,5440,
24442,STANDARD,0,Head Waters,,,VA,Highland County,America/New_York,540,NA,US,38.3,-79.42,83,
24445,STANDARD,0,Hot Springs,,Bacova Jnctn -  Bacova Junction -  Falling Spring -  Falling Sprng -  Healing Sprgs -  Healing Springs,VA,Bath County,America/New_York,540,NA,US,38,-79.83,2220,
24448,PO BOX,0,Iron Gate,,,VA,Alleghany County,America/New_York,540,NA,US,37.79,-79.79,466,
24450,STANDARD,0,Lexington,,East Lexington -  West Lexington,VA,Rockbridge County,America/New_York,540,NA,US,37.78,-79.44,12090,
24457,PO BOX,0,Low Moor,,Lowmoor,VA,Alleghany County,America/New_York,540,NA,US,37.74,-79.9,315,
24458,STANDARD,0,Mc Dowell,,Mcdowell,VA,Highland County,America/New_York,540,NA,US,38.3,-79.52,290,
24459,STANDARD,0,Middlebrook,,,VA,Augusta County,America/New_York,540,NA,US,38.02,-79.28,720,
24460,STANDARD,0,Millboro,,Milboro Sprgs -  Millboro Springs,VA,Bath County,America/New_York,540,NA,US,37.96,-79.6,1280,
24463,PO BOX,0,Mint Spring,,,VA,Augusta County,America/New_York,540,NA,US,38.07,-79.1,120,
24464,STANDARD,0,Montebello,,,VA,Nelson County,America/New_York,434,NA,US,37.86,-79.13,110,
24465,STANDARD,0,Monterey,Hightown,Mill Gap,VA,Highland County,America/New_York,540,NA,US,38.41,-79.58,1040,
24467,STANDARD,0,Mount Sidney,,,VA,Augusta County,America/New_York,540,NA,US,38.26,-78.97,2070,
24468,STANDARD,0,Mustoe,,,VA,Highland County,America/New_York,540,NA,US,38.32,-79.64,0,
24469,PO BOX,0,New Hope,,,VA,Augusta County,America/New_York,540,NA,US,38.19,-78.9,223,
24471,STANDARD,0,Port Republic,,Pt Republic,VA,Rockingham County,America/New_York,540,NA,US,38.32,-78.81,1370,
24472,STANDARD,0,Raphine,,,VA,Rockbridge County,America/New_York,540,NA,US,37.93,-79.23,1910,
24473,STANDARD,0,Rockbridge Baths,Rockbdge Bath,Rockbrg Baths,VA,Rockbridge County,America/New_York,540,NA,US,37.9,-79.41,750,
24474,PO BOX,0,Selma,,,VA,Alleghany County,America/New_York,540,NA,US,37.79,-79.87,424,
24476,STANDARD,0,Steeles Tavern,Spottswood -  Steeles Tavrn,,VA,Augusta County,America/New_York,540,NA,US,37.92,-79.2,360,
24477,STANDARD,0,Stuarts Draft,,,VA,Augusta County,America/New_York,540,NA,US,38.02,-79.02,9920,
24479,STANDARD,0,Swoope,,,VA,Augusta County,America/New_York,540,NA,US,38.14,-79.2,1360,
24482,STANDARD,0,Verona,,,VA,Augusta County,America/New_York,540,NA,US,38.19,-79,4020,
24483,STANDARD,0,Vesuvius,,,VA,Rockbridge County,America/New_York,,NA,US,37.9,-79.2,540,
24484,STANDARD,0,Warm Springs,Bolar,,VA,Bath County,America/New_York,540,NA,US,38.05,-79.78,690,
24485,STANDARD,0,West Augusta,,,VA,Augusta County,America/New_York,540,NA,US,38.27,-79.3,350,
24486,STANDARD,0,Weyers Cave,,Shenandoah Valley Airpot,VA,Augusta County,America/New_York,540,NA,US,38.28,-78.92,3570,
24487,STANDARD,0,Williamsville,Burnsville,,VA,Bath County,America/New_York,540,NA,US,38.19,-79.56,220,
24501,STANDARD,0,Lynchburg,,Miller Park,VA,Lynchburg City,America/New_York,434,NA,US,37.4,-79.19,20470,
24502,STANDARD,0,Lynchburg,Timberlake,Fort Hill,VA,Lynchburg City,America/New_York,434,NA,US,37.4,-79.19,32760,
24503,STANDARD,0,Lynchburg,,Rivermont,VA,Lynchburg City,America/New_York,434,NA,US,37.4,-79.19,17680,
24504,STANDARD,0,Lynchburg,,,VA,Lynchburg City,America/New_York,434,NA,US,37.4,-79.19,7190,
24505,PO BOX,0,Lynchburg,,,VA,Lynchburg City,America/New_York,434,NA,US,37.4,-79.19,558,
24506,PO BOX,0,Lynchburg,,,VA,Lynchburg City,America/New_York,434,NA,US,37.4,-79.19,705,
24512,UNIQUE,1,Lynchburg,Clifford And Wills,,VA,Lynchburg City,America/New_York,434,NA,US,37.45,-79.25,0,
24513,UNIQUE,0,Lynchburg,,J Crew,VA,Lynchburg City,America/New_York,434,NA,US,37.4,-79.19,0,
24514,UNIQUE,0,Lynchburg,,Thomas Road Bapt Church,VA,Lynchburg City,America/New_York,434,NA,US,37.4,-79.19,0,
24515,UNIQUE,0,Lynchburg,,Thomas Road Bapt Church,VA,Lynchburg City,America/New_York,434,NA,US,37.4,-79.19,0,
24517,STANDARD,0,Altavista,,,VA,Campbell County,America/New_York,434,NA,US,37.12,-79.28,4550,
24520,STANDARD,0,Alton,,,VA,Halifax County,America/New_York,434,NA,US,36.56,-79,1990,
24521,STANDARD,0,Amherst,,Falconerville,VA,Amherst County,America/New_York,434,NA,US,37.58,-79.05,8550,
24522,STANDARD,0,Appomattox,,,VA,Appomattox County,America/New_York,434,NA,US,37.35,-78.82,8660,
24523,STANDARD,0,Bedford,,,VA,Bedford City,America/New_York,540,NA,US,37.32,-79.52,16160,
24526,STANDARD,0,Big Island,,Snowden,VA,Bedford County,America/New_York,434,NA,US,37.53,-79.36,1250,
24527,STANDARD,0,Blairs,,,VA,Pittsylvania County,America/New_York,434,NA,US,36.68,-79.38,2650,
24528,STANDARD,0,Brookneal,,,VA,Campbell County,America/New_York,434,NA,US,37.05,-78.94,2670,
24529,STANDARD,0,Buffalo Junction,Buffalo Jct,,VA,Mecklenburg County,America/New_York,434,NA,US,36.6,-78.63,1430,
24530,STANDARD,0,Callands,,,VA,Pittsylvania County,America/New_York,434,NA,US,36.81,-79.58,850,
24531,STANDARD,0,Chatham,,,VA,Pittsylvania County,America/New_York,434,NA,US,36.81,-79.39,6910,
24533,PO BOX,0,Clifford,,,VA,Amherst County,America/New_York,434,NA,US,37.65,-79.03,88,
24534,STANDARD,0,Clover,,,VA,Halifax County,America/New_York,434,NA,US,36.83,-78.73,1320,
24535,PO BOX,0,Cluster Springs,Cluster Spgs,,VA,Halifax County,America/New_York,434,NA,US,36.61,-78.91,120,
24536,STANDARD,0,Coleman Falls,,,VA,Bedford County,America/New_York,,NA,US,37.5,-79.33,220,
24538,STANDARD,0,Concord,,,VA,Appomattox County,America/New_York,434,NA,US,37.35,-78.98,4230,
24539,STANDARD,0,Crystal Hill,,,VA,Halifax County,America/New_York,434,NA,US,36.85,-78.9,212,
24540,STANDARD,0,Danville,,,VA,Danville City,America/New_York,434,NA,US,36.58,-79.4,26610,
24541,STANDARD,0,Danville,,Schoolfield,VA,Danville City,America/New_York,434,NA,US,36.58,-79.4,22350,
24543,PO BOX,0,Danville,,,VA,Danville City,America/New_York,434,NA,US,36.58,-79.4,931,
24544,UNIQUE,1,Danville,Manufactures Hanover,,VA,Danville City,America/New_York,434,NA,US,36.58,-79.39,0,
24549,STANDARD,0,Dry Fork,,,VA,Pittsylvania County,America/New_York,434,NA,US,36.75,-79.41,3730,
24550,STANDARD,0,Evington,,,VA,Campbell County,America/New_York,434,NA,US,37.23,-79.28,6720,
24551,STANDARD,0,Forest,,,VA,Bedford County,America/New_York,,NA,US,37.37,-79.27,22310,
24553,STANDARD,0,Gladstone,,,VA,Amherst County,America/New_York,434,NA,US,37.54,-78.84,1560,
24554,STANDARD,0,Gladys,,,VA,Campbell County,America/New_York,434,NA,US,37.16,-79.08,3200,
24555,STANDARD,0,Glasgow,,,VA,Rockbridge County,America/New_York,540,NA,US,37.63,-79.45,1730,
24556,STANDARD,0,Goode,,,VA,Bedford County,America/New_York,,NA,US,37.36,-79.38,2930,
24557,STANDARD,0,Gretna,,,VA,Pittsylvania County,America/New_York,434,NA,US,36.95,-79.36,6170,
24558,STANDARD,0,Halifax,,,VA,Halifax County,America/New_York,434,NA,US,36.76,-78.93,5450,
24562,STANDARD,0,Howardsville,Scottsville,,VA,Nelson County,America/New_York,434,NA,US,37.73,-78.64,410,
24563,STANDARD,0,Hurt,,,VA,Pittsylvania County,America/New_York,434,NA,US,37.09,-79.29,4520,
24565,STANDARD,0,Java,,,VA,Pittsylvania County,America/New_York,,NA,US,36.83,-79.23,1070,
24566,STANDARD,0,Keeling,,,VA,Pittsylvania County,America/New_York,434,NA,US,36.71,-79.3,1240,
24569,STANDARD,0,Long Island,,,VA,Pittsylvania County,America/New_York,434,NA,US,37.08,-79.1,810,
24570,STANDARD,0,Lowry,,,VA,Bedford County,America/New_York,,NA,US,37.34,-79.45,72,
24571,STANDARD,0,Lynch Station,,,VA,Campbell County,America/New_York,,NA,US,37.14,-79.36,1620,
24572,STANDARD,0,Madison Heights,Madison Hts,Wrights Shop,VA,Amherst County,America/New_York,434,NA,US,37.43,-79.1,14300,
24574,STANDARD,0,Monroe,,,VA,Amherst County,America/New_York,434,NA,US,37.6,-79.24,3360,
24576,PO BOX,0,Naruna,,,VA,Campbell County,America/New_York,434,NA,US,37.13,-78.95,182,
24577,STANDARD,0,Nathalie,Lennig -  Republican Grove -  Republicn Grv,,VA,Halifax County,America/New_York,434,NA,US,36.93,-78.95,4060,
24578,STANDARD,0,Natural Bridge,Natural Brg,,VA,Rockbridge County,America/New_York,540,NA,US,37.63,-79.55,890,
24579,STANDARD,0,Natural Bridge Station,Naturl Br Sta,,VA,Rockbridge County,America/New_York,540,NA,US,37.58,-79.5,1180,
24580,STANDARD,0,Nelson,,,VA,Mecklenburg County,America/New_York,434,NA,US,36.55,-78.67,490,
24581,STANDARD,0,Norwood,,,VA,Nelson County,America/New_York,434,NA,US,37.64,-78.8,0,
24586,STANDARD,0,Ringgold,,,VA,Pittsylvania County,America/New_York,434,NA,US,36.6,-79.3,4810,
24588,STANDARD,0,Rustburg,,,VA,Campbell County,America/New_York,434,NA,US,37.28,-79.1,8410,
24589,STANDARD,0,Scottsburg,,,VA,Halifax County,America/New_York,434,NA,US,36.75,-78.79,1740,
24590,STANDARD,0,Scottsville,,,VA,Fluvanna County,America/New_York,434,NA,US,37.79,-78.49,6710,
24592,STANDARD,0,South Boston,Turbeville,,VA,Halifax County,America/New_York,434,NA,US,36.7,-78.9,11400,
24593,STANDARD,0,Spout Spring,,,VA,Appomattox County,America/New_York,434,NA,US,37.35,-78.91,1810,
24594,STANDARD,0,Sutherlin,,,VA,Halifax County,America/New_York,434,NA,US,36.62,-79.18,1480,
24595,PO BOX,0,Sweet Briar,,,VA,Amherst County,America/New_York,434,NA,US,37.56,-79.05,188,
24597,STANDARD,0,Vernon Hill,Ingram,,VA,Halifax County,America/New_York,,NA,US,36.79,-79.12,1050,
24598,STANDARD,0,Virgilina,,,VA,Halifax County,America/New_York,434,NA,US,36.54,-78.77,1530,
24599,STANDARD,0,Wingina,,,VA,Nelson County,America/New_York,,NA,US,37.64,-78.73,530,
24601,PO BOX,0,Amonate,,,VA,Tazewell County,America/New_York,276,NA,US,37.18,-81.65,50,
24602,STANDARD,0,Bandy,,,VA,Tazewell County,America/New_York,276,NA,US,37.14,-81.7,520,
24603,STANDARD,0,Big Rock,Conaway,,VA,Buchanan County,America/New_York,276,NA,US,37.31,-82.22,770,
24604,PO BOX,0,Bishop,,,VA,Tazewell County,America/New_York,276,NA,US,37.21,-81.53,204,
24605,STANDARD,0,Bluefield,Yards,,VA,Tazewell County,America/New_York,276,NA,US,37.23,-81.26,7190,
24606,PO BOX,0,Boissevain,,,VA,Tazewell County,America/New_York,276,NA,US,37.28,-81.38,322,
24607,PO BOX,0,Breaks,,,VA,Dickenson County,America/New_York,276,NA,US,37.29,-82.28,308,
24608,PO BOX,0,Burkes Garden,Tazewell,,VA,Tazewell County,America/New_York,276,NA,US,37.1,-81.35,24,
24609,STANDARD,0,Cedar Bluff,,Belfast Mills -  Indian -  Steeleburg -  Wardell,VA,Tazewell County,America/New_York,276,NA,US,37.08,-81.76,5270,
24612,PO BOX,0,Doran,,,VA,Tazewell County,America/New_York,276,NA,US,37.13,-81.81,877,
24613,STANDARD,0,Falls Mills,,,VA,Tazewell County,America/New_York,276,NA,US,37.26,-81.33,690,
24614,STANDARD,0,Grundy,,Royal City -  Stacy,VA,Buchanan County,America/New_York,276,NA,US,37.27,-82.1,5240,
24619,PO BOX,0,Horsepen,,,VA,McDowell County,America/New_York,,NA,US,37.23,-81.49,63,
24620,STANDARD,0,Hurley,,,VA,Buchanan County,America/New_York,276,NA,US,37.42,-82.02,1700,
24622,STANDARD,0,Jewell Ridge,Jewell Valley,,VA,Buchanan County,America/New_York,276,NA,US,37.18,-81.8,640,
24624,PO BOX,0,Keen Mountain,,,VA,Buchanan County,America/New_York,,NA,US,37.2,-81.95,232,
24627,PO BOX,0,Mavisdale,,,VA,Buchanan County,America/New_York,,NA,US,37.19,-82.21,386,
24628,STANDARD,0,Maxie,Harman,,VA,Buchanan County,America/New_York,276,NA,US,37.31,-82.19,430,
24630,STANDARD,0,North Tazewell,N Tazewell -  Tiptop,,VA,Tazewell County,America/New_York,276,NA,US,37.16,-81.5,5330,
24631,STANDARD,0,Oakwood,Patterson,,VA,Buchanan County,America/New_York,276,NA,US,37.21,-81.98,940,
24634,STANDARD,0,Pilgrims Knob,,,VA,Buchanan County,America/New_York,276,NA,US,37.29,-81.9,440,
24635,PO BOX,0,Pocahontas,,,VA,Tazewell County,America/New_York,276,NA,US,37.3,-81.34,544,
24637,STANDARD,0,Pounding Mill,,Paint Lick,VA,Tazewell County,America/New_York,276,NA,US,37.04,-81.73,3100,
24639,STANDARD,0,Raven,,,VA,Tazewell County,America/New_York,276,NA,US,37.16,-81.9,2190,
24640,PO BOX,0,Red Ash,,,VA,Tazewell County,America/New_York,276,NA,US,37.12,-81.87,46,
24641,STANDARD,0,Richlands,,,VA,Tazewell County,America/New_York,276,NA,US,37.09,-81.8,4200,
24646,STANDARD,0,Rowe,,,VA,Buchanan County,America/New_York,276,NA,US,37.12,-82.03,510,
24647,PO BOX,0,Shortt Gap,,,VA,Buchanan County,America/New_York,,NA,US,37.18,-81.84,62,
24649,STANDARD,0,Swords Creek,,Dye -  Lynn Spring,VA,Russell County,America/New_York,276,NA,US,37.08,-81.91,1540,
24651,STANDARD,0,Tazewell,,Gratton -  Maxwell,VA,Tazewell County,America/New_York,276,NA,US,37.12,-81.51,4600,
24656,STANDARD,0,Vansant,,,VA,Buchanan County,America/New_York,276,NA,US,37.23,-82.08,2480,
24657,STANDARD,0,Whitewood,,,VA,Buchanan County,America/New_York,276,NA,US,37.26,-81.88,271,
24658,PO BOX,0,Wolford,,,VA,Buchanan County,America/New_York,,NA,US,37.38,-81.99,224,
20588,UNIQUE,0,Dhs,Cheltenham -  Columbia,Dept Hs,MD,Howard County,America/New_York,410,NA,US,38.74,-76.85,0,
20601,STANDARD,0,Waldorf,,,MD,Charles County,America/New_York,"240,301",NA,US,38.64,-76.9,24090,
20602,STANDARD,0,Waldorf,Saint Charles,,MD,Charles County,America/New_York,"240,301",NA,US,38.64,-76.9,25090,
20603,STANDARD,0,Waldorf,Saint Charles,,MD,Charles County,America/New_York,"240,301",NA,US,38.64,-76.9,29630,
20604,PO BOX,0,Waldorf,Saint Charles,,MD,Charles County,America/New_York,240,NA,US,38.64,-76.9,1437,
20606,STANDARD,0,Abell,,,MD,St Mary's County,America/New_York,301,NA,US,38.25,-76.74,260,
20607,STANDARD,0,Accokeek,,,MD,Prince George's County,America/New_York,301,NA,US,38.67,-77.01,11050,
20608,STANDARD,0,Aquasco,Eagle Harbor,,MD,Prince George's County,America/New_York,240,NA,US,38.58,-76.7,720,
20609,STANDARD,0,Avenue,,,MD,St Mary's County,America/New_York,301,NA,US,38.27,-76.74,1010,
20610,PO BOX,0,Barstow,,,MD,Calvert County,America/New_York,410,NA,US,38.52,-76.6,233,
20611,STANDARD,0,Bel Alton,,,MD,Charles County,America/New_York,"240,301",NA,US,38.46,-76.98,1020,
20612,PO BOX,0,Benedict,,,MD,Charles County,America/New_York,240,NA,US,38.5,-76.68,319,
20613,STANDARD,0,Brandywine,,,MD,Prince George's County,America/New_York,"240,301",NA,US,38.69,-76.85,13600,
20615,STANDARD,0,Broomes Island,Broomes Is,,MD,Calvert County,America/New_York,410,NA,US,38.41,-76.54,380,
20616,STANDARD,0,Bryans Road,,Bryans Rd -  Marshall Hall,MD,Charles County,America/New_York,301,NA,US,38.63,-77.07,6170,
20617,STANDARD,0,Bryantown,,,MD,Charles County,America/New_York,240,NA,US,38.55,-76.84,910,
20618,STANDARD,0,Bushwood,,,MD,St Mary's County,America/New_York,301,NA,US,38.28,-76.78,660,
20619,STANDARD,0,California,,,MD,St Mary's County,America/New_York,301,NA,US,38.29,-76.49,11710,
20620,STANDARD,0,Callaway,,,MD,St Mary's County,America/New_York,"301,240",NA,US,38.23,-76.51,1340,
20621,STANDARD,0,Chaptico,Maddox,,MD,St Mary's County,America/New_York,301,NA,US,38.36,-76.78,1380,
20622,STANDARD,0,Charlotte Hall,Charlott Hall,,MD,Charles County,America/New_York,240,NA,US,38.47,-76.78,4400,
20623,STANDARD,0,Cheltenham,,,MD,Prince George's County,America/New_York,"240,301",NA,US,38.73,-76.82,2890,
20624,STANDARD,0,Clements,,,MD,St Mary's County,America/New_York,240,NA,US,38.32,-76.72,1140,
20625,PO BOX,0,Cobb Island,,,MD,Charles County,America/New_York,240,NA,US,38.33,-76.91,799,
20626,STANDARD,0,Coltons Point,,,MD,St Mary's County,America/New_York,240,NA,US,38.23,-76.76,320,
20627,PO BOX,0,Compton,,,MD,St. Mary's County,America/New_York,240,NA,US,38.3,-76.63,271,
20628,STANDARD,0,Dameron,,,MD,St Mary's County,America/New_York,240,NA,US,38.15,-76.36,610,
20629,PO BOX,0,Dowell,,,MD,Calvert County,America/New_York,410,NA,US,38.35,-76.44,409,
20630,STANDARD,0,Drayden,,,MD,St Mary's County,America/New_York,301,NA,US,38.17,-76.47,430,
20632,STANDARD,0,Faulkner,,,MD,Charles County,America/New_York,240,NA,US,38.43,-76.97,460,
20634,STANDARD,0,Great Mills,,,MD,St Mary's County,America/New_York,"240,301",NA,US,38.25,-76.49,7150,
20635,PO BOX,0,Helen,,,MD,St Mary's County,America/New_York,240,NA,US,38.41,-76.73,24,
20636,STANDARD,0,Hollywood,,,MD,St Mary's County,America/New_York,301,NA,US,38.34,-76.57,9960,
20637,STANDARD,0,Hughesville,,,MD,Charles County,America/New_York,"240,301",NA,US,38.53,-76.78,5480,
20639,STANDARD,0,Huntingtown,,,MD,Calvert County,America/New_York,"410,443",NA,US,38.61,-76.61,14830,
20640,STANDARD,0,Indian Head,Pisgah,,MD,Charles County,America/New_York,"240,301",NA,US,38.59,-77.15,9070,
20643,PO BOX,0,Ironsides,,,MD,Charles County,America/New_York,240,NA,US,38.49,-77.16,43,
20645,STANDARD,0,Issue,Swan Point,,MD,Charles County,America/New_York,"240,301",NA,US,38.3,-76.86,810,
20646,STANDARD,0,La Plata,Dentsville,Laplata,MD,Charles County,America/New_York,"240,301",NA,US,38.53,-76.97,18370,
20650,STANDARD,0,Leonardtown,,,MD,St Mary's County,America/New_York,"240,301",NA,US,38.29,-76.64,13060,
20653,STANDARD,0,Lexington Park,Lexington Pk,Lex Pk,MD,St Mary's County,America/New_York,"240,301",NA,US,38.26,-76.44,21450,
20656,STANDARD,0,Loveville,,,MD,St. Mary's County,America/New_York,301,NA,US,38.35,-76.67,519,
20657,STANDARD,0,Lusby,,,MD,Calvert County,America/New_York,410,NA,US,38.41,-76.45,18090,
20658,STANDARD,0,Marbury,Rison,,MD,Charles County,America/New_York,240,NA,US,38.55,-77.15,1010,
20659,STANDARD,0,Mechanicsville,Mechanicsvlle,,MD,St Mary's County,America/New_York,"240,301",NA,US,38.43,-76.73,22530,
20660,PO BOX,0,Morganza,,,MD,St Mary's County,America/New_York,240,NA,US,38.37,-76.69,239,
20661,PO BOX,0,Mount Victoria,Mt Victoria,,MD,Charles County,America/New_York,240,NA,US,38.33,-76.91,62,
20662,STANDARD,0,Nanjemoy,,,MD,Charles County,America/New_York,"240,301",NA,US,38.45,-77.21,2380,
20664,STANDARD,0,Newburg,,,MD,Charles County,America/New_York,"301,240",NA,US,38.34,-76.92,2560,
20667,STANDARD,0,Park Hall,,,MD,St Mary's County,America/New_York,240,NA,US,38.22,-76.44,510,
20670,STANDARD,0,Patuxent River,Patuxent Riv,Patuxent River Naval Air Sta,MD,St Mary's County,America/New_York,"240,301",NA,US,38.28,-76.42,1380,
20674,STANDARD,0,Piney Point,,Piney Pt,MD,St Mary's County,America/New_York,301,NA,US,38.14,-76.5,690,
20675,STANDARD,0,Pomfret,,,MD,Charles County,America/New_York,301,NA,US,38.57,-77.01,1640,
20676,STANDARD,0,Port Republic,,,MD,Calvert County,America/New_York,"443,410",NA,US,38.49,-76.54,3370,
20677,STANDARD,0,Port Tobacco,,,MD,Charles County,America/New_York,"240,301",NA,US,38.49,-77.04,2340,
20678,STANDARD,0,Prince Frederick,Dares Beach -  Prnc Frederck,Pr Frederick,MD,Calvert County,America/New_York,"410,443",NA,US,38.54,-76.58,10610,
20680,STANDARD,0,Ridge,,,MD,St Mary's County,America/New_York,"240,301",NA,US,38.11,-76.37,810,
20682,PO BOX,0,Rock Point,,Newburg -  Rock Pt,MD,Charles County,America/New_York,240,NA,US,38.34,-76.92,0,
20684,STANDARD,0,Saint Inigoes,,Beachville -  St Inigoes,MD,St Mary's County,America/New_York,240,NA,US,38.15,-76.41,1130,
20685,STANDARD,0,Saint Leonard,,St Leonard,MD,Calvert County,America/New_York,410,NA,US,38.47,-76.5,6330,
20686,PO BOX,0,Saint Marys City,Saint Marys -  St Marys City,,MD,St. Mary's County,America/New_York,240,NA,US,38.18,-76.42,300,
20687,STANDARD,0,Scotland,,,MD,St Mary's County,America/New_York,240,NA,US,38.07,-76.34,270,
20688,STANDARD,0,Solomons,,,MD,Calvert County,America/New_York,"410,443,667",NA,US,38.33,-76.45,1740,
20689,STANDARD,0,Sunderland,,,MD,Calvert County,America/New_York,410,NA,US,38.64,-76.57,1870,
20690,STANDARD,0,Tall Timbers,,,MD,St Mary's County,America/New_York,"240,301",NA,US,38.15,-76.53,760,
20692,STANDARD,0,Valley Lee,,,MD,St Mary's County,America/New_York,301,NA,US,38.18,-76.5,1040,
20693,STANDARD,0,Welcome,,,MD,Charles County,America/New_York,240,NA,US,38.45,-77.08,1100,
20695,STANDARD,0,White Plains,,,MD,Charles County,America/New_York,301,NA,US,38.59,-76.97,9580,
20697,UNIQUE,0,Southern Md Facility,Sthrn Md Fac,Southern Md Brmas,MD,Prince George's County,America/New_York,240,NA,US,39.03,-76.9,0,
20701,STANDARD,0,Annapolis Junction,Annapolis Jct,,MD,Anne Arundel County,America/New_York,"410,443",NA,US,39.12,-76.77,142,
20703,PO BOX,0,Lanham,Lanham Seabrook,Seabrook,MD,Prince George's County,America/New_York,240,NA,US,38.96,-76.85,411,
20704,PO BOX,0,Beltsville,,,MD,Prince George's County,America/New_York,240,NA,US,39.03,-76.92,412,
20705,STANDARD,0,Beltsville,Calverton,,MD,Prince George's County,America/New_York,"240,301,410",NA,US,39.03,-76.92,27760,
20706,STANDARD,0,Lanham,Glenarden -  Lanham Seabrook -  Seabrook,,MD,Prince George's County,America/New_York,"240,301",NA,US,38.96,-76.85,41980,
20707,STANDARD,0,Laurel,,,MD,Prince George's County,America/New_York,"240,301,410,443",NA,US,39.09,-76.85,33150,
20708,STANDARD,0,Laurel,Montpelier,,MD,Prince George's County,America/New_York,"240,301,410,443",NA,US,39.09,-76.85,26690,
20709,PO BOX,0,Laurel,Montpelier,,MD,Prince George's County,America/New_York,240,NA,US,39.09,-76.85,348,
20710,STANDARD,0,Bladensburg,,,MD,Prince George's County,America/New_York,"240,301",NA,US,38.94,-76.92,9750,
20711,STANDARD,0,Lothian,,,MD,Anne Arundel County,America/New_York,"240,301",NA,US,38.8,-76.65,6170,
20712,STANDARD,0,Mount Rainier,,Mt Rainier,MD,Prince George's County,America/New_York,"301,240",NA,US,38.94,-76.96,8900,
20714,STANDARD,0,North Beach,Holland Point -  Rose Haven,N Beach,MD,Calvert County,America/New_York,"301,410,443",NA,US,38.7,-76.53,4130,
20715,STANDARD,0,Bowie,,,MD,Prince George's County,America/New_York,"301,240",NA,US,38.95,-76.73,24300,
20716,STANDARD,0,Bowie,Mitchellville,S Bowie -  South Bowie,MD,Prince George's County,America/New_York,301,NA,US,38.95,-76.73,20500,
20717,PO BOX,0,Bowie,Mitchellville,,MD,Prince George's County,America/New_York,240,NA,US,38.95,-76.73,117,
20718,PO BOX,0,Bowie,,,MD,Prince George's County,America/New_York,240,NA,US,38.95,-76.73,358,
20719,PO BOX,0,Bowie,,W Bowie,MD,Prince George's County,America/New_York,240,NA,US,38.95,-76.73,76,
20720,STANDARD,0,Bowie,,,MD,Prince George's County,America/New_York,"240,301",NA,US,38.95,-76.73,22980,
20721,STANDARD,0,Bowie,Mitchellville,,MD,Prince George's County,America/New_York,301,NA,US,38.95,-76.73,28090,
20722,STANDARD,0,Brentwood,Colmar Manor -  Cottage City -  N Brentwood -  No Brentwood -  North Brentwo -  North Brentwood,Brentwd,MD,Prince George's County,America/New_York,"240,301",NA,US,38.94,-76.95,6390,
20723,STANDARD,0,Laurel,Scaggsville,,MD,Howard County,America/New_York,"240,301,410,443",NA,US,39.09,-76.85,31580,
20724,STANDARD,0,Laurel,Maryland City -  Md City -  Russett,,MD,Anne Arundel County,America/New_York,"240,301,410,443",NA,US,39.09,-76.85,16780,
20725,PO BOX,0,Laurel,,,MD,Prince George's County,America/New_York,240,NA,US,39.09,-76.85,488,
20726,PO BOX,0,Laurel,,,MD,Prince George's County,America/New_York,240,NA,US,39.09,-76.85,109,
20731,PO BOX,0,Capitol Heights,Capitol Hgts,,MD,Prince George's County,America/New_York,240,NA,US,38.87,-76.9,319,
20732,STANDARD,0,Chesapeake Beach,Chesapeak Bch,,MD,Calvert County,America/New_York,410,NA,US,38.68,-76.53,10050,
20733,STANDARD,0,Churchton,,,MD,Anne Arundel County,America/New_York,410,NA,US,38.8,-76.58,2820,
20735,STANDARD,0,Clinton,,,MD,Prince George's County,America/New_York,"301,240",NA,US,38.76,-76.89,36120,
20736,STANDARD,0,Owings,,,MD,Calvert County,America/New_York,410,NA,US,38.69,-76.62,8930,
20737,STANDARD,0,Riverdale,Riverdale Park -  Riverdale Pk,,MD,Prince George's County,America/New_York,"240,301",NA,US,38.96,-76.92,26410,
20738,PO BOX,0,Riverdale,,,MD,Prince George's County,America/New_York,240,NA,US,38.96,-76.92,294,
20740,STANDARD,0,College Park,Berwyn Heights -  Berwyn Hts,Berwyn -  North College Park,MD,Prince George's County,America/New_York,"301,240",NA,US,38.99,-76.93,18780,
20741,PO BOX,0,College Park,,,MD,Prince George's County,America/New_York,240,NA,US,38.99,-76.93,284,
20742,UNIQUE,0,College Park,,University Of Maryland,MD,Prince George's County,America/New_York,240,NA,US,38.99,-76.93,165,
20743,STANDARD,0,Capitol Heights,Capitol Hgts -  Fairmount Heights -  Fairmount Hgt -  Seat Pleasant,,MD,Prince George's County,America/New_York,"240,301",NA,US,38.87,-76.9,35630,
20744,STANDARD,0,Fort Washington,Ft Washington,,MD,Prince George's County,America/New_York,"240,301",NA,US,38.73,-77,50380,
20745,STANDARD,0,Oxon Hill,Forest Heights -  Forest Hts,National Harbor,MD,Prince George's County,America/New_York,"301,240",NA,US,38.8,-76.99,28560,
20746,STANDARD,0,Suitland,Camp Springs -  Hillcrest Hgts -  Hillcrest Hts -  Morningside,Marlow Heights -  Silver Hill -  Temple Hills,MD,Prince George's County,America/New_York,"301,240",NA,US,38.83,-76.92,26960,
20747,STANDARD,0,District Heights,District Hts -  Forestville,,MD,Prince George's County,America/New_York,"240,301",NA,US,38.85,-76.88,36240,
20748,STANDARD,0,Temple Hills,Camp Springs -  Hillcrest Heights -  Hillcrest Hts -  Marlow Heights -  Marlow Hgts,,MD,Prince George's County,America/New_York,"240,301",NA,US,38.8,-76.94,35830,
20749,PO BOX,0,Fort Washington,Ft Washington,,MD,Prince George's County,America/New_York,240,NA,US,38.73,-77,530,
20750,PO BOX,0,Oxon Hill,,Fort Washington,MD,Prince George's County,America/New_York,240,NA,US,38.8,-76.99,466,
20751,STANDARD,0,Deale,,,MD,Anne Arundel County,America/New_York,410,NA,US,38.79,-76.54,2080,
20752,PO BOX,0,Suitland,,Temple Hills,MD,Prince George's County,America/New_York,240,NA,US,38.83,-76.92,336,
20753,PO BOX,0,District Heights,District Hts,Capitol Heights -  Forestville,MD,Prince George's County,America/New_York,240,NA,US,38.85,-76.88,597,
20754,STANDARD,0,Dunkirk,,,MD,Calvert County,America/New_York,,NA,US,38.72,-76.66,6760,
20755,STANDARD,0,Fort George G Meade,Fort Meade,Fort George Meade -  Ft George G Meade -  Ft Meade,MD,Anne Arundel County,America/New_York,410,NA,US,39.08,-76.76,9160,
20757,PO BOX,0,Temple Hills,,,MD,Prince George's County,America/New_York,240,NA,US,38.8,-76.94,630,
20758,STANDARD,0,Friendship,,,MD,Anne Arundel County,America/New_York,410,NA,US,39.3,-77.19,780,
20759,STANDARD,0,Fulton,,,MD,Howard County,America/New_York,410,NA,US,39.15,-76.92,5270,
20762,STANDARD,0,Andrews Air Force Base,Andrews Afb,Temple Hills,MD,Prince George's County,America/New_York,"240,301",NA,US,38.8,-76.87,2950,
20763,STANDARD,0,Savage,,,MD,Howard County,America/New_York,"410,443",NA,US,39.13,-76.81,2680,
20764,STANDARD,0,Shady Side,,,MD,Anne Arundel County,America/New_York,410,NA,US,38.83,-76.52,3870,
20765,PO BOX,0,Galesville,,,MD,Anne Arundel County,America/New_York,410,NA,US,38.84,-76.54,553,
20768,PO BOX,0,Greenbelt,,,MD,Prince George's County,America/New_York,240,NA,US,38.99,-76.88,413,
20769,STANDARD,0,Glenn Dale,,,MD,Prince George's County,America/New_York,"240,301",NA,US,38.98,-76.8,6990,
20770,STANDARD,0,Greenbelt,,,MD,Prince George's County,America/New_York,"240,301",NA,US,38.99,-76.88,24220,
20771,UNIQUE,0,Greenbelt,,Goddard Flight Center,MD,Prince George's County,America/New_York,240,NA,US,38.99,-76.88,0,
20772,STANDARD,0,Upper Marlboro,Uppr Marlboro,Marlboro,MD,Prince George's County,America/New_York,"240,301",NA,US,38.81,-76.75,41810,
20773,PO BOX,0,Upper Marlboro,Uppr Marlboro,,MD,Prince George's County,America/New_York,240,NA,US,38.81,-76.75,613,
20774,STANDARD,0,Upper Marlboro,Glenarden -  Kettering -  Largo -  Springdale -  Uppr Marlboro -  Upr Marlboro,,MD,Prince George's County,America/New_York,"240,301",NA,US,38.81,-76.75,44720,
20775,PO BOX,0,Upper Marlboro,Uppr Marlboro,Kettering,MD,Prince George's County,America/New_York,240,NA,US,38.81,-76.75,184,
20776,STANDARD,0,Harwood,,,MD,Anne Arundel County,America/New_York,410,NA,US,38.86,-76.6,3060,
20777,STANDARD,0,Highland,,,MD,Howard County,America/New_York,240,NA,US,39.17,-76.95,3550,
20778,STANDARD,0,West River,,,MD,Anne Arundel County,America/New_York,"410,443",NA,US,38.82,-76.55,1770,
20779,STANDARD,0,Tracys Landing,Tracys Lndg,Fairhaven,MD,Anne Arundel County,America/New_York,410,NA,US,38.76,-76.58,1220,
20781,STANDARD,0,Hyattsville,,Avondale -  Cheverly -  Edmonston -  Rogers Heights -  Tuxedo,MD,Prince George's County,America/New_York,"240,301",NA,US,38.95,-76.95,14440,
20782,STANDARD,0,Hyattsville,Chillum -  University Pa -  University Park -  W Hyattsville -  West Hyattsville,Avondale -  Green Meadow -  Lewisdale -  Prince Georges Metro Ctr,MD,Prince George's County,America/New_York,"240,301",NA,US,38.95,-76.95,32000,
20783,STANDARD,0,Hyattsville,Adelphi,Langley Park,MD,Prince George's County,America/New_York,301,NA,US,38.95,-76.95,50870,
20784,STANDARD,0,Hyattsville,Cheverly -  Landover Hills -  Landover Hls -  New Carrolltn -  New Carrollton,Lanham,MD,Prince George's County,America/New_York,301,NA,US,38.95,-76.95,33440,
20785,STANDARD,0,Hyattsville,Cheverly -  Landover -  N Englewood -  North Englewood,Ardmore -  Palmer Park,MD,Prince George's County,America/New_York,"240,301",NA,US,38.95,-76.95,38260,
20787,PO BOX,0,Hyattsville,Langley Park,Adelphi,MD,Prince George's County,America/New_York,240,NA,US,38.95,-76.95,535,
20788,PO BOX,0,Hyattsville,W Hyattsville,Prince George Plaza -  West Hyattsville,MD,Prince George's County,America/New_York,240,NA,US,38.95,-76.95,51,
20790,UNIQUE,0,Capitol Heights,Capitol Hgts,Capitol Heights Po -  Southern Md Facility,MD,Prince George's County,America/New_York,240,NA,US,38.87,-76.9,0,
20791,PO BOX,0,Capitol Heights,Capitol Hgts,Southern Md Facility,MD,Prince George's County,America/New_York,240,NA,US,38.87,-76.9,600,
20792,PO BOX,0,Upper Marlboro,Largo -  Uppr Marlboro,,MD,Prince George's County,America/New_York,240,NA,US,38.82,-76.75,441,
20794,STANDARD,0,Jessup,,,MD,Howard County,America/New_York,"410,443",NA,US,39.14,-76.77,9870,
20797,UNIQUE,0,Southern Md Facility,Sthrn Md Fac,Southern Md Brmas,MD,Prince George's County,America/New_York,240,NA,US,39.03,-76.9,0,
20799,UNIQUE,0,Capitol Heights,Capitol Hgts,Washington Ndc,MD,Prince George's County,America/New_York,240,NA,US,38.87,-76.9,0,
20810,UNIQUE,0,Bethesda,,Geico,MD,Montgomery County,America/New_York,240,NA,US,38.97,-77.1,0,
20811,UNIQUE,0,Bethesda,,Geico,MD,Montgomery County,America/New_York,240,NA,US,38.97,-77.1,0,
20812,STANDARD,0,Glen Echo,,,MD,Montgomery County,America/New_York,"240,301",NA,US,38.96,-77.14,310,
20813,PO BOX,0,Bethesda,,Chevy Chase,MD,Montgomery County,America/New_York,240,NA,US,38.98,-77.12,52,
20814,STANDARD,0,Bethesda,,,MD,Montgomery County,America/New_York,"301,240",NA,US,38.98,-77.12,25370,
20815,STANDARD,0,Chevy Chase,Bethesda -  Chevy Chase Village -  Chevy Chs Vlg -  Martins Add -  Martins Additions -  N Chevy Chase -  North Chevy Chase,Somerset,MD,Montgomery County,America/New_York,"240,301",NA,US,38.98,-77.08,26620,
20816,STANDARD,0,Bethesda,,,MD,Montgomery County,America/New_York,"301,240",NA,US,38.98,-77.12,15300,
20817,STANDARD,0,Bethesda,Westlake,,MD,Montgomery County,America/New_York,"240,301",NA,US,38.98,-77.12,33910,
20818,STANDARD,0,Cabin John,,,MD,Montgomery County,America/New_York,"301,240",NA,US,38.97,-77.16,1690,
20824,PO BOX,0,Bethesda,,,MD,Montgomery County,America/New_York,240,NA,US,38.98,-77.12,315,
20825,PO BOX,0,Chevy Chase,Bethesda,,MD,Montgomery County,America/New_York,240,NA,US,38.98,-77.08,50,
20827,PO BOX,0,Bethesda,W Bethesda -  Westlake,,MD,Montgomery County,America/New_York,240,NA,US,38.98,-77.12,229,
20830,PO BOX,0,Olney,,,MD,Montgomery County,America/New_York,240,NA,US,39.14,-77.08,360,
20832,STANDARD,0,Olney,,,MD,Montgomery County,America/New_York,240,NA,US,39.14,-77.08,24980,
20833,STANDARD,0,Brookeville,,Sunshine -  Unity,MD,Montgomery County,America/New_York,,NA,US,39.17,-77.05,7800,
20837,STANDARD,0,Poolesville,,,MD,Montgomery County,America/New_York,"240,301",NA,US,39.14,-77.41,6300,
20838,STANDARD,0,Barnesville,,,MD,Montgomery County,America/New_York,240,NA,US,39.21,-77.38,290,
20839,STANDARD,0,Beallsville,,,MD,Montgomery County,America/New_York,240,NA,US,39.17,-77.41,250,
20841,STANDARD,0,Boyds,,,MD,Montgomery County,America/New_York,240,NA,US,39.18,-77.31,9520,
20842,STANDARD,0,Dickerson,,Comus,MD,Montgomery County,America/New_York,,NA,US,39.22,-77.42,1630,
20847,PO BOX,0,Rockville,,,MD,Montgomery County,America/New_York,240,NA,US,39.08,-77.15,92,
20848,PO BOX,0,Rockville,,,MD,Montgomery County,America/New_York,240,NA,US,39.08,-77.15,308,
20849,PO BOX,0,Rockville,,,MD,Montgomery County,America/New_York,240,NA,US,39.08,-77.15,476,
20850,STANDARD,0,Rockville,,,MD,Montgomery County,America/New_York,"240,301",NA,US,39.08,-77.15,43070,
20851,STANDARD,0,Rockville,,,MD,Montgomery County,America/New_York,"240,301",NA,US,39.08,-77.15,14570,
20852,STANDARD,0,Rockville,N Bethesda -  North Bethesda,No Bethesda,MD,Montgomery County,America/New_York,"240,301",NA,US,39.08,-77.15,38070,
20853,STANDARD,0,Rockville,,,MD,Montgomery County,America/New_York,"240,301",NA,US,39.08,-77.15,30810,
20854,STANDARD,0,Potomac,Rockville,,MD,Montgomery County,America/New_York,301,NA,US,39.02,-77.19,47600,
20855,STANDARD,0,Derwood,Rockville,,MD,Montgomery County,America/New_York,"240,301",NA,US,39.13,-77.13,14430,
20857,UNIQUE,0,Rockville,,Hhs,MD,Montgomery County,America/New_York,240,NA,US,39.08,-77.15,0,
20859,PO BOX,0,Potomac,Rockville,,MD,Montgomery County,America/New_York,240,NA,US,39.02,-77.19,255,
20860,STANDARD,0,Sandy Spring,,,MD,Montgomery County,America/New_York,"240,301",NA,US,39.14,-77.02,1810,
20861,STANDARD,0,Ashton,,,MD,Montgomery County,America/New_York,"240,301",NA,US,39.15,-76.98,2070,
20862,STANDARD,0,Brinklow,,,MD,Montgomery County,America/New_York,"240,301",NA,US,39.18,-77.01,380,
20866,STANDARD,0,Burtonsville,,,MD,Montgomery County,America/New_York,301,NA,US,39.11,-76.93,14210,
20868,STANDARD,0,Spencerville,,,MD,Montgomery County,America/New_York,301,NA,US,39.12,-76.96,720,
20871,STANDARD,0,Clarksburg,Hyattstown,,MD,Montgomery County,America/New_York,"301,240",NA,US,39.23,-77.27,20940,
20872,STANDARD,0,Damascus,,,MD,Montgomery County,America/New_York,"240,301",NA,US,39.27,-77.2,12940,
20874,STANDARD,0,Germantown,Darnestown,,MD,Montgomery County,America/New_York,240,NA,US,39.17,-77.26,58740,
20875,PO BOX,0,Germantown,,,MD,Montgomery County,America/New_York,240,NA,US,39.17,-77.26,628,
20876,STANDARD,0,Germantown,,,MD,Montgomery County,America/New_York,240,NA,US,39.17,-77.26,25200,
20877,STANDARD,0,Gaithersburg,Montgomery Village -  Montgomry Vlg,,MD,Montgomery County,America/New_York,"301,240",NA,US,39.14,-77.21,37850,
20878,STANDARD,0,Gaithersburg,Darnestown -  N Potomac -  No Potomac -  North Potomac,,MD,Montgomery County,America/New_York,"240,301",NA,US,39.14,-77.21,62410,
20879,STANDARD,0,Gaithersburg,Laytonsville -  Montgomery Village -  Montgomry Vlg,,MD,Montgomery County,America/New_York,"240,301",NA,US,39.14,-77.21,25650,
20880,PO BOX,0,Washington Grove,Washingtn Grv,,MD,Montgomery County,America/New_York,240,NA,US,39.14,-77.17,740,
20882,STANDARD,0,Gaithersburg,Laytonsville,,MD,Montgomery County,America/New_York,240,NA,US,39.14,-77.21,13820,
20883,PO BOX,0,Gaithersburg,,,MD,Montgomery County,America/New_York,240,NA,US,39.17,-77.19,161,
20884,PO BOX,0,Gaithersburg,,,MD,Montgomery County,America/New_York,240,NA,US,39.14,-77.21,366,
20885,PO BOX,0,Gaithersburg,,,MD,Montgomery County,America/New_York,240,NA,US,39.14,-77.21,344,
20886,STANDARD,0,Montgomery Village,Gaithersburg -  Montgomry Vlg,,MD,Montgomery County,America/New_York,"240,301",NA,US,39.18,-77.19,34130,
20889,UNIQUE,0,Bethesda,,National Naval Medical Ctr,MD,Montgomery County,America/New_York,240,NA,US,38.98,-77.12,273,
20891,PO BOX,0,Kensington,,,MD,Montgomery County,America/New_York,240,NA,US,39.02,-77.07,119,
20892,UNIQUE,0,Bethesda,,National Institute Of Health,MD,Montgomery County,America/New_York,240,NA,US,38.98,-77.12,0,
20894,UNIQUE,0,Bethesda,,National Library Of Medicine,MD,Montgomery County,America/New_York,240,NA,US,38.98,-77.12,0,
20895,STANDARD,0,Kensington,,North Bethesda,MD,Montgomery County,America/New_York,"301,240",NA,US,39.02,-77.07,18700,
20896,PO BOX,0,Garrett Park,,,MD,Montgomery County,America/New_York,240,NA,US,39.03,-77.09,1020,
20897,UNIQUE,0,Suburb Maryland Fac,Subn Md Fac,Suburban Md Brm,MD,Montgomery County,America/New_York,240,NA,US,39.08,-77.05,0,
20898,PO BOX,0,Gaithersburg,,Suburb Maryland Fac,MD,Montgomery County,America/New_York,240,NA,US,39.14,-77.21,347,
20899,UNIQUE,0,Gaithersburg,,Natl Institute Stds & Tech,MD,Montgomery County,America/New_York,240,NA,US,39.14,-77.21,0,
20901,STANDARD,0,Silver Spring,Takoma Park,,MD,Montgomery County,America/New_York,"240,301",NA,US,39.01,-77.02,36900,
20902,STANDARD,0,Silver Spring,Wheaton,,MD,Montgomery County,America/New_York,"240,301",NA,US,39.01,-77.02,51990,
20903,STANDARD,0,Silver Spring,,Hillandale -  Takoma Park,MD,Montgomery County,America/New_York,301,NA,US,39.01,-77.02,27270,
20904,STANDARD,0,Silver Spring,Colesville,Cloverly,MD,Montgomery County,America/New_York,301,NA,US,39.01,-77.02,55710,
20905,STANDARD,0,Silver Spring,Colesville,,MD,Montgomery County,America/New_York,301,NA,US,39.01,-77.02,18260,
20906,STANDARD,0,Silver Spring,Aspen Hill,Glenmont -  Leisure World -  Norbeck -  Wheaton,MD,Montgomery County,America/New_York,"301,240",NA,US,39.01,-77.02,67360,
20907,PO BOX,0,Silver Spring,,,MD,Montgomery County,America/New_York,240,NA,US,39.01,-77.02,323,
20908,PO BOX,0,Silver Spring,,,MD,Montgomery County,America/New_York,240,NA,US,39.01,-77.02,38,
20910,STANDARD,0,Silver Spring,,Takoma Pk,MD,Montgomery County,America/New_York,"240,301",NA,US,39.01,-77.02,37650,
20911,PO BOX,0,Silver Spring,,,MD,Montgomery County,America/New_York,240,NA,US,39.01,-77.02,115,
20912,STANDARD,0,Takoma Park,Silver Spring,,MD,Montgomery County,America/New_York,"240,301",NA,US,38.98,-77,24770,
20913,PO BOX,0,Takoma Park,Silver Spring,,MD,Montgomery County,America/New_York,240,NA,US,38.98,-77,225,
20914,PO BOX,0,Silver Spring,Colesville,,MD,Montgomery County,America/New_York,240,NA,US,39.01,-77.02,526,
20915,PO BOX,0,Silver Spring,Wheaton,,MD,Montgomery County,America/New_York,240,NA,US,39.01,-77.02,270,
20916,PO BOX,0,Silver Spring,Aspen Hill,,MD,Montgomery County,America/New_York,240,NA,US,39.01,-77.02,425,
20918,PO BOX,0,Silver Spring,,,MD,Montgomery County,America/New_York,240,NA,US,39.01,-77.02,236,
20993,UNIQUE,0,Silver Spring,,Us Food And Drug Admin,MD,Montgomery County,America/New_York,240,NA,US,39.03,-76.98,0,
20997,UNIQUE,0,Silver Spring,,Suburban Md Brm,MD,Montgomery County,America/New_York,240,NA,US,39.01,-77.02,0,
21001,STANDARD,0,Aberdeen,,,MD,Harford County,America/New_York,"410,443,667",NA,US,39.51,-76.17,21780,
21005,STANDARD,0,Aberdeen Proving Ground,Aber Prov Grd,Apg,MD,Harford County,America/New_York,"443,667",NA,US,39.47,-76.13,2130,
21009,STANDARD,0,Abingdon,,,MD,Harford County,America/New_York,410,NA,US,39.46,-76.27,28980,
21010,STANDARD,0,Gunpowder,Aber Prov Grd -  Aberdeen Proving Ground,Edgewood Arsenal,MD,Harford County,America/New_York,410,NA,US,39.41,-76.38,580,
21012,STANDARD,0,Arnold,,,MD,Anne Arundel County,America/New_York,410,NA,US,39.04,-76.49,20960,
21013,STANDARD,0,Baldwin,,,MD,Baltimore County,America/New_York,,NA,US,39.51,-76.49,4650,
21014,STANDARD,0,Bel Air,,,MD,Harford County,America/New_York,"410,443",NA,US,39.53,-76.34,34790,
21015,STANDARD,0,Bel Air,,,MD,Harford County,America/New_York,"410,443",NA,US,39.53,-76.34,27800,
21017,STANDARD,0,Belcamp,,Riverside,MD,Harford County,America/New_York,410,NA,US,39.46,-76.23,6050,
21018,PO BOX,0,Benson,,,MD,Harford County,America/New_York,410,NA,US,39.51,-76.18,51,
21020,PO BOX,0,Boring,,,MD,Baltimore County,America/New_York,410,NA,US,39.57,-76.8,111,
21022,PO BOX,0,Brooklandville,Brooklandvl,,MD,Baltimore County,America/New_York,410,NA,US,39.42,-76.67,326,
21023,PO BOX,0,Butler,,,MD,Baltimore County,America/New_York,410,NA,US,39.55,-76.68,247,
21027,PO BOX,0,Chase,,,MD,Baltimore County,America/New_York,410,NA,US,39.36,-76.37,185,
21028,STANDARD,0,Churchville,,,MD,Harford County,America/New_York,"410,443",NA,US,39.56,-76.24,3170,
21029,STANDARD,0,Clarksville,,,MD,Howard County,America/New_York,240,NA,US,39.2,-76.94,12450,
21030,STANDARD,0,Cockeysville,Cockysvil -  Hunt Valley,,MD,Baltimore County,America/New_York,"410,443",NA,US,39.47,-76.63,24570,
21031,STANDARD,0,Hunt Valley,,,MD,Baltimore County,America/New_York,"443,410",NA,US,39.49,-76.65,23,
21032,STANDARD,0,Crownsville,,,MD,Anne Arundel County,America/New_York,410,NA,US,39.01,-76.59,8580,
21034,STANDARD,0,Darlington,,,MD,Harford County,America/New_York,"410,443",NA,US,39.63,-76.2,3080,
21035,STANDARD,0,Davidsonville,,,MD,Anne Arundel County,America/New_York,410,NA,US,38.93,-76.63,7940,
21036,STANDARD,0,Dayton,,,MD,Howard County,America/New_York,240,NA,US,39.23,-76.98,2310,
21037,STANDARD,0,Edgewater,,,MD,Anne Arundel County,America/New_York,"301,410",NA,US,38.9,-76.54,19990,
21040,STANDARD,0,Edgewood,,,MD,Harford County,America/New_York,"410,443",NA,US,39.42,-76.29,22740,
21041,PO BOX,0,Ellicott City,,Ellicott,MD,Howard County,America/New_York,410,NA,US,39.27,-76.83,398,
21042,STANDARD,0,Ellicott City,,Ellicott,MD,Howard County,America/New_York,"410,443",NA,US,39.27,-76.83,39350,
21043,STANDARD,0,Ellicott City,Daniels -  Ilchester -  Oella,Ellicott,MD,Howard County,America/New_York,"410,443",NA,US,39.27,-76.83,44840,
21044,STANDARD,0,Columbia,,,MD,Howard County,America/New_York,"240,301,410,443",NA,US,39.2,-76.85,39790,
21045,STANDARD,0,Columbia,,,MD,Howard County,America/New_York,"240,301,410,443",NA,US,39.2,-76.85,38220,
21046,STANDARD,0,Columbia,,,MD,Howard County,America/New_York,"301,410,443,240",NA,US,39.2,-76.85,15110,
21047,STANDARD,0,Fallston,,,MD,Harford County,America/New_York,"410,443",NA,US,39.52,-76.42,12170,
21048,STANDARD,0,Finksburg,Patapsco,,MD,Carroll County,America/New_York,443,NA,US,39.49,-76.88,10210,
21050,STANDARD,0,Forest Hill,,,MD,Harford County,America/New_York,410,NA,US,39.58,-76.39,18080,
21051,STANDARD,0,Fork,,,MD,Baltimore County,America/New_York,"410,443",NA,US,39.47,-76.45,330,
21052,PO BOX,0,Fort Howard,,,MD,Baltimore County,America/New_York,410,NA,US,39.2,-76.44,417,
21053,STANDARD,0,Freeland,,,MD,Baltimore County,America/New_York,410,NA,US,39.69,-76.72,3110,
21054,STANDARD,0,Gambrills,,,MD,Anne Arundel County,America/New_York,240,NA,US,39.05,-76.66,11500,
21056,PO BOX,0,Gibson Island,,,MD,Anne Arundel County,America/New_York,410,NA,US,39.07,-76.42,256,
21057,STANDARD,0,Glen Arm,,,MD,Baltimore County,America/New_York,410,NA,US,39.44,-76.5,3930,
21060,STANDARD,0,Glen Burnie,,,MD,Anne Arundel County,America/New_York,"443,410",NA,US,39.16,-76.6,30730,
21061,STANDARD,0,Glen Burnie,,,MD,Anne Arundel County,America/New_York,"410,443",NA,US,39.16,-76.6,51260,
21062,UNIQUE,0,Glen Burnie,,Maryland Motor Vehicle Admin,MD,Anne Arundel County,America/New_York,410,NA,US,39.16,-76.6,0,
21065,UNIQUE,0,Hunt Valley,Cockys Ht Vly,Cockeysville Hunt Valley -  Huntvalley -  Pdp Group Inc,MD,Baltimore County,America/New_York,410,NA,US,39.49,-76.65,0,
21071,PO BOX,0,Glyndon,,Reisterstown,MD,Baltimore County,America/New_York,"410,443",NA,US,39.47,-76.81,632,
21074,STANDARD,0,Hampstead,Greenmount,,MD,Carroll County,America/New_York,"410,443",NA,US,39.61,-76.85,14730,
21075,STANDARD,0,Elkridge,,Hanover,MD,Howard County,America/New_York,"240,443,410",NA,US,39.2,-76.75,29790,
21076,STANDARD,0,Hanover,,Harmans,MD,Anne Arundel County,America/New_York,443,NA,US,39.16,-76.72,15590,
21077,STANDARD,0,Harmans,,,MD,Anne Arundel County,America/New_York,443,NA,US,39.16,-76.72,250,
21078,STANDARD,0,Havre De Grace,Hvre De Grace,,MD,Harford County,America/New_York,"667,410,443",NA,US,39.54,-76.09,16930,
21082,STANDARD,0,Hydes,,,MD,Baltimore County,America/New_York,410,NA,US,39.48,-76.47,880,
21084,STANDARD,0,Jarrettsville,,,MD,Harford County,America/New_York,"410,443",NA,US,39.6,-76.47,7140,
21085,STANDARD,0,Joppa,,Joppatown -  Joppatowne -  Magnolia,MD,Harford County,America/New_York,443,NA,US,39.43,-76.35,15970,
21087,STANDARD,0,Kingsville,Bradshaw,,MD,Baltimore County,America/New_York,,NA,US,39.44,-76.41,5410,
21088,PO BOX,0,Lineboro,Manchester,,MD,Carroll County,America/New_York,410,NA,US,39.71,-76.84,35,
21090,STANDARD,0,Linthicum Heights,Linthicum -  Linthicum Hts,,MD,Anne Arundel County,America/New_York,"443,410",NA,US,39.2,-76.66,9680,
21092,PO BOX,0,Long Green,,,MD,Baltimore County,America/New_York,410,NA,US,39.47,-76.52,156,
21093,STANDARD,0,Lutherville Timonium,Lutherville -  Luthvle Timon -  Timonium,,MD,Baltimore County,America/New_York,410,NA,US,39.43,-76.64,36540,
21094,PO BOX,0,Lutherville Timonium,Lutherville -  Luthvle Timon -  Timonium,,MD,Baltimore County,America/New_York,410,NA,US,39.43,-76.64,247,
21098,UNIQUE,1,Hanover,Household Bank,,MD,Anne Arundel County,America/New_York,410,NA,US,39.19,-76.72,0,
21102,STANDARD,0,Manchester,Lineboro -  Millers,,MD,Carroll County,America/New_York,"410,443",NA,US,39.65,-76.89,11490,
21104,STANDARD,0,Marriottsville,Marriottsvl -  Woodstock,Henryton,MD,Howard County,America/New_York,,NA,US,39.35,-76.89,5310,
21105,PO BOX,0,Maryland Line,,,MD,Baltimore County,America/New_York,410,NA,US,39.69,-76.71,132,
21106,PO BOX,0,Mayo,,,MD,Anne Arundel County,America/New_York,410,NA,US,38.89,-76.5,259,
21108,STANDARD,0,Millersville,,,MD,Anne Arundel County,America/New_York,"410,443",NA,US,39.05,-76.64,17460,
21111,STANDARD,0,Monkton,Hereford,,MD,Baltimore County,America/New_York,,NA,US,39.57,-76.58,4990,
21113,STANDARD,0,Odenton,,,MD,Anne Arundel County,America/New_York,"240,301,410,443",NA,US,39.06,-76.69,31280,
21114,STANDARD,0,Crofton,,,MD,Anne Arundel County,America/New_York,"240,410,443,667",NA,US,39.01,-76.68,25470,
21117,STANDARD,0,Owings Mills,Garrison,,MD,Baltimore County,America/New_York,410,NA,US,39.41,-76.79,51700,
21120,STANDARD,0,Parkton,Bentley Spgs -  Bentley Springs,,MD,Baltimore County,America/New_York,"410,443",NA,US,39.65,-76.67,7040,
21122,STANDARD,0,Pasadena,Lake Shore -  Millersville -  Riviera Beach,,MD,Anne Arundel County,America/New_York,"410,443",NA,US,39.11,-76.55,57770,
21123,PO BOX,0,Pasadena,Lake Shore -  Riviera Beach,,MD,Anne Arundel County,America/New_York,410,NA,US,39.11,-76.55,635,
21128,STANDARD,0,Perry Hall,,Perryhall,MD,Baltimore County,America/New_York,410,NA,US,39.4,-76.47,13660,
21130,PO BOX,0,Perryman,,,MD,Harford County,America/New_York,410,NA,US,39.46,-76.2,237,
21131,STANDARD,0,Phoenix,Jacksonville,,MD,Baltimore County,America/New_York,410,NA,US,39.5,-76.56,7470,
21132,STANDARD,0,Pylesville,,,MD,Harford County,America/New_York,410,NA,US,39.68,-76.37,2570,
21133,STANDARD,0,Randallstown,Mcdonogh Run,Foxridge,MD,Baltimore County,America/New_York,"410,443",NA,US,39.37,-76.8,28140,
21136,STANDARD,0,Reisterstown,Glyndon,,MD,Baltimore County,America/New_York,"410,443",NA,US,39.45,-76.81,33140,
21139,PO BOX,0,Riderwood,,,MD,Baltimore County,America/New_York,410,NA,US,39.4,-76.6,157,
21140,STANDARD,0,Riva,,,MD,Anne Arundel County,America/New_York,"301,410",NA,US,38.94,-76.58,3410,
21144,STANDARD,0,Severn,,,MD,Anne Arundel County,America/New_York,"410,443",NA,US,39.13,-76.69,32860,
21146,STANDARD,0,Severna Park,,,MD,Anne Arundel County,America/New_York,"410,443",NA,US,39.08,-76.57,27210,
21150,PO BOX,0,Simpsonville,,,MD,Howard County,America/New_York,410,NA,US,39.18,-76.88,90,
21152,STANDARD,0,Sparks Glencoe,Glencoe -  Sparks -  Sparks Glenco,,MD,Baltimore County,America/New_York,"410,443",NA,US,39.54,-76.68,5420,
21153,PO BOX,0,Stevenson,,,MD,Baltimore County,America/New_York,410,NA,US,39.42,-76.7,925,
21154,STANDARD,0,Street,,,MD,Harford County,America/New_York,410,NA,US,39.65,-76.34,5950,
21155,STANDARD,0,Upperco,Fowbelsburg,,MD,Baltimore County,America/New_York,,NA,US,39.57,-76.8,2320,
21156,STANDARD,0,Upper Falls,,,MD,Baltimore County,America/New_York,410,NA,US,39.43,-76.4,370,
21157,STANDARD,0,Westminster,,Carrollton,MD,Carroll County,America/New_York,"410,443",NA,US,39.57,-77,33700,
21158,STANDARD,0,Westminster,,,MD,Carroll County,America/New_York,"410,443",NA,US,39.57,-77,20110,
21160,STANDARD,0,Whiteford,Cardiff,,MD,Harford County,America/New_York,"410,443",NA,US,39.7,-76.34,2300,
21161,STANDARD,0,White Hall,,Norrisville,MD,Baltimore County,America/New_York,,NA,US,39.65,-76.56,5200,
21162,STANDARD,0,White Marsh,,,MD,Baltimore County,America/New_York,"443,410",NA,US,39.38,-76.45,4190,
21163,STANDARD,0,Woodstock,Granite,Henryton,MD,Howard County,America/New_York,,NA,US,39.32,-76.87,7130,
21201,STANDARD,0,Baltimore,,,MD,Baltimore City,America/New_York,"410,443,667,301",NA,US,39.3,-76.61,11790,
21202,STANDARD,0,Baltimore,East Case,,MD,Baltimore City,America/New_York,"301,443,410,667",NA,US,39.3,-76.61,12550,
21203,PO BOX,0,Baltimore,,,MD,Baltimore City,America/New_York,410,NA,US,39.3,-76.61,1290,
21204,STANDARD,0,Towson,Baltimore -  Eudowood -  Loch Raven -  Ruxton,,MD,Baltimore County,America/New_York,"410,443,667",NA,US,39.39,-76.62,14520,
21205,STANDARD,0,Baltimore,,Clifton East End -  East End,MD,Baltimore City,America/New_York,"410,443",NA,US,39.3,-76.61,12740,
21206,STANDARD,0,Baltimore,Raspeburg,,MD,Baltimore City,America/New_York,"410,443",NA,US,39.3,-76.61,44590,
21207,STANDARD,0,Gwynn Oak,Baltimore -  Woodlawn,,MD,Baltimore County,America/New_York,"667,410,443",NA,US,39.32,-76.72,43140,
21208,STANDARD,0,Pikesville,Baltimore,,MD,Baltimore County,America/New_York,"410,443,667",NA,US,39.39,-76.7,31480,
21209,STANDARD,0,Baltimore,Mount Washington -  Mt Washington,,MD,Baltimore City,America/New_York,410,NA,US,39.3,-76.61,25480,
21210,STANDARD,0,Baltimore,Roland Park,,MD,Baltimore City,America/New_York,"443,410",NA,US,39.3,-76.61,9570,
21211,STANDARD,0,Baltimore,,Hampden,MD,Baltimore City,America/New_York,"410,443",NA,US,39.3,-76.61,13190,
21212,STANDARD,0,Baltimore,Govans,,MD,Baltimore City,America/New_York,"410,443,667",NA,US,39.3,-76.61,28340,
21213,STANDARD,0,Baltimore,Clifton,Clifton East End,MD,Baltimore City,America/New_York,"410,443",NA,US,39.3,-76.61,25770,
21214,STANDARD,0,Baltimore,,Hamilton,MD,Baltimore City,America/New_York,"443,410",NA,US,39.3,-76.61,17020,
21215,STANDARD,0,Baltimore,Arlington,,MD,Baltimore City,America/New_York,410,NA,US,39.3,-76.61,46960,
21216,STANDARD,0,Baltimore,,Walbrook,MD,Baltimore City,America/New_York,410,NA,US,39.3,-76.61,23670,
21217,STANDARD,0,Baltimore,Druid,,MD,Baltimore City,America/New_York,"410,443",NA,US,39.3,-76.61,25020,
21218,STANDARD,0,Baltimore,,Waverly,MD,Baltimore City,America/New_York,"443,410",NA,US,39.3,-76.61,33130,
21219,STANDARD,0,Sparrows Point,Baltimore -  Edgemere -  Sparrows Pt,Dundalk Sparrows Point,MD,Baltimore County,America/New_York,"410,443",NA,US,39.22,-76.43,8660,
21220,STANDARD,0,Middle River,Baltimore,,MD,Baltimore County,America/New_York,"410,443",NA,US,39.33,-76.43,38010,
21221,STANDARD,0,Essex,Baltimore,,MD,Baltimore County,America/New_York,"410,443",NA,US,39.3,-76.44,38480,
21222,STANDARD,0,Dundalk,Baltimore,Dundalk Sparrows Point,MD,Baltimore County,America/New_York,"410,443",NA,US,39.26,-76.49,50210,
21223,STANDARD,0,Baltimore,Franklin,,MD,Baltimore City,America/New_York,"667,410",NA,US,39.3,-76.61,18550,
21224,STANDARD,0,Baltimore,Highlandtown,,MD,Baltimore City,America/New_York,410,NA,US,39.3,-76.61,47050,
21225,STANDARD,0,Brooklyn,Baltimore -  Brooklyn Park,,MD,Anne Arundel County,America/New_York,"410,443",NA,US,39.22,-76.61,28170,
21226,STANDARD,0,Curtis Bay,Baltimore -  Carvel Beach -  Chestnut Hill Cove -  Chstnt Hl Cv -  Clearwater Beach -  Clearwatr Bch -  Greenland Bch -  Greenland Beach -  Orchard Beach -  Stoney Beach,Brooklyn,MD,Baltimore City,America/New_York,"410,443",NA,US,39.21,-76.55,6370,
21227,STANDARD,0,Halethorpe,Arbutus -  Baltimore -  Lansdowne,,MD,Baltimore County,America/New_York,"240,443,410",NA,US,39.21,-76.72,31420,
21228,STANDARD,0,Catonsville,Baltimore,,MD,Baltimore County,America/New_York,"410,443",NA,US,39.26,-76.74,45120,
21229,STANDARD,0,Baltimore,Carroll,,MD,Baltimore City,America/New_York,410,NA,US,39.3,-76.61,38560,
21230,STANDARD,0,Baltimore,,,MD,Baltimore City,America/New_York,"410,667",NA,US,39.3,-76.61,28810,
21231,STANDARD,0,Baltimore,,Patterson,MD,Baltimore City,America/New_York,"410,443,667",NA,US,39.3,-76.61,13320,
21233,STANDARD,0,Baltimore,,,MD,Baltimore City,America/New_York,"410,667,301,443",NA,US,39.3,-76.61,35,
21234,STANDARD,0,Parkville,Baltimore,,MD,Baltimore County,America/New_York,"410,443",NA,US,39.38,-76.55,62950,
21235,UNIQUE,0,Baltimore,,Social Security Administrat,MD,Baltimore City,America/New_York,410,NA,US,39.3,-76.61,20,
21236,STANDARD,0,Nottingham,Baltimore,,MD,Baltimore County,America/New_York,410,NA,US,39.38,-76.48,37520,
21237,STANDARD,0,Rosedale,Baltimore,,MD,Baltimore County,America/New_York,410,NA,US,39.32,-76.5,28220,
21239,STANDARD,0,Baltimore,Idlewylde -  Loch Hill -  Northwood,,MD,Baltimore City,America/New_York,"443,410",NA,US,39.3,-76.61,24540,
21240,STANDARD,0,Baltimore,,,MD,Anne Arundel County,America/New_York,"240,410,443",NA,US,39.3,-76.61,117,
21241,UNIQUE,0,Baltimore,,Social Security Admin,MD,Baltimore City,America/New_York,410,NA,US,39.3,-76.61,0,
21244,STANDARD,0,Windsor Mill,Baltimore,,MD,Baltimore County,America/New_York,410,NA,US,39.33,-76.78,34550,
21250,UNIQUE,0,Baltimore,,Catonsville -  Univ Of Md Baltimore County,MD,Baltimore County,America/New_York,410,NA,US,39.3,-76.61,46,
21251,UNIQUE,0,Baltimore,,Morgan State University,MD,Baltimore City,America/New_York,410,NA,US,39.3,-76.61,35,
21252,UNIQUE,0,Towson,Baltimore,Towson State University,MD,Baltimore County,America/New_York,410,NA,US,39.3,-76.61,59,
21260,STANDARD,1,Baltimore,,Census Bureau,MD,Baltimore City,America/New_York,410,NA,US,39.35,-76.7,0,
21261,STANDARD,1,Baltimore,Essex,Census Bureau,MD,Baltimore City,America/New_York,410,NA,US,39.3,-76.45,0,
21263,UNIQUE,0,Baltimore,,Bank Of America,MD,Baltimore City,America/New_York,410,NA,US,39.3,-76.61,0,
21264,UNIQUE,0,Baltimore,,M T Bank,MD,Baltimore City,America/New_York,410,NA,US,39.3,-76.61,0,
21265,UNIQUE,1,Baltimore,,Verizon Telephone,MD,Baltimore City,America/New_York,410,NA,US,39.29,-76.6,0,
21268,UNIQUE,1,Baltimore,,Harte Hanks Direct Marketing,MD,Baltimore City,America/New_York,410,NA,US,39.21,-76.72,0,
21270,PO BOX,0,Baltimore,,Reisterstown Rd Plaza,MD,Baltimore City,America/New_York,410,NA,US,39.3,-76.61,35,
21273,UNIQUE,0,Baltimore,,Bank Of America,MD,Baltimore City,America/New_York,410,NA,US,39.3,-76.61,0,
21274,UNIQUE,1,Baltimore,,Bank Of America,MD,Baltimore City,America/New_York,410,NA,US,39.29,-76.6,0,
21275,UNIQUE,0,Baltimore,,Wells Fargo,MD,Baltimore City,America/New_York,410,NA,US,39.3,-76.61,0,
21278,UNIQUE,0,Baltimore,,Baltimore Sunpapers,MD,Baltimore City,America/New_York,410,NA,US,39.3,-76.61,0,
21279,UNIQUE,0,Baltimore,,Crestar Bank -  Sun Trust Bank,MD,Baltimore City,America/New_York,410,NA,US,39.3,-76.61,0,
21280,UNIQUE,0,Baltimore,,Bank Of America,MD,Baltimore City,America/New_York,410,NA,US,39.3,-76.61,0,
21281,PO BOX,0,Baltimore,,,MD,Baltimore City,America/New_York,410,NA,US,39.3,-76.61,73,
21282,PO BOX,0,Baltimore,,Pikesville,MD,Baltimore City,America/New_York,410,NA,US,39.3,-76.61,387,
21283,UNIQUE,1,Baltimore,Shared Firm Zip Code,,MD,Baltimore City,America/New_York,410,NA,US,39.29,-76.61,0,
21284,PO BOX,0,Baltimore,Loch Raven,,MD,Baltimore City,America/New_York,410,NA,US,39.3,-76.61,202,
21285,PO BOX,0,Baltimore,,Towson Finance,MD,Baltimore City,America/New_York,410,NA,US,39.3,-76.61,100,
21286,STANDARD,0,Towson,Baltimore -  Loch Raven,,MD,Baltimore County,America/New_York,"667,410,443",NA,US,39.39,-76.62,17030,
21287,UNIQUE,0,Baltimore,,Johns Hopkins -  Johns Hopkins Hospital,MD,Baltimore City,America/New_York,410,NA,US,39.3,-76.61,34,
21288,UNIQUE,0,Baltimore,,Household Bank,MD,Baltimore City,America/New_York,410,NA,US,39.3,-76.61,0,
21289,UNIQUE,0,Baltimore,,T Rowe Price Associates Inc,MD,Baltimore City,America/New_York,410,NA,US,39.3,-76.61,0,
21290,UNIQUE,0,Baltimore,,Social Security Admin,MD,Baltimore City,America/New_York,410,NA,US,39.3,-76.61,0,
21297,PO BOX,0,Baltimore,,Firms-courtesy Reply,MD,Baltimore City,America/New_York,410,NA,US,39.3,-76.61,80,
21298,UNIQUE,0,Baltimore,,Firms-business Reply,MD,Baltimore City,America/New_York,410,NA,US,39.3,-76.61,0,
21401,STANDARD,0,Annapolis,Cape Saint Claire -  Cpe St Claire,,MD,Anne Arundel County,America/New_York,"410,443,301",NA,US,38.97,-76.5,36230,
21402,STANDARD,0,Annapolis,Naval Academy,,MD,Anne Arundel County,America/New_York,"410,443",NA,US,38.97,-76.5,980,
21403,STANDARD,0,Annapolis,Eastport -  Highland Bch,,MD,Anne Arundel County,America/New_York,"301,410,443",NA,US,38.97,-76.5,30250,
21404,PO BOX,0,Annapolis,,,MD,Anne Arundel County,America/New_York,410,NA,US,38.97,-76.5,266,
21405,STANDARD,0,Annapolis,Sherwood Forest -  Sherwood Frst,,MD,Anne Arundel County,America/New_York,"301,410,443",NA,US,38.97,-76.5,613,
21409,STANDARD,0,Annapolis,,,MD,Anne Arundel County,America/New_York,443,NA,US,39.02,-76.45,19680,
21411,UNIQUE,0,Annapolis,,Comptroller Of The Treasury,MD,Anne Arundel County,America/New_York,410,NA,US,38.97,-76.5,0,
21412,UNIQUE,0,Annapolis,,Bancroft Hall,MD,Anne Arundel County,America/New_York,410,NA,US,38.97,-76.5,1107,
21501,PO BOX,0,Cumberland,,,MD,Allegany County,America/New_York,240,NA,US,39.65,-78.76,520,
21502,STANDARD,0,Cumberland,Cresaptown -  Lavale,,MD,Allegany County,America/New_York,"240,301",NA,US,39.65,-78.76,30890,
21503,PO BOX,0,Cumberland,,,MD,Allegany County,America/New_York,240,NA,US,39.65,-78.76,56,
21504,PO BOX,0,Cumberland,Lavale,,MD,Allegany County,America/New_York,240,NA,US,39.65,-78.76,93,
21505,PO BOX,0,Cumberland,Cresaptown,,MD,Allegany County,America/New_York,240,NA,US,39.65,-78.76,223,
21520,STANDARD,0,Accident,,,MD,Garrett County,America/New_York,301,NA,US,39.62,-79.32,1830,
21521,STANDARD,0,Barton,,,MD,Allegany County,America/New_York,,NA,US,39.53,-79.01,1060,
21522,STANDARD,0,Bittinger,,,MD,Garrett County,America/New_York,301,NA,US,39.58,-79.2,154,
21523,STANDARD,0,Bloomington,,,MD,Garrett County,America/New_York,240,NA,US,39.5,-79.11,230,
21524,PO BOX,0,Corriganville,,,MD,Allegany County,America/New_York,240,NA,US,39.69,-78.79,507,
21528,PO BOX,0,Eckhart Mines,,,MD,Allegany County,America/New_York,240,NA,US,39.64,-78.87,59,
21529,PO BOX,0,Ellerslie,,,MD,Allegany County,America/New_York,240,NA,US,39.72,-78.77,680,
21530,STANDARD,0,Flintstone,,,MD,Allegany County,America/New_York,240,NA,US,39.7,-78.56,1290,
21531,STANDARD,0,Friendsville,,,MD,Garrett County,America/New_York,301,NA,US,39.66,-79.4,1870,
21532,STANDARD,0,Frostburg,,,MD,Allegany County,America/New_York,"240,301",NA,US,39.66,-78.92,10390,
21536,STANDARD,0,Grantsville,Jennings,,MD,Garrett County,America/New_York,"240,301",NA,US,39.69,-79.15,3410,
21538,STANDARD,0,Kitzmiller,Shallmar,,MD,Garrett County,America/New_York,301,NA,US,39.38,-79.18,510,
21539,STANDARD,0,Lonaconing,,,MD,Allegany County,America/New_York,301,NA,US,39.56,-78.97,2220,
21540,STANDARD,0,Luke,Westernport,,MD,Allegany County,America/New_York,301,NA,US,39.47,-79.06,48,
21541,STANDARD,0,Mc Henry,Sang Run,Mchenry,MD,Garrett County,America/New_York,301,NA,US,39.55,-79.35,1280,
21542,PO BOX,0,Midland,,,MD,Allegany County,America/New_York,240,NA,US,39.58,-78.94,541,
21543,PO BOX,0,Midlothian,,,MD,Allegany County,America/New_York,240,NA,US,39.66,-78.94,239,
21545,STANDARD,0,Mount Savage,,,MD,Allegany County,America/New_York,301,NA,US,39.69,-78.88,1690,
21550,STANDARD,0,Oakland,Crellin -  Deer Park -  Hutton -  Loch Lyn Hght -  Loch Lynn Heights -  Mnt Lake Park -  Mountain Lake Park -  Mt Lake Park -  Mtin Lk Park,,MD,Garrett County,America/New_York,"240,301",NA,US,39.41,-79.41,11820,
21555,STANDARD,0,Oldtown,,,MD,Allegany County,America/New_York,301,NA,US,39.54,-78.61,1440,
21556,PO BOX,0,Pinto,,,MD,Allegany County,America/New_York,240,NA,US,39.54,-78.89,105,
21557,STANDARD,0,Rawlings,,,MD,Allegany County,America/New_York,240,NA,US,39.53,-78.88,1560,
21560,PO BOX,0,Spring Gap,,,MD,Mineral County,America/New_York,240,NA,US,39.59,-78.69,78,
21561,STANDARD,0,Swanton,,,MD,Garrett County,America/New_York,301,NA,US,39.47,-79.21,2170,
21562,STANDARD,0,Westernport,Mccoole,,MD,Allegany County,America/New_York,"301,240",NA,US,39.48,-79.04,2420,
21601,STANDARD,0,Easton,,,MD,Talbot County,America/New_York,"410,443",NA,US,38.77,-76.06,21960,
21606,UNIQUE,1,Easton,First Fulfillment & Mgr Co,,MD,Talbot County,America/New_York,410,NA,US,38.77,-76.07,0,
21607,STANDARD,0,Barclay,,,MD,Queen Anne's County,America/New_York,410,NA,US,39.14,-75.86,440,
21609,PO BOX,0,Bethlehem,,,MD,Caroline County,America/New_York,410,NA,US,38.74,-75.93,77,
21610,STANDARD,0,Betterton,,,MD,Kent County,America/New_York,410,NA,US,39.36,-76.07,290,
21612,STANDARD,0,Bozman,,,MD,Talbot County,America/New_York,410,NA,US,38.75,-76.26,390,
21613,STANDARD,0,Cambridge,,,MD,Dorchester County,America/New_York,"410,443",NA,US,38.56,-76.07,15350,
21617,STANDARD,0,Centreville,,,MD,Queen Anne's County,America/New_York,"410,443",NA,US,39.04,-76.06,9500,
21619,STANDARD,0,Chester,,,MD,Queen Anne's County,America/New_York,410,NA,US,38.95,-76.28,6020,
21620,STANDARD,0,Chestertown,,,MD,Kent County,America/New_York,"410,443",NA,US,39.21,-76.07,10150,
21622,STANDARD,0,Church Creek,,,MD,Dorchester County,America/New_York,410,NA,US,38.5,-76.15,450,
21623,STANDARD,0,Church Hill,,,MD,Queen Anne's County,America/New_York,410,NA,US,39.14,-75.98,1860,
21624,PO BOX,0,Claiborne,,Saint Michaels,MD,Talbot County,America/New_York,410,NA,US,38.82,-76.28,127,
21625,STANDARD,0,Cordova,,,MD,Talbot County,America/New_York,410,NA,US,38.87,-75.99,2170,
21626,STANDARD,0,Crapo,,,MD,Dorchester County,America/New_York,410,NA,US,38.32,-76.12,104,
21627,STANDARD,0,Crocheron,,,MD,Dorchester County,America/New_York,410,NA,US,38.24,-76.05,27,
21628,PO BOX,0,Crumpton,,,MD,Queen Anne's County,America/New_York,410,NA,US,39.23,-75.91,474,
21629,STANDARD,0,Denton,,,MD,Caroline County,America/New_York,"410,443",NA,US,38.88,-75.82,8170,
21631,STANDARD,0,East New Market,E New Market,,MD,Dorchester County,America/New_York,410,NA,US,38.59,-75.92,2330,
21632,STANDARD,0,Federalsburg,,,MD,Caroline County,America/New_York,"410,443",NA,US,38.69,-75.77,5510,
21634,STANDARD,0,Fishing Creek,,Hoopersville,MD,Dorchester County,America/New_York,410,NA,US,38.32,-76.23,630,
21635,STANDARD,0,Galena,Golts,,MD,Kent County,America/New_York,410,NA,US,39.34,-75.87,1820,
21636,STANDARD,0,Goldsboro,,,MD,Caroline County,America/New_York,410,NA,US,39.03,-75.78,1020,
21638,STANDARD,0,Grasonville,,,MD,Queen Anne's County,America/New_York,410,NA,US,38.95,-76.19,4820,
21639,STANDARD,0,Greensboro,,,MD,Caroline County,America/New_York,410,NA,US,38.97,-75.8,4030,
21640,STANDARD,0,Henderson,,,MD,Caroline County,America/New_York,410,NA,US,39.07,-75.76,1510,
21641,PO BOX,0,Hillsboro,,,MD,Caroline County,America/New_York,410,NA,US,38.91,-75.94,172,
21643,STANDARD,0,Hurlock,,,MD,Dorchester County,America/New_York,410,NA,US,38.62,-75.87,5360,
21644,STANDARD,0,Ingleside,,,MD,Queen Anne's County,America/New_York,410,NA,US,39.12,-75.89,148,
21645,STANDARD,0,Kennedyville,,,MD,Kent County,America/New_York,410,NA,US,39.3,-75.98,850,
21647,STANDARD,0,Mcdaniel,,Saint Michaels,MD,Talbot County,America/New_York,410,NA,US,38.82,-76.28,280,
21648,STANDARD,0,Madison,,Woolford,MD,Dorchester County,America/New_York,410,NA,US,38.5,-76.22,186,
21649,STANDARD,0,Marydel,,,MD,Caroline County,America/New_York,410,NA,US,39.11,-75.74,1710,
21650,STANDARD,0,Massey,,,MD,Kent County,America/New_York,410,NA,US,39.31,-75.81,210,
21651,STANDARD,0,Millington,,,MD,Queen Anne's County,America/New_York,410,NA,US,39.25,-75.84,2490,
21652,PO BOX,0,Neavitt,,,MD,Talbot County,America/New_York,410,NA,US,38.72,-76.28,176,
21653,PO BOX,0,Newcomb,,,MD,Talbot County,America/New_York,410,NA,US,38.75,-76.19,121,
21654,STANDARD,0,Oxford,,,MD,Talbot County,America/New_York,410,NA,US,38.68,-76.17,1110,
21655,STANDARD,0,Preston,,,MD,Caroline County,America/New_York,410,NA,US,38.71,-75.9,4460,
21656,PO BOX,0,Price,Church Hill,,MD,Queen Anne's County,America/New_York,410,NA,US,39.14,-75.99,0,
21657,STANDARD,0,Queen Anne,,,MD,Queen Anne's County,America/New_York,410,NA,US,38.91,-75.95,1090,
21658,STANDARD,0,Queenstown,,,MD,Queen Anne's County,America/New_York,"410,443",NA,US,38.98,-76.15,3520,
21659,STANDARD,0,Rhodesdale,Brookview -  Eldorado -  Galestown,,MD,Dorchester County,America/New_York,"410,443",NA,US,38.59,-75.79,790,
21660,STANDARD,0,Ridgely,,,MD,Caroline County,America/New_York,410,NA,US,38.94,-75.88,3580,
21661,STANDARD,0,Rock Hall,,,MD,Kent County,America/New_York,410,NA,US,39.14,-76.24,2120,
21662,STANDARD,0,Royal Oak,,,MD,Talbot County,America/New_York,410,NA,US,38.74,-76.17,710,
21663,STANDARD,0,Saint Michaels,St Michaels,,MD,Talbot County,America/New_York,410,NA,US,38.78,-76.22,2740,
21664,PO BOX,0,Secretary,,,MD,Dorchester County,America/New_York,410,NA,US,38.6,-75.94,637,
21665,STANDARD,0,Sherwood,,,MD,Talbot County,America/New_York,410,NA,US,38.74,-76.32,220,
21666,STANDARD,0,Stevensville,,,MD,Queen Anne's County,America/New_York,"410,443",NA,US,38.99,-76.3,12150,
21667,STANDARD,0,Still Pond,,,MD,Kent County,America/New_York,410,NA,US,39.32,-76.05,280,
21668,STANDARD,0,Sudlersville,,,MD,Queen Anne's County,America/New_York,410,NA,US,39.18,-75.85,1500,
21669,PO BOX,0,Taylors Island,Taylors Is,,MD,Dorchester County,America/New_York,410,NA,US,38.46,-76.3,211,
21670,PO BOX,0,Templeville,,,MD,Caroline County,America/New_York,410,NA,US,39.13,-75.76,32,
21671,STANDARD,0,Tilghman,,,MD,Talbot County,America/New_York,410,NA,US,38.69,-76.33,640,
21672,STANDARD,0,Toddville,,,MD,Dorchester County,America/New_York,410,NA,US,38.27,-76.05,199,
21673,STANDARD,0,Trappe,,,MD,Talbot County,America/New_York,"410,443",NA,US,38.65,-76.05,2790,
21675,STANDARD,0,Wingate,,,MD,Dorchester County,America/New_York,410,NA,US,38.28,-76.08,81,
21676,STANDARD,0,Wittman,,,MD,Talbot County,America/New_York,410,NA,US,38.78,-76.3,230,
21677,STANDARD,0,Woolford,,Madison,MD,Dorchester County,America/New_York,410,NA,US,38.5,-76.18,410,
21678,STANDARD,0,Worton,Lynch,,MD,Kent County,America/New_York,410,NA,US,39.29,-76.11,2020,
21679,STANDARD,0,Wye Mills,,,MD,Talbot County,America/New_York,410,NA,US,38.91,-76.08,530,
21681,UNIQUE,1,Ridgely,,Nationwide Fulfill Systems,MD,Caroline County,America/New_York,410,NA,US,38.94,-75.88,0,
21682,UNIQUE,1,Ridgely,,Nationwide Fulfill Systems,MD,Caroline County,America/New_York,410,NA,US,38.94,-75.88,0,
21683,UNIQUE,1,Ridgely,,Nationwide Fulfill Systems,MD,Caroline County,America/New_York,410,NA,US,38.94,-75.88,0,
21684,UNIQUE,1,Ridgely,,Nationwide Fulfill Systems,MD,Caroline County,America/New_York,410,NA,US,38.94,-75.88,0,
21685,UNIQUE,1,Ridgely,,Nationwide Fulfill Systems,MD,Caroline County,America/New_York,410,NA,US,38.94,-75.88,0,
21686,UNIQUE,1,Ridgely,,Nationwide Fulfill Systems,MD,Caroline County,America/New_York,410,NA,US,38.94,-75.88,0,
21687,UNIQUE,1,Ridgely,,Nationwide Fulfill Systems,MD,Caroline County,America/New_York,410,NA,US,38.94,-75.88,0,
21688,UNIQUE,1,Ridgely,,Nationwide Fulfill Systems,MD,Caroline County,America/New_York,410,NA,US,38.94,-75.88,0,
21690,UNIQUE,0,Chestertown,,Usa Fulfillment,MD,Kent County,America/New_York,410,NA,US,39.21,-76.07,0,
21701,STANDARD,0,Frederick,Lewistown,Hood College,MD,Frederick County,America/New_York,"240,301",NA,US,39.42,-77.41,33250,
21702,STANDARD,0,Frederick,Fort Detrick,College Estates,MD,Frederick County,America/New_York,"240,301",NA,US,39.42,-77.41,40050,
21703,STANDARD,0,Frederick,,,MD,Frederick County,America/New_York,"301,240",NA,US,39.42,-77.41,34440,
21704,STANDARD,0,Frederick,Urbana,,MD,Frederick County,America/New_York,"301,240",NA,US,39.42,-77.41,15220,
21705,PO BOX,0,Frederick,,,MD,Frederick County,America/New_York,240,NA,US,39.42,-77.41,758,
21709,UNIQUE,0,Frederick,,State Farm Ins Co,MD,Frederick County,America/New_York,240,NA,US,39.42,-77.41,0,
21710,STANDARD,0,Adamstown,Doubs,,MD,Frederick County,America/New_York,"240,301",NA,US,39.29,-77.45,4420,
21711,STANDARD,0,Big Pool,,,MD,Washington County,America/New_York,240,NA,US,39.66,-78,930,
21713,STANDARD,0,Boonsboro,,,MD,Washington County,America/New_York,240,NA,US,39.5,-77.65,8590,
21714,PO BOX,0,Braddock Heights,Braddock Hts,,MD,Frederick County,America/New_York,240,NA,US,39.41,-77.5,439,
21715,PO BOX,0,Brownsville,,,MD,Washington County,America/New_York,240,NA,US,39.38,-77.66,115,
21716,STANDARD,0,Brunswick,,Knoxville,MD,Frederick County,America/New_York,301,NA,US,39.31,-77.61,5110,
21717,PO BOX,0,Buckeystown,,,MD,Frederick County,America/New_York,240,NA,US,39.33,-77.43,406,
21718,STANDARD,0,Burkittsville,,,MD,Frederick County,America/New_York,240,NA,US,39.39,-77.62,216,
21719,STANDARD,0,Cascade,Fort Ritchie -  Highfield,,MD,Washington County,America/New_York,"240,301",NA,US,39.7,-77.49,1350,
21720,PO BOX,0,Cavetown,,,MD,Washington County,America/New_York,240,NA,US,39.65,-77.57,250,
21721,PO BOX,0,Chewsville,,,MD,Washington County,America/New_York,240,NA,US,39.63,-77.68,151,
21722,STANDARD,0,Clear Spring,Big Spring,,MD,Washington County,America/New_York,301,NA,US,39.65,-77.93,5240,
21723,STANDARD,0,Cooksville,,,MD,Howard County,America/New_York,410,NA,US,39.31,-77,910,
21727,STANDARD,0,Emmitsburg,,,MD,Frederick County,America/New_York,"240,301",NA,US,39.7,-77.32,3970,
21733,STANDARD,0,Fairplay,St James,,MD,Washington County,America/New_York,240,NA,US,39.53,-77.74,1130,
21734,PO BOX,0,Funkstown,,,MD,Washington County,America/New_York,240,NA,US,39.6,-77.7,1015,
21737,STANDARD,0,Glenelg,,,MD,Howard County,America/New_York,410,NA,US,39.26,-76.99,2070,
21738,STANDARD,0,Glenwood,,,MD,Howard County,America/New_York,"410,443",NA,US,39.28,-77.02,3530,
21740,STANDARD,0,Hagerstown,,,MD,Washington County,America/New_York,"240,301",NA,US,39.63,-77.71,51760,
21741,PO BOX,0,Hagerstown,,,MD,Washington County,America/New_York,240,NA,US,39.63,-77.71,870,
21742,STANDARD,0,Hagerstown,,Northern,MD,Washington County,America/New_York,"240,301",NA,US,39.63,-77.71,29060,
21746,UNIQUE,0,Hagerstown,,Maryland Correctional System,MD,Washington County,America/New_York,240,NA,US,39.63,-77.71,28,
21747,PO BOX,0,Hagerstown,,Citicorp,MD,Washington County,America/New_York,240,NA,US,39.63,-77.71,0,
21748,UNIQUE,1,Hagerstown,,Citicorp,MD,Washington County,America/New_York,240,NA,US,39.63,-77.71,0,
21749,UNIQUE,0,Hagerstown,,Citicorp,MD,Washington County,America/New_York,240,NA,US,39.63,-77.71,0,
21750,STANDARD,0,Hancock,,,MD,Washington County,America/New_York,"240,301",NA,US,39.7,-78.17,3260,
21754,STANDARD,0,Ijamsville,,,MD,Frederick County,America/New_York,240,NA,US,39.33,-77.31,5990,
21755,STANDARD,0,Jefferson,,,MD,Frederick County,America/New_York,240,NA,US,39.36,-77.53,5190,
21756,STANDARD,0,Keedysville,,,MD,Washington County,America/New_York,301,NA,US,39.48,-77.69,3540,
21757,STANDARD,0,Keymar,Detour -  Middleburg,,MD,Frederick County,America/New_York,,NA,US,39.59,-77.26,2600,
21758,STANDARD,0,Knoxville,Brunswick,,MD,Frederick County,America/New_York,301,NA,US,39.35,-77.64,4520,
21759,PO BOX,0,Ladiesburg,,,MD,Frederick County,America/New_York,240,NA,US,39.56,-77.26,48,
21762,PO BOX,0,Libertytown,,,MD,Frederick County,America/New_York,240,NA,US,39.48,-77.24,490,
21765,PO BOX,0,Lisbon,,,MD,Howard County,America/New_York,410,NA,US,39.33,-77.07,179,
21766,STANDARD,0,Little Orleans,Ltl Orleans,,MD,Allegany County,America/New_York,240,NA,US,39.62,-78.38,510,
21767,STANDARD,0,Maugansville,,,MD,Washington County,America/New_York,240,NA,US,39.69,-77.75,1110,
21769,STANDARD,0,Middletown,,,MD,Frederick County,America/New_York,"240,301",NA,US,39.44,-77.54,11400,
21770,STANDARD,0,Monrovia,,,MD,Frederick County,America/New_York,"240,301",NA,US,39.35,-77.25,5140,
21771,STANDARD,0,Mount Airy,,,MD,Carroll County,America/New_York,"240,301",NA,US,39.37,-77.15,30050,
21773,STANDARD,0,Myersville,,,MD,Frederick County,America/New_York,"240,301",NA,US,39.5,-77.56,5010,
21774,STANDARD,0,New Market,,Lake Linganore,MD,Frederick County,America/New_York,301,NA,US,39.38,-77.27,13330,
21775,PO BOX,0,New Midway,,,MD,Frederick County,America/New_York,240,NA,US,39.55,-77.3,34,
21776,STANDARD,0,New Windsor,,,MD,Carroll County,America/New_York,"410,443",NA,US,39.54,-77.1,5560,
21777,STANDARD,0,Point Of Rocks,Pt Of Rocks,,MD,Frederick County,America/New_York,240,NA,US,39.27,-77.53,1840,
21778,STANDARD,0,Rocky Ridge,,,MD,Frederick County,America/New_York,240,NA,US,39.61,-77.33,990,
21779,STANDARD,0,Rohrersville,Gapland,,MD,Washington County,America/New_York,240,NA,US,39.43,-77.65,890,
21780,STANDARD,0,Sabillasville,,,MD,Frederick County,America/New_York,240,NA,US,39.7,-77.45,1380,
21781,PO BOX,0,Saint James,,,MD,Washington County,America/New_York,240,NA,US,39.57,-77.82,84,
21782,STANDARD,0,Sharpsburg,,,MD,Washington County,America/New_York,240,NA,US,39.45,-77.74,3740,
21783,STANDARD,0,Smithsburg,,,MD,Washington County,America/New_York,"240,301",NA,US,39.65,-77.57,8450,
21784,STANDARD,0,Sykesville,Eldersburg -  Gaither,,MD,Carroll County,America/New_York,"410,443",NA,US,39.37,-76.97,37270,
21787,STANDARD,0,Taneytown,,,MD,Carroll County,America/New_York,"410,443",NA,US,39.65,-77.16,9580,
21788,STANDARD,0,Thurmont,Graceham,,MD,Frederick County,America/New_York,"240,301",NA,US,39.62,-77.4,10850,
21790,STANDARD,0,Tuscarora,,,MD,Frederick County,America/New_York,240,NA,US,39.26,-77.5,134,
21791,STANDARD,0,Union Bridge,Linwood,,MD,Frederick County,America/New_York,"410,443",NA,US,39.56,-77.17,4700,
21792,PO BOX,0,Unionville,,,MD,Frederick County,America/New_York,240,NA,US,39.51,-77.11,0,
21793,STANDARD,0,Walkersville,,,MD,Frederick County,America/New_York,301,NA,US,39.48,-77.35,9860,
21794,STANDARD,0,West Friendship,W Friendship,,MD,Howard County,America/New_York,410,NA,US,39.3,-76.95,2450,
21795,STANDARD,0,Williamsport,,,MD,Washington County,America/New_York,"240,301",NA,US,39.59,-77.81,8580,
21797,STANDARD,0,Woodbine,,,MD,Howard County,America/New_York,,NA,US,39.33,-77.06,8960,
21798,STANDARD,0,Woodsboro,,,MD,Frederick County,America/New_York,240,NA,US,39.53,-77.31,2300,
21801,STANDARD,0,Salisbury,,,MD,Wicomico County,America/New_York,"443,410,667",NA,US,38.37,-75.58,23990,
21802,PO BOX,0,Salisbury,,,MD,Wicomico County,America/New_York,410,NA,US,38.37,-75.58,1309,
21803,PO BOX,0,Salisbury,,,MD,Wicomico County,America/New_York,410,NA,US,38.37,-75.58,508,
21804,STANDARD,0,Salisbury,,,MD,Wicomico County,America/New_York,"410,667,443",NA,US,38.37,-75.58,31540,
21810,PO BOX,0,Allen,,,MD,Somerset County,America/New_York,410,NA,US,38.28,-75.68,163,
21811,STANDARD,0,Berlin,Ocean Pines -  Ocean Pnes,,MD,Worcester County,America/New_York,"410,443",NA,US,38.32,-75.21,20820,
21813,STANDARD,0,Bishopville,,Bishop,MD,Worcester County,America/New_York,"410,443",NA,US,38.44,-75.19,2680,
21814,STANDARD,0,Bivalve,,,MD,Wicomico County,America/New_York,410,NA,US,38.3,-75.88,290,
21817,STANDARD,0,Crisfield,,,MD,Somerset County,America/New_York,"410,443",NA,US,37.98,-75.85,4030,
21821,STANDARD,0,Deal Island,Chance -  Dames Quarter -  Wenona,,MD,Somerset County,America/New_York,410,NA,US,38.15,-75.94,720,
21822,STANDARD,0,Eden,,,MD,Somerset County,America/New_York,,NA,US,38.28,-75.65,2460,
21824,STANDARD,0,Ewell,,Rhodes Point,MD,Somerset County,America/New_York,410,NA,US,37.98,-76.03,142,
21826,STANDARD,0,Fruitland,,,MD,Wicomico County,America/New_York,410,NA,US,38.32,-75.62,4540,
21829,STANDARD,0,Girdletree,,,MD,Worcester County,America/New_York,410,NA,US,38.09,-75.39,420,
21830,STANDARD,0,Hebron,,,MD,Wicomico County,America/New_York,"410,443",NA,US,38.41,-75.68,3800,
21835,STANDARD,0,Linkwood,,,MD,Dorchester County,America/New_York,"410,443",NA,US,38.54,-75.94,400,
21836,PO BOX,0,Manokin,,,MD,Somerset County,America/New_York,410,NA,US,38.11,-75.75,73,
21837,STANDARD,0,Mardela Springs,Mardela -  Mardela Spgs,,MD,Wicomico County,America/New_York,"410,443",NA,US,38.45,-75.75,2300,
21838,STANDARD,0,Marion Station,Marion -  Marion Sta,,MD,Somerset County,America/New_York,410,NA,US,38.01,-75.73,1570,
21840,STANDARD,0,Nanticoke,,,MD,Wicomico County,America/New_York,"410,443",NA,US,38.27,-75.9,320,
21841,STANDARD,0,Newark,,,MD,Worcester County,America/New_York,410,NA,US,38.25,-75.29,790,
21842,STANDARD,0,Ocean City,,North Ocean City -  West Ocean City,MD,Worcester County,America/New_York,"410,443",NA,US,38.33,-75.08,10110,
21843,PO BOX,0,Ocean City,,,MD,Worcester County,America/New_York,410,NA,US,38.33,-75.08,1256,
21849,STANDARD,0,Parsonsburg,,,MD,Wicomico County,America/New_York,410,NA,US,38.38,-75.47,2870,
21850,STANDARD,0,Pittsville,,,MD,Wicomico County,America/New_York,410,NA,US,38.39,-75.41,2710,
21851,STANDARD,0,Pocomoke City,,Pocomoke,MD,Worcester County,America/New_York,"410,443",NA,US,38.06,-75.56,6300,
21852,PO BOX,0,Powellville,,Pittsville,MD,Wicomico County,America/New_York,410,NA,US,38.32,-75.37,0,
21853,STANDARD,0,Princess Anne,,Oriole,MD,Somerset County,America/New_York,"410,443",NA,US,38.2,-75.69,7090,
21856,STANDARD,0,Quantico,,Whitehaven,MD,Wicomico County,America/New_York,410,NA,US,38.32,-75.79,740,
21857,PO BOX,0,Rehobeth,,,MD,Somerset County,America/New_York,410,NA,US,38.03,-75.66,0,
21861,PO BOX,0,Sharptown,,,MD,Wicomico County,America/New_York,410,NA,US,38.53,-75.72,815,
21862,STANDARD,0,Showell,,,MD,Worcester County,America/New_York,410,NA,US,38.39,-75.21,96,
21863,STANDARD,0,Snow Hill,,,MD,Worcester County,America/New_York,"410,443",NA,US,38.17,-75.39,4110,
21864,STANDARD,0,Stockton,,,MD,Worcester County,America/New_York,410,NA,US,38.05,-75.4,580,
21865,STANDARD,0,Tyaskin,,,MD,Wicomico County,America/New_York,410,NA,US,38.32,-75.87,450,
21866,PO BOX,0,Tylerton,,,MD,Somerset County,America/New_York,410,NA,US,37.96,-76.01,51,
21867,PO BOX,0,Upper Fairmount,Fairmount -  Upper Fairmt -  Upper Hill,,MD,Somerset County,America/New_York,410,NA,US,38.1,-75.79,213,
21869,STANDARD,0,Vienna,,Elliott -  Salem,MD,Dorchester County,America/New_York,410,NA,US,38.48,-75.82,770,
21871,STANDARD,0,Westover,,Easton Correctional Inst -  Kingston -  Rumbley,MD,Somerset County,America/New_York,410,NA,US,38.12,-75.7,1590,
21872,STANDARD,0,Whaleyville,,,MD,Worcester County,America/New_York,410,NA,US,38.4,-75.3,630,
21874,STANDARD,0,Willards,,,MD,Wicomico County,America/New_York,"410,443",NA,US,38.39,-75.34,2010,
21875,STANDARD,0,Delmar,,,MD,Wicomico County,America/New_York,"410,443",NA,US,38.45,-75.57,5940,
21890,UNIQUE,0,Westover,,Eastern Correctional Inst -  Easton Correctional Inst,MD,Somerset County,America/New_York,410,NA,US,38.12,-75.7,0,
21901,STANDARD,0,North East,,Northeast,MD,Cecil County,America/New_York,"410,443",NA,US,39.6,-75.94,15680,
21902,PO BOX,0,Perry Point,,,MD,Cecil County,America/New_York,410,NA,US,39.6,-75.95,121,
21903,STANDARD,0,Perryville,,,MD,Cecil County,America/New_York,"410,443",NA,US,39.57,-76.06,5050,
21904,STANDARD,0,Port Deposit,Bainbridge,,MD,Cecil County,America/New_York,"410,443",NA,US,39.6,-76.11,6270,
21911,STANDARD,0,Rising Sun,,,MD,Cecil County,America/New_York,410,NA,US,39.69,-76.06,10210,
21912,STANDARD,0,Warwick,,,MD,Cecil County,America/New_York,410,NA,US,39.42,-75.8,1110,
21913,PO BOX,0,Cecilton,,,MD,Cecil County,America/New_York,410,NA,US,39.4,-75.86,776,
21914,PO BOX,0,Charlestown,,,MD,Cecil County,America/New_York,410,NA,US,39.57,-75.97,813,
21915,STANDARD,0,Chesapeake City,Chesapeake Cy,,MD,Cecil County,America/New_York,"443,410",NA,US,39.52,-75.81,2840,
21916,PO BOX,0,Childs,,,MD,Cecil County,America/New_York,410,NA,US,39.65,-75.85,159,
21917,STANDARD,0,Colora,,,MD,Cecil County,America/New_York,410,NA,US,39.66,-76.09,2330,
21918,STANDARD,0,Conowingo,,,MD,Cecil County,America/New_York,410,NA,US,39.68,-76.16,3910,
21919,STANDARD,0,Earleville,,,MD,Cecil County,America/New_York,410,NA,US,39.41,-75.93,2540,
21920,PO BOX,0,Elk Mills,,,MD,Cecil County,America/New_York,410,NA,US,39.65,-75.85,365,
21921,STANDARD,0,Elkton,,,MD,Cecil County,America/New_York,"410,443",NA,US,39.6,-75.82,38390,
21922,PO BOX,0,Elkton,,,MD,Cecil County,America/New_York,410,NA,US,39.6,-75.82,980,
21930,PO BOX,0,Georgetown,,,MD,Cecil County,America/New_York,410,NA,US,39.39,-75.87,222,